{
"type": "FeatureCollection",
"name": "candidate_scores",
"crs": { "type": "name", "properties": { "name": "urn:ogc:def:crs:EPSG::2056" } },
"features": [
{ "type": "Feature", "properties": { "x": 2717876.0670041009, "y": 1112450.7047338823, "tile": "bellinzona_full_nir_2024_c030_r086_nirchm.tif", "predicted_prob": 0.91375768184661865 }, "geometry": { "type": "Point", "coordinates": [ 2717876.067004100885242, 1112450.704733882332221 ] } },
{ "type": "Feature", "properties": { "x": 2717876.0670041009, "y": 1112450.7047338823, "tile": "bellinzona_full_nir_2024_c030_r086_nirchm.tif", "predicted_prob": 0.88573700189590454 }, "geometry": { "type": "Point", "coordinates": [ 2717876.067004100885242, 1112450.704733882332221 ] } },
{ "type": "Feature", "properties": { "x": 2717876.0670041009, "y": 1112450.7047338823, "tile": "bellinzona_full_nir_2024_c031_r086_nirchm.tif", "predicted_prob": 0.87688684463500977 }, "geometry": { "type": "Point", "coordinates": [ 2717876.067004100885242, 1112450.704733882332221 ] } },
{ "type": "Feature", "properties": { "x": 2721506.007990269, "y": 1115668.0884003127, "tile": "bellinzona_full_nir_2024_c071_r050_nirchm.tif", "predicted_prob": 0.86918985843658447 }, "geometry": { "type": "Point", "coordinates": [ 2721506.007990268990397, 1115668.088400312699378 ] } },
{ "type": "Feature", "properties": { "x": 2717022.6057379567, "y": 1113315.185614022, "tile": "bellinzona_full_nir_2024_c021_r076_nirchm.tif", "predicted_prob": 0.86798489093780518 }, "geometry": { "type": "Point", "coordinates": [ 2717022.605737956706434, 1113315.185614021960646 ] } },
{ "type": "Feature", "properties": { "x": 2719096.8270172803, "y": 1113094.9834636522, "tile": "bellinzona_full_nir_2024_c044_r079_nirchm.tif", "predicted_prob": 0.85251259803771973 }, "geometry": { "type": "Point", "coordinates": [ 2719096.827017280273139, 1113094.983463652199134 ] } },
{ "type": "Feature", "properties": { "x": 2720813.9246108825, "y": 1115083.4740819999, "tile": "bellinzona_full_nir_2024_c063_r056_nirchm.tif", "predicted_prob": 0.84495812654495239 }, "geometry": { "type": "Point", "coordinates": [ 2720813.924610882531852, 1115083.474081999855116 ] } },
{ "type": "Feature", "properties": { "x": 2719096.8270172803, "y": 1113094.9834636522, "tile": "bellinzona_full_nir_2024_c044_r078_nirchm.tif", "predicted_prob": 0.84074193239212036 }, "geometry": { "type": "Point", "coordinates": [ 2719096.827017280273139, 1113094.983463652199134 ] } },
{ "type": "Feature", "properties": { "x": 2719220.9008468231, "y": 1112951.156242036, "tile": "bellinzona_full_nir_2024_c046_r080_nirchm.tif", "predicted_prob": 0.83842599391937256 }, "geometry": { "type": "Point", "coordinates": [ 2719220.900846823118627, 1112951.156242036027834 ] } },
{ "type": "Feature", "properties": { "x": 2719220.9008468231, "y": 1112951.156242036, "tile": "bellinzona_full_nir_2024_c045_r080_nirchm.tif", "predicted_prob": 0.82782042026519775 }, "geometry": { "type": "Point", "coordinates": [ 2719220.900846823118627, 1112951.156242036027834 ] } },
{ "type": "Feature", "properties": { "x": 2719220.9008468231, "y": 1112951.156242036, "tile": "bellinzona_full_nir_2024_c046_r080_nirchm.tif", "predicted_prob": 0.82463729381561279 }, "geometry": { "type": "Point", "coordinates": [ 2719220.900846823118627, 1112951.156242036027834 ] } },
{ "type": "Feature", "properties": { "x": 2719096.8270172803, "y": 1113094.9834636522, "tile": "bellinzona_full_nir_2024_c044_r078_nirchm.tif", "predicted_prob": 0.82113635540008545 }, "geometry": { "type": "Point", "coordinates": [ 2719096.827017280273139, 1113094.983463652199134 ] } },
{ "type": "Feature", "properties": { "x": 2720813.9246108825, "y": 1115083.4740819999, "tile": "bellinzona_full_nir_2024_c063_r056_nirchm.tif", "predicted_prob": 0.8168867826461792 }, "geometry": { "type": "Point", "coordinates": [ 2720813.924610882531852, 1115083.474081999855116 ] } },
{ "type": "Feature", "properties": { "x": 2720391.5809720526, "y": 1114315.3410367903, "tile": "bellinzona_full_nir_2024_c059_r065_nirchm.tif", "predicted_prob": 0.81545865535736084 }, "geometry": { "type": "Point", "coordinates": [ 2720391.580972052644938, 1114315.341036790283397 ] } },
{ "type": "Feature", "properties": { "x": 2720391.5809720526, "y": 1114315.3410367903, "tile": "bellinzona_full_nir_2024_c058_r065_nirchm.tif", "predicted_prob": 0.80770492553710938 }, "geometry": { "type": "Point", "coordinates": [ 2720391.580972052644938, 1114315.341036790283397 ] } },
{ "type": "Feature", "properties": { "x": 2720391.5809720526, "y": 1114315.3410367903, "tile": "bellinzona_full_nir_2024_c058_r065_nirchm.tif", "predicted_prob": 0.80121606588363647 }, "geometry": { "type": "Point", "coordinates": [ 2720391.580972052644938, 1114315.341036790283397 ] } },
{ "type": "Feature", "properties": { "x": 2719220.9008468231, "y": 1112951.156242036, "tile": "bellinzona_full_nir_2024_c045_r080_nirchm.tif", "predicted_prob": 0.786518394947052 }, "geometry": { "type": "Point", "coordinates": [ 2719220.900846823118627, 1112951.156242036027834 ] } },
{ "type": "Feature", "properties": { "x": 2717876.0670041009, "y": 1112450.7047338823, "tile": "bellinzona_full_nir_2024_c031_r086_nirchm.tif", "predicted_prob": 0.78406363725662231 }, "geometry": { "type": "Point", "coordinates": [ 2717876.067004100885242, 1112450.704733882332221 ] } },
{ "type": "Feature", "properties": { "x": 2717022.6057379567, "y": 1113315.185614022, "tile": "bellinzona_full_nir_2024_c021_r076_nirchm.tif", "predicted_prob": 0.77550405263900757 }, "geometry": { "type": "Point", "coordinates": [ 2717022.605737956706434, 1113315.185614021960646 ] } },
{ "type": "Feature", "properties": { "x": 2720391.5809720526, "y": 1114315.3410367903, "tile": "bellinzona_full_nir_2024_c059_r065_nirchm.tif", "predicted_prob": 0.77497994899749756 }, "geometry": { "type": "Point", "coordinates": [ 2720391.580972052644938, 1114315.341036790283397 ] } },
{ "type": "Feature", "properties": { "x": 2719096.8270172803, "y": 1113094.9834636522, "tile": "bellinzona_full_nir_2024_c044_r079_nirchm.tif", "predicted_prob": 0.76232129335403442 }, "geometry": { "type": "Point", "coordinates": [ 2719096.827017280273139, 1113094.983463652199134 ] } },
{ "type": "Feature", "properties": { "x": 2719847.3996350593, "y": 1113875.6253407481, "tile": "bellinzona_full_nir_2024_c052_r070_nirchm.tif", "predicted_prob": 0.76078850030899048 }, "geometry": { "type": "Point", "coordinates": [ 2719847.39963505929336, 1113875.625340748112649 ] } },
{ "type": "Feature", "properties": { "x": 2719220.9008468231, "y": 1112951.156242036, "tile": "bellinzona_full_nir_2024_c046_r080_nirchm.tif", "predicted_prob": 0.74296504259109497 }, "geometry": { "type": "Point", "coordinates": [ 2719220.900846823118627, 1112951.156242036027834 ] } },
{ "type": "Feature", "properties": { "x": 2720618.5340603357, "y": 1117103.7563986399, "tile": "bellinzona_full_nir_2024_c061_r034_nirchm.tif", "predicted_prob": 0.73961001634597778 }, "geometry": { "type": "Point", "coordinates": [ 2720618.534060335718095, 1117103.756398639874533 ] } },
{ "type": "Feature", "properties": { "x": 2719096.8270172803, "y": 1113094.9834636522, "tile": "bellinzona_full_nir_2024_c044_r079_nirchm.tif", "predicted_prob": 0.73874598741531372 }, "geometry": { "type": "Point", "coordinates": [ 2719096.827017280273139, 1113094.983463652199134 ] } },
{ "type": "Feature", "properties": { "x": 2720618.5340603357, "y": 1117103.7563986399, "tile": "bellinzona_full_nir_2024_c061_r034_nirchm.tif", "predicted_prob": 0.72447967529296875 }, "geometry": { "type": "Point", "coordinates": [ 2720618.534060335718095, 1117103.756398639874533 ] } },
{ "type": "Feature", "properties": { "x": 2720906.8641559095, "y": 1114869.2714668817, "tile": "bellinzona_full_nir_2024_c064_r059_nirchm.tif", "predicted_prob": 0.69779551029205322 }, "geometry": { "type": "Point", "coordinates": [ 2720906.864155909512192, 1114869.27146688173525 ] } },
{ "type": "Feature", "properties": { "x": 2719847.3996350593, "y": 1113875.6253407481, "tile": "bellinzona_full_nir_2024_c052_r070_nirchm.tif", "predicted_prob": 0.67179596424102783 }, "geometry": { "type": "Point", "coordinates": [ 2719847.39963505929336, 1113875.625340748112649 ] } },
{ "type": "Feature", "properties": { "x": 2719847.3996350593, "y": 1113875.6253407481, "tile": "bellinzona_full_nir_2024_c053_r070_nirchm.tif", "predicted_prob": 0.65937715768814087 }, "geometry": { "type": "Point", "coordinates": [ 2719847.39963505929336, 1113875.625340748112649 ] } },
{ "type": "Feature", "properties": { "x": 2719220.9008468231, "y": 1112951.156242036, "tile": "bellinzona_full_nir_2024_c045_r080_nirchm.tif", "predicted_prob": 0.65834462642669678 }, "geometry": { "type": "Point", "coordinates": [ 2719220.900846823118627, 1112951.156242036027834 ] } },
{ "type": "Feature", "properties": { "x": 2720906.8641559095, "y": 1114869.2714668817, "tile": "bellinzona_full_nir_2024_c064_r059_nirchm.tif", "predicted_prob": 0.6525304913520813 }, "geometry": { "type": "Point", "coordinates": [ 2720906.864155909512192, 1114869.27146688173525 ] } },
{ "type": "Feature", "properties": { "x": 2719096.8270172803, "y": 1113094.9834636522, "tile": "bellinzona_full_nir_2024_c044_r078_nirchm.tif", "predicted_prob": 0.64229178428649902 }, "geometry": { "type": "Point", "coordinates": [ 2719096.827017280273139, 1113094.983463652199134 ] } },
{ "type": "Feature", "properties": { "x": 2719847.3996350593, "y": 1113875.6253407481, "tile": "bellinzona_full_nir_2024_c053_r070_nirchm.tif", "predicted_prob": 0.60820621252059937 }, "geometry": { "type": "Point", "coordinates": [ 2719847.39963505929336, 1113875.625340748112649 ] } },
{ "type": "Feature", "properties": { "x": 2717898.6065851441, "y": 1114232.3970471884, "tile": "bellinzona_full_nir_2024_c031_r066_nirchm.tif", "predicted_prob": 0.55055803060531616 }, "geometry": { "type": "Point", "coordinates": [ 2717898.60658514406532, 1114232.397047188365832 ] } },
{ "type": "Feature", "properties": { "x": 2718156.5406056573, "y": 1113078.1467610016, "tile": "bellinzona_full_nir_2024_c033_r079_nirchm.tif", "predicted_prob": 0.54809671640396118 }, "geometry": { "type": "Point", "coordinates": [ 2718156.540605657268316, 1113078.146761001553386 ] } },
{ "type": "Feature", "properties": { "x": 2716953.9173479434, "y": 1114385.3403868179, "tile": "bellinzona_full_nir_2024_c020_r064_nirchm.tif", "predicted_prob": 0.50936901569366455 }, "geometry": { "type": "Point", "coordinates": [ 2716953.917347943410277, 1114385.340386817930266 ] } },
{ "type": "Feature", "properties": { "x": 2717898.6065851441, "y": 1114232.3970471884, "tile": "bellinzona_full_nir_2024_c031_r066_nirchm.tif", "predicted_prob": 0.4902573823928833 }, "geometry": { "type": "Point", "coordinates": [ 2717898.60658514406532, 1114232.397047188365832 ] } },
{ "type": "Feature", "properties": { "x": 2718890.7727370597, "y": 1114442.2730733191, "tile": "bellinzona_full_nir_2024_c042_r064_nirchm.tif", "predicted_prob": 0.49025499820709229 }, "geometry": { "type": "Point", "coordinates": [ 2718890.772737059742212, 1114442.273073319112882 ] } },
{ "type": "Feature", "properties": { "x": 2717898.6065851441, "y": 1114232.3970471884, "tile": "bellinzona_full_nir_2024_c031_r066_nirchm.tif", "predicted_prob": 0.48228716850280762 }, "geometry": { "type": "Point", "coordinates": [ 2717898.60658514406532, 1114232.397047188365832 ] } },
{ "type": "Feature", "properties": { "x": 2718015.0015782863, "y": 1113986.4891416456, "tile": "bellinzona_full_nir_2024_c032_r068_nirchm.tif", "predicted_prob": 0.47579258680343628 }, "geometry": { "type": "Point", "coordinates": [ 2718015.001578286290169, 1113986.48914164560847 ] } },
{ "type": "Feature", "properties": { "x": 2720173.6114054434, "y": 1113000.5907808421, "tile": "bellinzona_full_nir_2024_c056_r080_nirchm.tif", "predicted_prob": 0.46082496643066406 }, "geometry": { "type": "Point", "coordinates": [ 2720173.611405443400145, 1113000.590780842117965 ] } },
{ "type": "Feature", "properties": { "x": 2718156.5406056573, "y": 1113078.1467610016, "tile": "bellinzona_full_nir_2024_c034_r079_nirchm.tif", "predicted_prob": 0.45834788680076599 }, "geometry": { "type": "Point", "coordinates": [ 2718156.540605657268316, 1113078.146761001553386 ] } },
{ "type": "Feature", "properties": { "x": 2718015.0015782863, "y": 1113986.4891416456, "tile": "bellinzona_full_nir_2024_c032_r069_nirchm.tif", "predicted_prob": 0.43006840348243713 }, "geometry": { "type": "Point", "coordinates": [ 2718015.001578286290169, 1113986.48914164560847 ] } },
{ "type": "Feature", "properties": { "x": 2718156.5406056573, "y": 1113078.1467610016, "tile": "bellinzona_full_nir_2024_c034_r079_nirchm.tif", "predicted_prob": 0.42469015717506409 }, "geometry": { "type": "Point", "coordinates": [ 2718156.540605657268316, 1113078.146761001553386 ] } },
{ "type": "Feature", "properties": { "x": 2715989.1645002826, "y": 1114663.8452136389, "tile": "bellinzona_full_nir_2024_c009_r061_nirchm.tif", "predicted_prob": 0.38432183861732483 }, "geometry": { "type": "Point", "coordinates": [ 2715989.164500282611698, 1114663.845213638851419 ] } },
{ "type": "Feature", "properties": { "x": 2719847.3996350593, "y": 1113875.6253407481, "tile": "bellinzona_full_nir_2024_c053_r070_nirchm.tif", "predicted_prob": 0.38292691111564636 }, "geometry": { "type": "Point", "coordinates": [ 2719847.39963505929336, 1113875.625340748112649 ] } },
{ "type": "Feature", "properties": { "x": 2718890.7727370597, "y": 1114442.2730733191, "tile": "bellinzona_full_nir_2024_c042_r064_nirchm.tif", "predicted_prob": 0.37835022807121277 }, "geometry": { "type": "Point", "coordinates": [ 2718890.772737059742212, 1114442.273073319112882 ] } },
{ "type": "Feature", "properties": { "x": 2716953.9173479434, "y": 1114385.3403868179, "tile": "bellinzona_full_nir_2024_c020_r064_nirchm.tif", "predicted_prob": 0.37198162078857422 }, "geometry": { "type": "Point", "coordinates": [ 2716953.917347943410277, 1114385.340386817930266 ] } },
{ "type": "Feature", "properties": { "x": 2715989.1645002826, "y": 1114663.8452136389, "tile": "bellinzona_full_nir_2024_c009_r061_nirchm.tif", "predicted_prob": 0.36353117227554321 }, "geometry": { "type": "Point", "coordinates": [ 2715989.164500282611698, 1114663.845213638851419 ] } },
{ "type": "Feature", "properties": { "x": 2720173.6114054434, "y": 1113000.5907808421, "tile": "bellinzona_full_nir_2024_c056_r080_nirchm.tif", "predicted_prob": 0.36257168650627136 }, "geometry": { "type": "Point", "coordinates": [ 2720173.611405443400145, 1113000.590780842117965 ] } },
{ "type": "Feature", "properties": { "x": 2718979.708226392, "y": 1117078.6683443205, "tile": "bellinzona_full_nir_2024_c043_r034_nirchm.tif", "predicted_prob": 0.33358103036880493 }, "geometry": { "type": "Point", "coordinates": [ 2718979.708226392045617, 1117078.668344320496544 ] } },
{ "type": "Feature", "properties": { "x": 2719847.3996350593, "y": 1113875.6253407481, "tile": "bellinzona_full_nir_2024_c052_r070_nirchm.tif", "predicted_prob": 0.32467979192733765 }, "geometry": { "type": "Point", "coordinates": [ 2719847.39963505929336, 1113875.625340748112649 ] } },
{ "type": "Feature", "properties": { "x": 2718156.5406056573, "y": 1113078.1467610016, "tile": "bellinzona_full_nir_2024_c033_r079_nirchm.tif", "predicted_prob": 0.32388165593147278 }, "geometry": { "type": "Point", "coordinates": [ 2718156.540605657268316, 1113078.146761001553386 ] } },
{ "type": "Feature", "properties": { "x": 2720173.6114054434, "y": 1113000.5907808421, "tile": "bellinzona_full_nir_2024_c056_r079_nirchm.tif", "predicted_prob": 0.29558289051055908 }, "geometry": { "type": "Point", "coordinates": [ 2720173.611405443400145, 1113000.590780842117965 ] } },
{ "type": "Feature", "properties": { "x": 2718979.708226392, "y": 1117078.6683443205, "tile": "bellinzona_full_nir_2024_c043_r034_nirchm.tif", "predicted_prob": 0.27163752913475037 }, "geometry": { "type": "Point", "coordinates": [ 2718979.708226392045617, 1117078.668344320496544 ] } },
{ "type": "Feature", "properties": { "x": 2720147.2337938221, "y": 1113993.6596112794, "tile": "bellinzona_full_nir_2024_c056_r068_nirchm.tif", "predicted_prob": 0.25651150941848755 }, "geometry": { "type": "Point", "coordinates": [ 2720147.23379382211715, 1113993.659611279377714 ] } },
{ "type": "Feature", "properties": { "x": 2718156.5406056573, "y": 1113078.1467610016, "tile": "bellinzona_full_nir_2024_c034_r079_nirchm.tif", "predicted_prob": 0.25543859601020813 }, "geometry": { "type": "Point", "coordinates": [ 2718156.540605657268316, 1113078.146761001553386 ] } },
{ "type": "Feature", "properties": { "x": 2718015.0015782863, "y": 1113986.4891416456, "tile": "bellinzona_full_nir_2024_c032_r068_nirchm.tif", "predicted_prob": 0.23171642422676086 }, "geometry": { "type": "Point", "coordinates": [ 2718015.001578286290169, 1113986.48914164560847 ] } },
{ "type": "Feature", "properties": { "x": 2720173.6114054434, "y": 1113000.5907808421, "tile": "bellinzona_full_nir_2024_c056_r079_nirchm.tif", "predicted_prob": 0.20354087650775909 }, "geometry": { "type": "Point", "coordinates": [ 2720173.611405443400145, 1113000.590780842117965 ] } },
{ "type": "Feature", "properties": { "x": 2718979.708226392, "y": 1117078.6683443205, "tile": "bellinzona_full_nir_2024_c043_r034_nirchm.tif", "predicted_prob": 0.20209592580795288 }, "geometry": { "type": "Point", "coordinates": [ 2718979.708226392045617, 1117078.668344320496544 ] } },
{ "type": "Feature", "properties": { "x": 2718156.5406056573, "y": 1113078.1467610016, "tile": "bellinzona_full_nir_2024_c033_r079_nirchm.tif", "predicted_prob": 0.19541211426258087 }, "geometry": { "type": "Point", "coordinates": [ 2718156.540605657268316, 1113078.146761001553386 ] } },
{ "type": "Feature", "properties": { "x": 2720747.2825931464, "y": 1112285.4510296879, "tile": "bellinzona_full_nir_2024_c062_r088_nirchm.tif", "predicted_prob": 0.19082501530647278 }, "geometry": { "type": "Point", "coordinates": [ 2720747.282593146432191, 1112285.451029687887058 ] } },
{ "type": "Feature", "properties": { "x": 2718015.0015782863, "y": 1113986.4891416456, "tile": "bellinzona_full_nir_2024_c032_r069_nirchm.tif", "predicted_prob": 0.18879780173301697 }, "geometry": { "type": "Point", "coordinates": [ 2718015.001578286290169, 1113986.48914164560847 ] } },
{ "type": "Feature", "properties": { "x": 2718890.7727370597, "y": 1114442.2730733191, "tile": "bellinzona_full_nir_2024_c042_r064_nirchm.tif", "predicted_prob": 0.18420973420143127 }, "geometry": { "type": "Point", "coordinates": [ 2718890.772737059742212, 1114442.273073319112882 ] } },
{ "type": "Feature", "properties": { "x": 2720747.2825931464, "y": 1112285.4510296879, "tile": "bellinzona_full_nir_2024_c062_r087_nirchm.tif", "predicted_prob": 0.18335157632827759 }, "geometry": { "type": "Point", "coordinates": [ 2720747.282593146432191, 1112285.451029687887058 ] } },
{ "type": "Feature", "properties": { "x": 2718737.2062789313, "y": 1118821.7187438505, "tile": "bellinzona_full_nir_2024_c040_r015_nirchm.tif", "predicted_prob": 0.1817353367805481 }, "geometry": { "type": "Point", "coordinates": [ 2718737.206278931349516, 1118821.71874385047704 ] } },
{ "type": "Feature", "properties": { "x": 2719698.7260273271, "y": 1115103.7864407145, "tile": "bellinzona_full_nir_2024_c051_r056_nirchm.tif", "predicted_prob": 0.18141850829124451 }, "geometry": { "type": "Point", "coordinates": [ 2719698.726027327124029, 1115103.786440714495257 ] } },
{ "type": "Feature", "properties": { "x": 2719647.583959376, "y": 1111685.2159922884, "tile": "bellinzona_full_nir_2024_c050_r094_nirchm.tif", "predicted_prob": 0.17128655314445496 }, "geometry": { "type": "Point", "coordinates": [ 2719647.583959375973791, 1111685.215992288431153 ] } },
{ "type": "Feature", "properties": { "x": 2717295.001146161, "y": 1115567.7397743387, "tile": "bellinzona_full_nir_2024_c024_r051_nirchm.tif", "predicted_prob": 0.16394001245498657 }, "geometry": { "type": "Point", "coordinates": [ 2717295.00114616099745, 1115567.739774338668212 ] } },
{ "type": "Feature", "properties": { "x": 2718890.7727370597, "y": 1114442.2730733191, "tile": "bellinzona_full_nir_2024_c042_r063_nirchm.tif", "predicted_prob": 0.16319245100021362 }, "geometry": { "type": "Point", "coordinates": [ 2718890.772737059742212, 1114442.273073319112882 ] } },
{ "type": "Feature", "properties": { "x": 2717616.3553374396, "y": 1117450.8108314176, "tile": "bellinzona_full_nir_2024_c027_r030_nirchm.tif", "predicted_prob": 0.14973556995391846 }, "geometry": { "type": "Point", "coordinates": [ 2717616.355337439570576, 1117450.81083141756244 ] } },
{ "type": "Feature", "properties": { "x": 2717295.001146161, "y": 1115567.7397743387, "tile": "bellinzona_full_nir_2024_c024_r051_nirchm.tif", "predicted_prob": 0.14862613379955292 }, "geometry": { "type": "Point", "coordinates": [ 2717295.00114616099745, 1115567.739774338668212 ] } },
{ "type": "Feature", "properties": { "x": 2720747.2825931464, "y": 1112285.4510296879, "tile": "bellinzona_full_nir_2024_c063_r088_nirchm.tif", "predicted_prob": 0.1463136225938797 }, "geometry": { "type": "Point", "coordinates": [ 2720747.282593146432191, 1112285.451029687887058 ] } },
{ "type": "Feature", "properties": { "x": 2720461.3835286396, "y": 1119478.4020810211, "tile": "bellinzona_full_nir_2024_c059_r007_nirchm.tif", "predicted_prob": 0.14599719643592834 }, "geometry": { "type": "Point", "coordinates": [ 2720461.383528639562428, 1119478.402081021107733 ] } },
{ "type": "Feature", "properties": { "x": 2720147.2337938221, "y": 1113993.6596112794, "tile": "bellinzona_full_nir_2024_c056_r069_nirchm.tif", "predicted_prob": 0.13642768561840057 }, "geometry": { "type": "Point", "coordinates": [ 2720147.23379382211715, 1113993.659611279377714 ] } },
{ "type": "Feature", "properties": { "x": 2720233.7219120981, "y": 1111699.4127564556, "tile": "bellinzona_full_nir_2024_c057_r094_nirchm.tif", "predicted_prob": 0.13473807275295258 }, "geometry": { "type": "Point", "coordinates": [ 2720233.721912098117173, 1111699.412756455596536 ] } },
{ "type": "Feature", "properties": { "x": 2718890.7727370597, "y": 1114442.2730733191, "tile": "bellinzona_full_nir_2024_c042_r063_nirchm.tif", "predicted_prob": 0.13450251519680023 }, "geometry": { "type": "Point", "coordinates": [ 2718890.772737059742212, 1114442.273073319112882 ] } },
{ "type": "Feature", "properties": { "x": 2717616.3553374396, "y": 1117450.8108314176, "tile": "bellinzona_full_nir_2024_c028_r030_nirchm.tif", "predicted_prob": 0.13243590295314789 }, "geometry": { "type": "Point", "coordinates": [ 2717616.355337439570576, 1117450.81083141756244 ] } },
{ "type": "Feature", "properties": { "x": 2720200.492888968, "y": 1111816.1527332445, "tile": "bellinzona_full_nir_2024_c056_r093_nirchm.tif", "predicted_prob": 0.13230949640274048 }, "geometry": { "type": "Point", "coordinates": [ 2720200.492888967972249, 1111816.152733244467527 ] } },
{ "type": "Feature", "properties": { "x": 2718888.3792636376, "y": 1114329.4225247221, "tile": "bellinzona_full_nir_2024_c042_r065_nirchm.tif", "predicted_prob": 0.12883341312408447 }, "geometry": { "type": "Point", "coordinates": [ 2718888.379263637587428, 1114329.422524722060189 ] } },
{ "type": "Feature", "properties": { "x": 2717616.3553374396, "y": 1117450.8108314176, "tile": "bellinzona_full_nir_2024_c027_r030_nirchm.tif", "predicted_prob": 0.12673071026802063 }, "geometry": { "type": "Point", "coordinates": [ 2717616.355337439570576, 1117450.81083141756244 ] } },
{ "type": "Feature", "properties": { "x": 2717616.3553374396, "y": 1117450.8108314176, "tile": "bellinzona_full_nir_2024_c027_r030_nirchm.tif", "predicted_prob": 0.12619715929031372 }, "geometry": { "type": "Point", "coordinates": [ 2717616.355337439570576, 1117450.81083141756244 ] } },
{ "type": "Feature", "properties": { "x": 2718100.9793668464, "y": 1117447.4746559625, "tile": "bellinzona_full_nir_2024_c033_r030_nirchm.tif", "predicted_prob": 0.12259116023778915 }, "geometry": { "type": "Point", "coordinates": [ 2718100.979366846382618, 1117447.47465596254915 ] } },
{ "type": "Feature", "properties": { "x": 2718888.3792636376, "y": 1114329.4225247221, "tile": "bellinzona_full_nir_2024_c042_r065_nirchm.tif", "predicted_prob": 0.11985813081264496 }, "geometry": { "type": "Point", "coordinates": [ 2718888.379263637587428, 1114329.422524722060189 ] } },
{ "type": "Feature", "properties": { "x": 2720747.2825931464, "y": 1112285.4510296879, "tile": "bellinzona_full_nir_2024_c063_r087_nirchm.tif", "predicted_prob": 0.11982282251119614 }, "geometry": { "type": "Point", "coordinates": [ 2720747.282593146432191, 1112285.451029687887058 ] } },
{ "type": "Feature", "properties": { "x": 2719122.4560039011, "y": 1115139.1564966782, "tile": "bellinzona_full_nir_2024_c044_r056_nirchm.tif", "predicted_prob": 0.11972688883543015 }, "geometry": { "type": "Point", "coordinates": [ 2719122.456003901083022, 1115139.156496678246185 ] } },
{ "type": "Feature", "properties": { "x": 2717616.3553374396, "y": 1117450.8108314176, "tile": "bellinzona_full_nir_2024_c028_r030_nirchm.tif", "predicted_prob": 0.11553627997636795 }, "geometry": { "type": "Point", "coordinates": [ 2717616.355337439570576, 1117450.81083141756244 ] } },
{ "type": "Feature", "properties": { "x": 2717616.3553374396, "y": 1117450.8108314176, "tile": "bellinzona_full_nir_2024_c028_r030_nirchm.tif", "predicted_prob": 0.11504077911376953 }, "geometry": { "type": "Point", "coordinates": [ 2717616.355337439570576, 1117450.81083141756244 ] } },
{ "type": "Feature", "properties": { "x": 2718973.1661277749, "y": 1116304.9188414288, "tile": "bellinzona_full_nir_2024_c043_r043_nirchm.tif", "predicted_prob": 0.11466646939516068 }, "geometry": { "type": "Point", "coordinates": [ 2718973.166127774864435, 1116304.918841428821906 ] } },
{ "type": "Feature", "properties": { "x": 2720233.7219120981, "y": 1111699.4127564556, "tile": "bellinzona_full_nir_2024_c057_r094_nirchm.tif", "predicted_prob": 0.11146295070648193 }, "geometry": { "type": "Point", "coordinates": [ 2720233.721912098117173, 1111699.412756455596536 ] } },
{ "type": "Feature", "properties": { "x": 2716314.0590440272, "y": 1114259.1553755177, "tile": "bellinzona_full_nir_2024_c013_r066_nirchm.tif", "predicted_prob": 0.10899641364812851 }, "geometry": { "type": "Point", "coordinates": [ 2716314.059044027235359, 1114259.155375517671928 ] } },
{ "type": "Feature", "properties": { "x": 2719464.4923482994, "y": 1118102.3276098934, "tile": "bellinzona_full_nir_2024_c048_r023_nirchm.tif", "predicted_prob": 0.10728765279054642 }, "geometry": { "type": "Point", "coordinates": [ 2719464.492348299361765, 1118102.327609893400222 ] } },
{ "type": "Feature", "properties": { "x": 2719122.4560039011, "y": 1115139.1564966782, "tile": "bellinzona_full_nir_2024_c044_r056_nirchm.tif", "predicted_prob": 0.10687687993049622 }, "geometry": { "type": "Point", "coordinates": [ 2719122.456003901083022, 1115139.156496678246185 ] } },
{ "type": "Feature", "properties": { "x": 2718098.8721791189, "y": 1118653.0335893878, "tile": "bellinzona_full_nir_2024_c033_r017_nirchm.tif", "predicted_prob": 0.10665192455053329 }, "geometry": { "type": "Point", "coordinates": [ 2718098.872179118916392, 1118653.033589387778193 ] } },
{ "type": "Feature", "properties": { "x": 2719647.583959376, "y": 1111685.2159922884, "tile": "bellinzona_full_nir_2024_c050_r094_nirchm.tif", "predicted_prob": 0.10339095443487167 }, "geometry": { "type": "Point", "coordinates": [ 2719647.583959375973791, 1111685.215992288431153 ] } },
{ "type": "Feature", "properties": { "x": 2718098.8721791189, "y": 1118653.0335893878, "tile": "bellinzona_full_nir_2024_c033_r017_nirchm.tif", "predicted_prob": 0.094258293509483337 }, "geometry": { "type": "Point", "coordinates": [ 2718098.872179118916392, 1118653.033589387778193 ] } },
{ "type": "Feature", "properties": { "x": 2720200.492888968, "y": 1111816.1527332445, "tile": "bellinzona_full_nir_2024_c056_r093_nirchm.tif", "predicted_prob": 0.093492098152637482 }, "geometry": { "type": "Point", "coordinates": [ 2720200.492888967972249, 1111816.152733244467527 ] } },
{ "type": "Feature", "properties": { "x": 2717295.001146161, "y": 1115567.7397743387, "tile": "bellinzona_full_nir_2024_c024_r051_nirchm.tif", "predicted_prob": 0.093350067734718323 }, "geometry": { "type": "Point", "coordinates": [ 2717295.00114616099745, 1115567.739774338668212 ] } },
{ "type": "Feature", "properties": { "x": 2719698.7260273271, "y": 1115103.7864407145, "tile": "bellinzona_full_nir_2024_c051_r056_nirchm.tif", "predicted_prob": 0.093302607536315918 }, "geometry": { "type": "Point", "coordinates": [ 2719698.726027327124029, 1115103.786440714495257 ] } },
{ "type": "Feature", "properties": { "x": 2719122.4560039011, "y": 1115139.1564966782, "tile": "bellinzona_full_nir_2024_c044_r056_nirchm.tif", "predicted_prob": 0.089693203568458557 }, "geometry": { "type": "Point", "coordinates": [ 2719122.456003901083022, 1115139.156496678246185 ] } },
{ "type": "Feature", "properties": { "x": 2719698.7260273271, "y": 1115103.7864407145, "tile": "bellinzona_full_nir_2024_c051_r056_nirchm.tif", "predicted_prob": 0.085590921342372894 }, "geometry": { "type": "Point", "coordinates": [ 2719698.726027327124029, 1115103.786440714495257 ] } },
{ "type": "Feature", "properties": { "x": 2718098.8721791189, "y": 1118653.0335893878, "tile": "bellinzona_full_nir_2024_c033_r016_nirchm.tif", "predicted_prob": 0.08464416116476059 }, "geometry": { "type": "Point", "coordinates": [ 2718098.872179118916392, 1118653.033589387778193 ] } },
{ "type": "Feature", "properties": { "x": 2716314.0590440272, "y": 1114259.1553755177, "tile": "bellinzona_full_nir_2024_c013_r065_nirchm.tif", "predicted_prob": 0.08353327214717865 }, "geometry": { "type": "Point", "coordinates": [ 2716314.059044027235359, 1114259.155375517671928 ] } },
{ "type": "Feature", "properties": { "x": 2718973.1661277749, "y": 1116304.9188414288, "tile": "bellinzona_full_nir_2024_c043_r043_nirchm.tif", "predicted_prob": 0.083379484713077545 }, "geometry": { "type": "Point", "coordinates": [ 2718973.166127774864435, 1116304.918841428821906 ] } },
{ "type": "Feature", "properties": { "x": 2717334.2321692971, "y": 1115653.3971335222, "tile": "bellinzona_full_nir_2024_c024_r050_nirchm.tif", "predicted_prob": 0.082632675766944885 }, "geometry": { "type": "Point", "coordinates": [ 2717334.232169297058135, 1115653.397133522201329 ] } },
{ "type": "Feature", "properties": { "x": 2720570.5496748667, "y": 1112116.7830906054, "tile": "bellinzona_full_nir_2024_c061_r090_nirchm.tif", "predicted_prob": 0.080923162400722504 }, "geometry": { "type": "Point", "coordinates": [ 2720570.549674866721034, 1112116.783090605400503 ] } },
{ "type": "Feature", "properties": { "x": 2719464.4923482994, "y": 1118102.3276098934, "tile": "bellinzona_full_nir_2024_c048_r023_nirchm.tif", "predicted_prob": 0.079061307013034821 }, "geometry": { "type": "Point", "coordinates": [ 2719464.492348299361765, 1118102.327609893400222 ] } },
{ "type": "Feature", "properties": { "x": 2720570.5496748667, "y": 1112116.7830906054, "tile": "bellinzona_full_nir_2024_c061_r089_nirchm.tif", "predicted_prob": 0.077746272087097168 }, "geometry": { "type": "Point", "coordinates": [ 2720570.549674866721034, 1112116.783090605400503 ] } },
{ "type": "Feature", "properties": { "x": 2718299.5647399272, "y": 1116678.3045319556, "tile": "bellinzona_full_nir_2024_c035_r038_nirchm.tif", "predicted_prob": 0.076807036995887756 }, "geometry": { "type": "Point", "coordinates": [ 2718299.564739927183837, 1116678.304531955625862 ] } },
{ "type": "Feature", "properties": { "x": 2716807.5900940862, "y": 1116455.7874052469, "tile": "bellinzona_full_nir_2024_c019_r041_nirchm.tif", "predicted_prob": 0.075981877744197845 }, "geometry": { "type": "Point", "coordinates": [ 2716807.590094086248428, 1116455.78740524686873 ] } },
{ "type": "Feature", "properties": { "x": 2720570.5496748667, "y": 1112116.7830906054, "tile": "bellinzona_full_nir_2024_c060_r090_nirchm.tif", "predicted_prob": 0.075307071208953857 }, "geometry": { "type": "Point", "coordinates": [ 2720570.549674866721034, 1112116.783090605400503 ] } },
{ "type": "Feature", "properties": { "x": 2718973.1661277749, "y": 1116304.9188414288, "tile": "bellinzona_full_nir_2024_c043_r043_nirchm.tif", "predicted_prob": 0.075030483305454254 }, "geometry": { "type": "Point", "coordinates": [ 2718973.166127774864435, 1116304.918841428821906 ] } },
{ "type": "Feature", "properties": { "x": 2716807.5900940862, "y": 1116455.7874052469, "tile": "bellinzona_full_nir_2024_c019_r041_nirchm.tif", "predicted_prob": 0.072561532258987427 }, "geometry": { "type": "Point", "coordinates": [ 2716807.590094086248428, 1116455.78740524686873 ] } },
{ "type": "Feature", "properties": { "x": 2716085.3307309253, "y": 1118315.1320218113, "tile": "bellinzona_full_nir_2024_c010_r020_nirchm.tif", "predicted_prob": 0.06879056990146637 }, "geometry": { "type": "Point", "coordinates": [ 2716085.330730925314128, 1118315.132021811325103 ] } },
{ "type": "Feature", "properties": { "x": 2715981.5533065605, "y": 1114133.9057716231, "tile": "bellinzona_full_nir_2024_c009_r067_nirchm.tif", "predicted_prob": 0.068310238420963287 }, "geometry": { "type": "Point", "coordinates": [ 2715981.553306560497731, 1114133.90577162313275 ] } },
{ "type": "Feature", "properties": { "x": 2720570.5496748667, "y": 1112116.7830906054, "tile": "bellinzona_full_nir_2024_c060_r089_nirchm.tif", "predicted_prob": 0.068207971751689911 }, "geometry": { "type": "Point", "coordinates": [ 2720570.549674866721034, 1112116.783090605400503 ] } },
{ "type": "Feature", "properties": { "x": 2716085.3307309253, "y": 1118315.1320218113, "tile": "bellinzona_full_nir_2024_c011_r020_nirchm.tif", "predicted_prob": 0.067550696432590485 }, "geometry": { "type": "Point", "coordinates": [ 2716085.330730925314128, 1118315.132021811325103 ] } },
{ "type": "Feature", "properties": { "x": 2717978.1164768278, "y": 1116619.2047083606, "tile": "bellinzona_full_nir_2024_c032_r039_nirchm.tif", "predicted_prob": 0.067455939948558807 }, "geometry": { "type": "Point", "coordinates": [ 2717978.116476827766746, 1116619.204708360601217 ] } },
{ "type": "Feature", "properties": { "x": 2718339.116859436, "y": 1116763.8056436419, "tile": "bellinzona_full_nir_2024_c036_r037_nirchm.tif", "predicted_prob": 0.066763803362846375 }, "geometry": { "type": "Point", "coordinates": [ 2718339.116859436035156, 1116763.805643641855568 ] } },
{ "type": "Feature", "properties": { "x": 2718100.9793668464, "y": 1117447.4746559625, "tile": "bellinzona_full_nir_2024_c033_r030_nirchm.tif", "predicted_prob": 0.066691160202026367 }, "geometry": { "type": "Point", "coordinates": [ 2718100.979366846382618, 1117447.47465596254915 ] } },
{ "type": "Feature", "properties": { "x": 2716886.3353684507, "y": 1116375.5234480691, "tile": "bellinzona_full_nir_2024_c019_r042_nirchm.tif", "predicted_prob": 0.066555574536323547 }, "geometry": { "type": "Point", "coordinates": [ 2716886.335368450731039, 1116375.523448069114238 ] } },
{ "type": "Feature", "properties": { "x": 2718339.116859436, "y": 1116763.8056436419, "tile": "bellinzona_full_nir_2024_c036_r038_nirchm.tif", "predicted_prob": 0.066539041697978973 }, "geometry": { "type": "Point", "coordinates": [ 2718339.116859436035156, 1116763.805643641855568 ] } },
{ "type": "Feature", "properties": { "x": 2717334.2321692971, "y": 1115653.3971335222, "tile": "bellinzona_full_nir_2024_c024_r050_nirchm.tif", "predicted_prob": 0.066158317029476166 }, "geometry": { "type": "Point", "coordinates": [ 2717334.232169297058135, 1115653.397133522201329 ] } },
{ "type": "Feature", "properties": { "x": 2715668.5677861557, "y": 1117500.0445622695, "tile": "bellinzona_full_nir_2024_c006_r029_nirchm.tif", "predicted_prob": 0.065805293619632721 }, "geometry": { "type": "Point", "coordinates": [ 2715668.567786155734211, 1117500.04456226946786 ] } },
{ "type": "Feature", "properties": { "x": 2718299.5647399272, "y": 1116678.3045319556, "tile": "bellinzona_full_nir_2024_c035_r038_nirchm.tif", "predicted_prob": 0.065509505569934845 }, "geometry": { "type": "Point", "coordinates": [ 2718299.564739927183837, 1116678.304531955625862 ] } },
{ "type": "Feature", "properties": { "x": 2718100.9793668464, "y": 1117447.4746559625, "tile": "bellinzona_full_nir_2024_c033_r030_nirchm.tif", "predicted_prob": 0.065164588391780853 }, "geometry": { "type": "Point", "coordinates": [ 2718100.979366846382618, 1117447.47465596254915 ] } },
{ "type": "Feature", "properties": { "x": 2718339.116859436, "y": 1116763.8056436419, "tile": "bellinzona_full_nir_2024_c036_r037_nirchm.tif", "predicted_prob": 0.063258275389671326 }, "geometry": { "type": "Point", "coordinates": [ 2718339.116859436035156, 1116763.805643641855568 ] } },
{ "type": "Feature", "properties": { "x": 2718299.5647399272, "y": 1116678.3045319556, "tile": "bellinzona_full_nir_2024_c035_r039_nirchm.tif", "predicted_prob": 0.062438935041427612 }, "geometry": { "type": "Point", "coordinates": [ 2718299.564739927183837, 1116678.304531955625862 ] } },
{ "type": "Feature", "properties": { "x": 2718299.5647399272, "y": 1116678.3045319556, "tile": "bellinzona_full_nir_2024_c035_r038_nirchm.tif", "predicted_prob": 0.062361430376768112 }, "geometry": { "type": "Point", "coordinates": [ 2718299.564739927183837, 1116678.304531955625862 ] } },
{ "type": "Feature", "properties": { "x": 2718339.116859436, "y": 1116763.8056436419, "tile": "bellinzona_full_nir_2024_c036_r037_nirchm.tif", "predicted_prob": 0.062204379588365555 }, "geometry": { "type": "Point", "coordinates": [ 2718339.116859436035156, 1116763.805643641855568 ] } },
{ "type": "Feature", "properties": { "x": 2718339.116859436, "y": 1116763.8056436419, "tile": "bellinzona_full_nir_2024_c036_r038_nirchm.tif", "predicted_prob": 0.062087312340736389 }, "geometry": { "type": "Point", "coordinates": [ 2718339.116859436035156, 1116763.805643641855568 ] } },
{ "type": "Feature", "properties": { "x": 2716807.5900940862, "y": 1116455.7874052469, "tile": "bellinzona_full_nir_2024_c018_r041_nirchm.tif", "predicted_prob": 0.061348244547843933 }, "geometry": { "type": "Point", "coordinates": [ 2716807.590094086248428, 1116455.78740524686873 ] } },
{ "type": "Feature", "properties": { "x": 2719585.5833202298, "y": 1116285.2451898218, "tile": "bellinzona_full_nir_2024_c049_r043_nirchm.tif", "predicted_prob": 0.061059612780809402 }, "geometry": { "type": "Point", "coordinates": [ 2719585.583320229779929, 1116285.245189821813256 ] } },
{ "type": "Feature", "properties": { "x": 2716807.5900940862, "y": 1116455.7874052469, "tile": "bellinzona_full_nir_2024_c018_r041_nirchm.tif", "predicted_prob": 0.060913670808076859 }, "geometry": { "type": "Point", "coordinates": [ 2716807.590094086248428, 1116455.78740524686873 ] } },
{ "type": "Feature", "properties": { "x": 2718890.7727370597, "y": 1114442.2730733191, "tile": "bellinzona_full_nir_2024_c042_r063_nirchm.tif", "predicted_prob": 0.060780517756938934 }, "geometry": { "type": "Point", "coordinates": [ 2718890.772737059742212, 1114442.273073319112882 ] } },
{ "type": "Feature", "properties": { "x": 2715981.5533065605, "y": 1114133.9057716231, "tile": "bellinzona_full_nir_2024_c009_r067_nirchm.tif", "predicted_prob": 0.059160761535167694 }, "geometry": { "type": "Point", "coordinates": [ 2715981.553306560497731, 1114133.90577162313275 ] } },
{ "type": "Feature", "properties": { "x": 2717334.2321692971, "y": 1115653.3971335222, "tile": "bellinzona_full_nir_2024_c024_r050_nirchm.tif", "predicted_prob": 0.058273743838071823 }, "geometry": { "type": "Point", "coordinates": [ 2717334.232169297058135, 1115653.397133522201329 ] } },
{ "type": "Feature", "properties": { "x": 2719973.5051581822, "y": 1115089.8257351038, "tile": "bellinzona_full_nir_2024_c054_r056_nirchm.tif", "predicted_prob": 0.056177683174610138 }, "geometry": { "type": "Point", "coordinates": [ 2719973.505158182233572, 1115089.825735103804618 ] } },
{ "type": "Feature", "properties": { "x": 2716395.8687174143, "y": 1117274.0857581261, "tile": "bellinzona_full_nir_2024_c014_r032_nirchm.tif", "predicted_prob": 0.055229119956493378 }, "geometry": { "type": "Point", "coordinates": [ 2716395.868717414326966, 1117274.085758126107976 ] } },
{ "type": "Feature", "properties": { "x": 2716395.8687174143, "y": 1117274.0857581261, "tile": "bellinzona_full_nir_2024_c014_r032_nirchm.tif", "predicted_prob": 0.054237585514783859 }, "geometry": { "type": "Point", "coordinates": [ 2716395.868717414326966, 1117274.085758126107976 ] } },
{ "type": "Feature", "properties": { "x": 2718888.3792636376, "y": 1114329.4225247221, "tile": "bellinzona_full_nir_2024_c042_r065_nirchm.tif", "predicted_prob": 0.0540337935090065 }, "geometry": { "type": "Point", "coordinates": [ 2718888.379263637587428, 1114329.422524722060189 ] } },
{ "type": "Feature", "properties": { "x": 2718299.5647399272, "y": 1116678.3045319556, "tile": "bellinzona_full_nir_2024_c035_r039_nirchm.tif", "predicted_prob": 0.053705625236034393 }, "geometry": { "type": "Point", "coordinates": [ 2718299.564739927183837, 1116678.304531955625862 ] } },
{ "type": "Feature", "properties": { "x": 2718339.116859436, "y": 1116763.8056436419, "tile": "bellinzona_full_nir_2024_c036_r038_nirchm.tif", "predicted_prob": 0.053658220916986465 }, "geometry": { "type": "Point", "coordinates": [ 2718339.116859436035156, 1116763.805643641855568 ] } },
{ "type": "Feature", "properties": { "x": 2716886.3353684507, "y": 1116375.5234480691, "tile": "bellinzona_full_nir_2024_c019_r042_nirchm.tif", "predicted_prob": 0.050686445087194443 }, "geometry": { "type": "Point", "coordinates": [ 2716886.335368450731039, 1116375.523448069114238 ] } },
{ "type": "Feature", "properties": { "x": 2720147.2337938221, "y": 1113993.6596112794, "tile": "bellinzona_full_nir_2024_c056_r068_nirchm.tif", "predicted_prob": 0.048934418708086014 }, "geometry": { "type": "Point", "coordinates": [ 2720147.23379382211715, 1113993.659611279377714 ] } },
{ "type": "Feature", "properties": { "x": 2716028.9619288095, "y": 1116456.6660991095, "tile": "bellinzona_full_nir_2024_c010_r041_nirchm.tif", "predicted_prob": 0.048531826585531235 }, "geometry": { "type": "Point", "coordinates": [ 2716028.961928809527308, 1116456.66609910945408 ] } },
{ "type": "Feature", "properties": { "x": 2720300.7560616154, "y": 1117937.8752774165, "tile": "bellinzona_full_nir_2024_c058_r025_nirchm.tif", "predicted_prob": 0.048477597534656525 }, "geometry": { "type": "Point", "coordinates": [ 2720300.756061615422368, 1117937.87527741654776 ] } },
{ "type": "Feature", "properties": { "x": 2717978.1164768278, "y": 1116619.2047083606, "tile": "bellinzona_full_nir_2024_c032_r039_nirchm.tif", "predicted_prob": 0.047624982893466949 }, "geometry": { "type": "Point", "coordinates": [ 2717978.116476827766746, 1116619.204708360601217 ] } },
{ "type": "Feature", "properties": { "x": 2720300.7560616154, "y": 1117937.8752774165, "tile": "bellinzona_full_nir_2024_c058_r024_nirchm.tif", "predicted_prob": 0.047014147043228149 }, "geometry": { "type": "Point", "coordinates": [ 2720300.756061615422368, 1117937.87527741654776 ] } },
{ "type": "Feature", "properties": { "x": 2719973.5051581822, "y": 1115089.8257351038, "tile": "bellinzona_full_nir_2024_c054_r056_nirchm.tif", "predicted_prob": 0.046880088746547699 }, "geometry": { "type": "Point", "coordinates": [ 2719973.505158182233572, 1115089.825735103804618 ] } },
{ "type": "Feature", "properties": { "x": 2718299.5647399272, "y": 1116678.3045319556, "tile": "bellinzona_full_nir_2024_c035_r039_nirchm.tif", "predicted_prob": 0.046058669686317444 }, "geometry": { "type": "Point", "coordinates": [ 2718299.564739927183837, 1116678.304531955625862 ] } },
{ "type": "Feature", "properties": { "x": 2717978.1164768278, "y": 1116619.2047083606, "tile": "bellinzona_full_nir_2024_c032_r039_nirchm.tif", "predicted_prob": 0.045933641493320465 }, "geometry": { "type": "Point", "coordinates": [ 2717978.116476827766746, 1116619.204708360601217 ] } },
{ "type": "Feature", "properties": { "x": 2716028.9619288095, "y": 1116456.6660991095, "tile": "bellinzona_full_nir_2024_c010_r041_nirchm.tif", "predicted_prob": 0.04373825341463089 }, "geometry": { "type": "Point", "coordinates": [ 2716028.961928809527308, 1116456.66609910945408 ] } },
{ "type": "Feature", "properties": { "x": 2719585.5833202298, "y": 1116285.2451898218, "tile": "bellinzona_full_nir_2024_c049_r043_nirchm.tif", "predicted_prob": 0.041642919182777405 }, "geometry": { "type": "Point", "coordinates": [ 2719585.583320229779929, 1116285.245189821813256 ] } },
{ "type": "Feature", "properties": { "x": 2719585.5833202298, "y": 1116285.2451898218, "tile": "bellinzona_full_nir_2024_c050_r043_nirchm.tif", "predicted_prob": 0.040551099926233292 }, "geometry": { "type": "Point", "coordinates": [ 2719585.583320229779929, 1116285.245189821813256 ] } },
{ "type": "Feature", "properties": { "x": 2719585.5833202298, "y": 1116285.2451898218, "tile": "bellinzona_full_nir_2024_c049_r043_nirchm.tif", "predicted_prob": 0.039660654962062836 }, "geometry": { "type": "Point", "coordinates": [ 2719585.583320229779929, 1116285.245189821813256 ] } },
{ "type": "Feature", "properties": { "x": 2720300.7560616154, "y": 1117937.8752774165, "tile": "bellinzona_full_nir_2024_c057_r024_nirchm.tif", "predicted_prob": 0.036288999021053314 }, "geometry": { "type": "Point", "coordinates": [ 2720300.756061615422368, 1117937.87527741654776 ] } },
{ "type": "Feature", "properties": { "x": 2720300.7560616154, "y": 1117937.8752774165, "tile": "bellinzona_full_nir_2024_c058_r025_nirchm.tif", "predicted_prob": 0.034979358315467834 }, "geometry": { "type": "Point", "coordinates": [ 2720300.756061615422368, 1117937.87527741654776 ] } },
{ "type": "Feature", "properties": { "x": 2719585.5833202298, "y": 1116285.2451898218, "tile": "bellinzona_full_nir_2024_c050_r043_nirchm.tif", "predicted_prob": 0.034962959587574005 }, "geometry": { "type": "Point", "coordinates": [ 2719585.583320229779929, 1116285.245189821813256 ] } },
{ "type": "Feature", "properties": { "x": 2720300.7560616154, "y": 1117937.8752774165, "tile": "bellinzona_full_nir_2024_c057_r025_nirchm.tif", "predicted_prob": 0.033844619989395142 }, "geometry": { "type": "Point", "coordinates": [ 2720300.756061615422368, 1117937.87527741654776 ] } },
{ "type": "Feature", "properties": { "x": 2720300.7560616154, "y": 1117937.8752774165, "tile": "bellinzona_full_nir_2024_c058_r024_nirchm.tif", "predicted_prob": 0.033706951886415482 }, "geometry": { "type": "Point", "coordinates": [ 2720300.756061615422368, 1117937.87527741654776 ] } },
{ "type": "Feature", "properties": { "x": 2715668.5677861557, "y": 1117500.0445622695, "tile": "bellinzona_full_nir_2024_c006_r029_nirchm.tif", "predicted_prob": 0.033275667577981949 }, "geometry": { "type": "Point", "coordinates": [ 2715668.567786155734211, 1117500.04456226946786 ] } },
{ "type": "Feature", "properties": { "x": 2720300.7560616154, "y": 1117937.8752774165, "tile": "bellinzona_full_nir_2024_c057_r024_nirchm.tif", "predicted_prob": 0.030817771330475807 }, "geometry": { "type": "Point", "coordinates": [ 2720300.756061615422368, 1117937.87527741654776 ] } },
{ "type": "Feature", "properties": { "x": 2716314.0590440272, "y": 1114259.1553755177, "tile": "bellinzona_full_nir_2024_c013_r066_nirchm.tif", "predicted_prob": 0.03023887425661087 }, "geometry": { "type": "Point", "coordinates": [ 2716314.059044027235359, 1114259.155375517671928 ] } },
{ "type": "Feature", "properties": { "x": 2720300.7560616154, "y": 1117937.8752774165, "tile": "bellinzona_full_nir_2024_c057_r025_nirchm.tif", "predicted_prob": 0.022576138377189636 }, "geometry": { "type": "Point", "coordinates": [ 2720300.756061615422368, 1117937.87527741654776 ] } },
{ "type": "Feature", "properties": { "x": 2720147.2337938221, "y": 1113993.6596112794, "tile": "bellinzona_full_nir_2024_c056_r069_nirchm.tif", "predicted_prob": 0.020983582362532616 }, "geometry": { "type": "Point", "coordinates": [ 2720147.23379382211715, 1113993.659611279377714 ] } },
{ "type": "Feature", "properties": { "x": 2718015.0015782863, "y": 1113986.4891416456, "tile": "bellinzona_full_nir_2024_c032_r068_nirchm.tif", "predicted_prob": 0.014562152326107025 }, "geometry": { "type": "Point", "coordinates": [ 2718015.001578286290169, 1113986.48914164560847 ] } },
{ "type": "Feature", "properties": { "x": 2718015.0015782863, "y": 1113986.4891416456, "tile": "bellinzona_full_nir_2024_c032_r069_nirchm.tif", "predicted_prob": 0.014449161477386951 }, "geometry": { "type": "Point", "coordinates": [ 2718015.001578286290169, 1113986.48914164560847 ] } },
{ "type": "Feature", "properties": { "x": 2716314.0590440272, "y": 1114259.1553755177, "tile": "bellinzona_full_nir_2024_c013_r065_nirchm.tif", "predicted_prob": 0.010271995328366756 }, "geometry": { "type": "Point", "coordinates": [ 2716314.059044027235359, 1114259.155375517671928 ] } }
]
}
