{
"type": "FeatureCollection",
"name": "candidate_scores_maskratio",
"crs": { "type": "name", "properties": { "name": "urn:ogc:def:crs:EPSG::2056" } },
"features": [
{ "type": "Feature", "properties": { "x": 2719273.9496612395, "y": 1115762.7073471565, "tile": "bellinzona_full_nir_2024_c046_r049_nirchm.tif", "predicted_prob": 0.7644839882850647 }, "geometry": { "type": "Point", "coordinates": [ 2719273.94966123951599, 1115762.707347156479955 ] } },
{ "type": "Feature", "properties": { "x": 2715588.790474256, "y": 1114742.7366281245, "tile": "bellinzona_full_nir_2024_c005_r060_nirchm.tif", "predicted_prob": 0.72282475233078003 }, "geometry": { "type": "Point", "coordinates": [ 2715588.79047425603494, 1114742.73662812449038 ] } },
{ "type": "Feature", "properties": { "x": 2720220.4360800567, "y": 1115903.0700973587, "tile": "bellinzona_full_nir_2024_c057_r047_nirchm.tif", "predicted_prob": 0.70457965135574341 }, "geometry": { "type": "Point", "coordinates": [ 2720220.436080056708306, 1115903.070097358664498 ] } },
{ "type": "Feature", "properties": { "x": 2718439.5281434944, "y": 1112804.6943223644, "tile": "bellinzona_full_nir_2024_c037_r082_nirchm.tif", "predicted_prob": 0.61511677503585815 }, "geometry": { "type": "Point", "coordinates": [ 2718439.528143494389951, 1112804.694322364404798 ] } },
{ "type": "Feature", "properties": { "x": 2719374.3160160272, "y": 1114999.4571688038, "tile": "bellinzona_full_nir_2024_c047_r057_nirchm.tif", "predicted_prob": 0.61408448219299316 }, "geometry": { "type": "Point", "coordinates": [ 2719374.31601602723822, 1114999.457168803783134 ] } },
{ "type": "Feature", "properties": { "x": 2720299.7041214062, "y": 1116313.9274181051, "tile": "bellinzona_full_nir_2024_c058_r043_nirchm.tif", "predicted_prob": 0.60373812913894653 }, "geometry": { "type": "Point", "coordinates": [ 2720299.704121406190097, 1116313.927418105071411 ] } },
{ "type": "Feature", "properties": { "x": 2720127.6969551402, "y": 1115858.2473702657, "tile": "bellinzona_full_nir_2024_c056_r048_nirchm.tif", "predicted_prob": 0.60232484340667725 }, "geometry": { "type": "Point", "coordinates": [ 2720127.696955140214413, 1115858.247370265657082 ] } },
{ "type": "Feature", "properties": { "x": 2719675.9693828505, "y": 1112847.8573352189, "tile": "bellinzona_full_nir_2024_c051_r081_nirchm.tif", "predicted_prob": 0.57866436243057251 }, "geometry": { "type": "Point", "coordinates": [ 2719675.969382850453258, 1112847.857335218926892 ] } },
{ "type": "Feature", "properties": { "x": 2718691.4382008631, "y": 1113644.9066648062, "tile": "bellinzona_full_nir_2024_c040_r072_nirchm.tif", "predicted_prob": 0.54034006595611572 }, "geometry": { "type": "Point", "coordinates": [ 2718691.438200863078237, 1113644.90666480618529 ] } },
{ "type": "Feature", "properties": { "x": 2716182.9636814212, "y": 1112181.6062410157, "tile": "bellinzona_full_nir_2024_c012_r089_nirchm.tif", "predicted_prob": 0.51677018404006958 }, "geometry": { "type": "Point", "coordinates": [ 2716182.963681421242654, 1112181.606241015717387 ] } },
{ "type": "Feature", "properties": { "x": 2718635.0090868571, "y": 1111574.4730392278, "tile": "bellinzona_full_nir_2024_c039_r096_nirchm.tif", "predicted_prob": 0.40169006586074829 }, "geometry": { "type": "Point", "coordinates": [ 2718635.009086857084185, 1111574.473039227770641 ] } },
{ "type": "Feature", "properties": { "x": 2721565.5193531318, "y": 1112205.5210611904, "tile": "bellinzona_full_nir_2024_c072_r089_nirchm.tif", "predicted_prob": 0.38958728313446045 }, "geometry": { "type": "Point", "coordinates": [ 2721565.519353131763637, 1112205.521061190403998 ] } },
{ "type": "Feature", "properties": { "x": 2719129.876208873, "y": 1111556.5980523063, "tile": "bellinzona_full_nir_2024_c044_r096_nirchm.tif", "predicted_prob": 0.3706953227519989 }, "geometry": { "type": "Point", "coordinates": [ 2719129.876208873, 1111556.598052306333557 ] } },
{ "type": "Feature", "properties": { "x": 2719291.2357355882, "y": 1114070.6742710243, "tile": "bellinzona_full_nir_2024_c046_r068_nirchm.tif", "predicted_prob": 0.3676430881023407 }, "geometry": { "type": "Point", "coordinates": [ 2719291.235735588241369, 1114070.674271024297923 ] } },
{ "type": "Feature", "properties": { "x": 2720143.8586543007, "y": 1113389.3868629071, "tile": "bellinzona_full_nir_2024_c056_r075_nirchm.tif", "predicted_prob": 0.35314112901687622 }, "geometry": { "type": "Point", "coordinates": [ 2720143.858654300682247, 1113389.386862907093018 ] } },
{ "type": "Feature", "properties": { "x": 2719479.271998215, "y": 1112293.0395281862, "tile": "bellinzona_full_nir_2024_c048_r088_nirchm.tif", "predicted_prob": 0.32456427812576294 }, "geometry": { "type": "Point", "coordinates": [ 2719479.271998215001076, 1112293.039528186200187 ] } },
{ "type": "Feature", "properties": { "x": 2720071.3426352632, "y": 1111333.521945178, "tile": "bellinzona_full_nir_2024_c055_r098_nirchm.tif", "predicted_prob": 0.3229975700378418 }, "geometry": { "type": "Point", "coordinates": [ 2720071.342635263223201, 1111333.521945178043097 ] } },
{ "type": "Feature", "properties": { "x": 2716444.217112917, "y": 1115014.6698991405, "tile": "bellinzona_full_nir_2024_c015_r057_nirchm.tif", "predicted_prob": 0.31573906540870667 }, "geometry": { "type": "Point", "coordinates": [ 2716444.217112916987389, 1115014.669899140484631 ] } },
{ "type": "Feature", "properties": { "x": 2717728.0013065669, "y": 1115961.1640891701, "tile": "bellinzona_full_nir_2024_c029_r047_nirchm.tif", "predicted_prob": 0.30894237756729126 }, "geometry": { "type": "Point", "coordinates": [ 2717728.001306566875428, 1115961.164089170051739 ] } },
{ "type": "Feature", "properties": { "x": 2717424.3841737565, "y": 1117824.2102586695, "tile": "bellinzona_full_nir_2024_c025_r026_nirchm.tif", "predicted_prob": 0.29310151934623718 }, "geometry": { "type": "Point", "coordinates": [ 2717424.384173756465316, 1117824.210258669452742 ] } },
{ "type": "Feature", "properties": { "x": 2720180.5260632583, "y": 1113379.1171362733, "tile": "bellinzona_full_nir_2024_c056_r075_nirchm.tif", "predicted_prob": 0.28964656591415405 }, "geometry": { "type": "Point", "coordinates": [ 2720180.526063258294016, 1113379.117136273300275 ] } },
{ "type": "Feature", "properties": { "x": 2721376.5376787884, "y": 1111705.8976563956, "tile": "bellinzona_full_nir_2024_c070_r094_nirchm.tif", "predicted_prob": 0.2854045033454895 }, "geometry": { "type": "Point", "coordinates": [ 2721376.537678788416088, 1111705.897656395565718 ] } },
{ "type": "Feature", "properties": { "x": 2721531.2155686799, "y": 1116826.7874001414, "tile": "bellinzona_full_nir_2024_c071_r037_nirchm.tif", "predicted_prob": 0.27472785115242004 }, "geometry": { "type": "Point", "coordinates": [ 2721531.215568679850549, 1116826.787400141358376 ] } },
{ "type": "Feature", "properties": { "x": 2716360.6900875038, "y": 1118472.6742392259, "tile": "bellinzona_full_nir_2024_c014_r019_nirchm.tif", "predicted_prob": 0.27457219362258911 }, "geometry": { "type": "Point", "coordinates": [ 2716360.690087503753603, 1118472.674239225918427 ] } },
{ "type": "Feature", "properties": { "x": 2718024.455624477, "y": 1117210.2249863425, "tile": "bellinzona_full_nir_2024_c032_r033_nirchm.tif", "predicted_prob": 0.27431398630142212 }, "geometry": { "type": "Point", "coordinates": [ 2718024.455624477006495, 1117210.224986342480406 ] } },
{ "type": "Feature", "properties": { "x": 2720748.1330156536, "y": 1111662.3538802431, "tile": "bellinzona_full_nir_2024_c063_r094_nirchm.tif", "predicted_prob": 0.26833093166351318 }, "geometry": { "type": "Point", "coordinates": [ 2720748.133015653584152, 1111662.353880243143067 ] } },
{ "type": "Feature", "properties": { "x": 2717070.4335660217, "y": 1113382.2246484663, "tile": "bellinzona_full_nir_2024_c022_r075_nirchm.tif", "predicted_prob": 0.26377090811729431 }, "geometry": { "type": "Point", "coordinates": [ 2717070.433566021732986, 1113382.224648466333747 ] } },
{ "type": "Feature", "properties": { "x": 2718673.5621139733, "y": 1114260.7721112606, "tile": "bellinzona_full_nir_2024_c039_r066_nirchm.tif", "predicted_prob": 0.2611706554889679 }, "geometry": { "type": "Point", "coordinates": [ 2718673.56211397331208, 1114260.772111260564998 ] } },
{ "type": "Feature", "properties": { "x": 2720939.92846329, "y": 1116904.6205017408, "tile": "bellinzona_full_nir_2024_c065_r036_nirchm.tif", "predicted_prob": 0.25911080837249756 }, "geometry": { "type": "Point", "coordinates": [ 2720939.928463289979845, 1116904.620501740835607 ] } },
{ "type": "Feature", "properties": { "x": 2721617.2049995679, "y": 1116745.7198691526, "tile": "bellinzona_full_nir_2024_c072_r038_nirchm.tif", "predicted_prob": 0.25390028953552246 }, "geometry": { "type": "Point", "coordinates": [ 2721617.204999567940831, 1116745.719869152642787 ] } },
{ "type": "Feature", "properties": { "x": 2718157.1881024027, "y": 1116542.9330303376, "tile": "bellinzona_full_nir_2024_c034_r040_nirchm.tif", "predicted_prob": 0.21189695596694946 }, "geometry": { "type": "Point", "coordinates": [ 2718157.188102402724326, 1116542.933030337560922 ] } },
{ "type": "Feature", "properties": { "x": 2716915.6358837592, "y": 1115908.9533001846, "tile": "bellinzona_full_nir_2024_c020_r047_nirchm.tif", "predicted_prob": 0.20605537295341492 }, "geometry": { "type": "Point", "coordinates": [ 2716915.635883759241551, 1115908.953300184570253 ] } },
{ "type": "Feature", "properties": { "x": 2716550.1750118942, "y": 1115216.9534201145, "tile": "bellinzona_full_nir_2024_c016_r055_nirchm.tif", "predicted_prob": 0.19683282077312469 }, "geometry": { "type": "Point", "coordinates": [ 2716550.175011894199997, 1115216.953420114470646 ] } },
{ "type": "Feature", "properties": { "x": 2718489.8013207493, "y": 1114232.1284028653, "tile": "bellinzona_full_nir_2024_c037_r066_nirchm.tif", "predicted_prob": 0.19334037601947784 }, "geometry": { "type": "Point", "coordinates": [ 2718489.801320749334991, 1114232.128402865258977 ] } },
{ "type": "Feature", "properties": { "x": 2719568.6955102771, "y": 1118978.7945186014, "tile": "bellinzona_full_nir_2024_c049_r013_nirchm.tif", "predicted_prob": 0.18227560818195343 }, "geometry": { "type": "Point", "coordinates": [ 2719568.695510277058929, 1118978.794518601382151 ] } },
{ "type": "Feature", "properties": { "x": 2717605.3403535429, "y": 1113807.119024798, "tile": "bellinzona_full_nir_2024_c027_r071_nirchm.tif", "predicted_prob": 0.15673486888408661 }, "geometry": { "type": "Point", "coordinates": [ 2717605.340353542938828, 1113807.11902479804121 ] } },
{ "type": "Feature", "properties": { "x": 2718089.3772868267, "y": 1115351.732713474, "tile": "bellinzona_full_nir_2024_c033_r053_nirchm.tif", "predicted_prob": 0.12983508408069611 }, "geometry": { "type": "Point", "coordinates": [ 2718089.377286826726049, 1115351.732713473960757 ] } },
{ "type": "Feature", "properties": { "x": 2715124.7683728025, "y": 1116050.0458784436, "tile": "bellinzona_full_nir_2024_c000_r046_nirchm.tif", "predicted_prob": 0.12592834234237671 }, "geometry": { "type": "Point", "coordinates": [ 2715124.768372802529484, 1116050.045878443634138 ] } },
{ "type": "Feature", "properties": { "x": 2718724.4571027518, "y": 1117428.6627227124, "tile": "bellinzona_full_nir_2024_c040_r030_nirchm.tif", "predicted_prob": 0.10455483943223953 }, "geometry": { "type": "Point", "coordinates": [ 2718724.457102751825005, 1117428.662722712382674 ] } },
{ "type": "Feature", "properties": { "x": 2720208.3821606115, "y": 1118493.880636065, "tile": "bellinzona_full_nir_2024_c057_r018_nirchm.tif", "predicted_prob": 0.10260532051324844 }, "geometry": { "type": "Point", "coordinates": [ 2720208.382160611450672, 1118493.880636065034196 ] } },
{ "type": "Feature", "properties": { "x": 2719011.9461453883, "y": 1117492.4023495985, "tile": "bellinzona_full_nir_2024_c043_r030_nirchm.tif", "predicted_prob": 0.099436432123184204 }, "geometry": { "type": "Point", "coordinates": [ 2719011.946145388297737, 1117492.402349598472938 ] } },
{ "type": "Feature", "properties": { "x": 2716487.8898731074, "y": 1113087.2855731451, "tile": "bellinzona_full_nir_2024_c015_r079_nirchm.tif", "predicted_prob": 0.09226980060338974 }, "geometry": { "type": "Point", "coordinates": [ 2716487.889873107429594, 1113087.285573145141825 ] } },
{ "type": "Feature", "properties": { "x": 2718263.8191422164, "y": 1113762.7002097936, "tile": "bellinzona_full_nir_2024_c035_r071_nirchm.tif", "predicted_prob": 0.086342662572860718 }, "geometry": { "type": "Point", "coordinates": [ 2718263.819142216350883, 1113762.700209793634713 ] } },
{ "type": "Feature", "properties": { "x": 2716928.5718244188, "y": 1116769.3555367733, "tile": "bellinzona_full_nir_2024_c020_r038_nirchm.tif", "predicted_prob": 0.085535153746604919 }, "geometry": { "type": "Point", "coordinates": [ 2716928.571824418846518, 1116769.355536773335189 ] } },
{ "type": "Feature", "properties": { "x": 2718254.3754082094, "y": 1116305.063631457, "tile": "bellinzona_full_nir_2024_c035_r043_nirchm.tif", "predicted_prob": 0.08355095237493515 }, "geometry": { "type": "Point", "coordinates": [ 2718254.375408209394664, 1116305.063631457043812 ] } },
{ "type": "Feature", "properties": { "x": 2718706.3994799876, "y": 1117392.7246959894, "tile": "bellinzona_full_nir_2024_c040_r031_nirchm.tif", "predicted_prob": 0.073897071182727814 }, "geometry": { "type": "Point", "coordinates": [ 2718706.399479987565428, 1117392.724695989396423 ] } },
{ "type": "Feature", "properties": { "x": 2716586.7227525213, "y": 1116142.8371496762, "tile": "bellinzona_full_nir_2024_c016_r045_nirchm.tif", "predicted_prob": 0.066500380635261536 }, "geometry": { "type": "Point", "coordinates": [ 2716586.722752521280199, 1116142.837149676168337 ] } },
{ "type": "Feature", "properties": { "x": 2718643.6449069702, "y": 1117413.317235057, "tile": "bellinzona_full_nir_2024_c039_r030_nirchm.tif", "predicted_prob": 0.062700949609279633 }, "geometry": { "type": "Point", "coordinates": [ 2718643.644906970206648, 1117413.317235057009384 ] } },
{ "type": "Feature", "properties": { "x": 2717639.665074761, "y": 1116364.1507723527, "tile": "bellinzona_full_nir_2024_c028_r042_nirchm.tif", "predicted_prob": 0.059671744704246521 }, "geometry": { "type": "Point", "coordinates": [ 2717639.665074761025608, 1116364.150772352702916 ] } },
{ "type": "Feature", "properties": { "x": 2716242.3917720322, "y": 1113709.910614853, "tile": "bellinzona_full_nir_2024_c012_r072_nirchm.tif", "predicted_prob": 0.049880422651767731 }, "geometry": { "type": "Point", "coordinates": [ 2716242.391772032249719, 1113709.910614853026345 ] } }
]
}
