{
  "type": "FeatureCollection",
  "name": "active_learning_confirmed_palms",
  "crs": {
    "type": "name",
    "properties": {
      "name": "urn:ogc:def:crs:EPSG::2056"
    }
  },
  "features": [
    {
      "type": "Feature",
      "properties": {
        "tile": "bellinzona_full_nir_2024_c071_r050_nirchm.tif",
        "predicted_prob_at_review": 0.8687,
        "source": "active_learning"
      },
      "geometry": {
        "type": "Point",
        "coordinates": [
          2721508.8,
          1115662.91
        ]
      }
    },
    {
      "type": "Feature",
      "properties": {
        "tile": "bellinzona_full_nir_2024_c021_r076_nirchm.tif",
        "predicted_prob_at_review": 0.8672,
        "source": "active_learning"
      },
      "geometry": {
        "type": "Point",
        "coordinates": [
          2717018.46,
          1113325.46
        ]
      }
    },
    {
      "type": "Feature",
      "properties": {
        "tile": "bellinzona_full_nir_2024_c021_r076_nirchm.tif",
        "predicted_prob_at_review": 0.774,
        "source": "active_learning"
      },
      "geometry": {
        "type": "Point",
        "coordinates": [
          2717018.68,
          1113325.91
        ]
      }
    },
    {
      "type": "Feature",
      "properties": {
        "tile": "bellinzona_full_nir_2024_c055_r051_nirchm.tif",
        "predicted_prob_at_review": 0.8955,
        "source": "active_learning"
      },
      "geometry": {
        "type": "Point",
        "coordinates": [
          2720066.99,
          1115519.95
        ]
      }
    },
    {
      "type": "Feature",
      "properties": {
        "tile": "bellinzona_full_nir_2024_c058_r049_nirchm.tif",
        "predicted_prob_at_review": 0.8916,
        "source": "active_learning"
      },
      "geometry": {
        "type": "Point",
        "coordinates": [
          2720330.74,
          1115693.31
        ]
      }
    },
    {
      "type": "Feature",
      "properties": {
        "tile": "bellinzona_full_nir_2024_c048_r049_nirchm.tif",
        "predicted_prob_at_review": 0.8909,
        "source": "active_learning"
      },
      "geometry": {
        "type": "Point",
        "coordinates": [
          2719454.91,
          1115691.85
        ]
      }
    },
    {
      "type": "Feature",
      "properties": {
        "tile": "bellinzona_full_nir_2024_c020_r088_nirchm.tif",
        "predicted_prob_at_review": 0.89,
        "source": "active_learning"
      },
      "geometry": {
        "type": "Point",
        "coordinates": [
          2716984.5,
          1112266.19
        ]
      }
    },
    {
      "type": "Feature",
      "properties": {
        "tile": "bellinzona_full_nir_2024_c061_r074_nirchm.tif",
        "predicted_prob_at_review": 0.8882,
        "source": "active_learning"
      },
      "geometry": {
        "type": "Point",
        "coordinates": [
          2720648.17,
          1113448.94
        ]
      }
    },
    {
      "type": "Feature",
      "properties": {
        "tile": "bellinzona_full_nir_2024_c050_r050_nirchm.tif",
        "predicted_prob_at_review": 0.8868,
        "source": "active_learning"
      },
      "geometry": {
        "type": "Point",
        "coordinates": [
          2719633.71,
          1115617.04
        ]
      }
    },
    {
      "type": "Feature",
      "properties": {
        "tile": "bellinzona_full_nir_2024_c054_r046_nirchm.tif",
        "predicted_prob_at_review": 0.8842,
        "source": "active_learning"
      },
      "geometry": {
        "type": "Point",
        "coordinates": [
          2719987.3,
          1115965.57
        ]
      }
    },
    {
      "type": "Feature",
      "properties": {
        "tile": "bellinzona_full_nir_2024_c065_r068_nirchm.tif",
        "predicted_prob_at_review": 0.8841,
        "source": "active_learning"
      },
      "geometry": {
        "type": "Point",
        "coordinates": [
          2720940.69,
          1114001.17
        ]
      }
    },
    {
      "type": "Feature",
      "properties": {
        "tile": "bellinzona_full_nir_2024_c058_r050_nirchm.tif",
        "predicted_prob_at_review": 0.8823,
        "source": "active_learning"
      },
      "geometry": {
        "type": "Point",
        "coordinates": [
          2720384.4,
          1115650.89
        ]
      }
    },
    {
      "type": "Feature",
      "properties": {
        "tile": "bellinzona_full_nir_2024_c050_r050_nirchm.tif",
        "predicted_prob_at_review": 0.8814,
        "source": "active_learning"
      },
      "geometry": {
        "type": "Point",
        "coordinates": [
          2719634.07,
          1115618.77
        ]
      }
    },
    {
      "type": "Feature",
      "properties": {
        "tile": "bellinzona_full_nir_2024_c018_r056_nirchm.tif",
        "predicted_prob_at_review": 1.0,
        "source": "active_learning"
      },
      "geometry": {
        "type": "Point",
        "coordinates": [
          2716781.0,
          1115114.0
        ]
      }
    },
    {
      "type": "Feature",
      "properties": {
        "tile": "bellinzona_full_nir_2024_c055_r046_nirchm.tif",
        "predicted_prob_at_review": 1.0,
        "source": "active_learning"
      },
      "geometry": {
        "type": "Point",
        "coordinates": [
          2720072.81,
          1116044.68
        ]
      }
    },
    {
      "type": "Feature",
      "properties": {
        "tile": "bellinzona_full_nir_2024_c055_r046_nirchm.tif",
        "predicted_prob_at_review": 1.0,
        "source": "active_learning"
      },
      "geometry": {
        "type": "Point",
        "coordinates": [
          2720067.32,
          1116041.09
        ]
      }
    },
    {
      "type": "Feature",
      "properties": {
        "tile": "bellinzona_full_nir_2024_c060_r035_nirchm.tif",
        "predicted_prob_at_review": 1.0,
        "source": "active_learning"
      },
      "geometry": {
        "type": "Point",
        "coordinates": [
          2720512.14,
          1116996.53
        ]
      }
    },
    {
      "type": "Feature",
      "properties": {
        "tile": "bellinzona_full_nir_2024_c060_r035_nirchm.tif",
        "predicted_prob_at_review": 1.0,
        "source": "active_learning"
      },
      "geometry": {
        "type": "Point",
        "coordinates": [
          2720510.8,
          1116995.07
        ]
      }
    },
    {
      "type": "Feature",
      "properties": {
        "tile": "bellinzona_full_nir_2024_c010_r060_nirchm.tif",
        "predicted_prob_at_review": 1.0,
        "source": "active_learning"
      },
      "geometry": {
        "type": "Point",
        "coordinates": [
          2716011.0,
          1114729.0
        ]
      }
    },
    {
      "type": "Feature",
      "properties": {
        "tile": "bellinzona_full_nir_2024_c052_r045_nirchm.tif",
        "predicted_prob_at_review": 1.0,
        "source": "active_learning"
      },
      "geometry": {
        "type": "Point",
        "coordinates": [
          2719813.54,
          1116133.91
        ]
      }
    },
    {
      "type": "Feature",
      "properties": {
        "tile": "bellinzona_full_nir_2024_c058_r045_nirchm.tif",
        "predicted_prob_at_review": 1.0,
        "source": "active_learning"
      },
      "geometry": {
        "type": "Point",
        "coordinates": [
          2720334.0,
          1116126.0
        ]
      }
    },
    {
      "type": "Feature",
      "properties": {
        "tile": "bellinzona_full_nir_2024_c011_r058_nirchm.tif",
        "predicted_prob_at_review": 1.0,
        "source": "active_learning"
      },
      "geometry": {
        "type": "Point",
        "coordinates": [
          2716139.29,
          1114892.5
        ]
      }
    },
    {
      "type": "Feature",
      "properties": {
        "tile": "bellinzona_full_nir_2024_c010_r060_nirchm.tif",
        "predicted_prob_at_review": 1.0,
        "source": "active_learning"
      },
      "geometry": {
        "type": "Point",
        "coordinates": [
          2716029.52,
          1114729.54
        ]
      }
    },
    {
      "type": "Feature",
      "properties": {
        "tile": "bellinzona_full_nir_2024_c010_r060_nirchm.tif",
        "predicted_prob_at_review": 1.0,
        "source": "active_learning"
      },
      "geometry": {
        "type": "Point",
        "coordinates": [
          2716032.09,
          1114740.29
        ]
      }
    },
    {
      "type": "Feature",
      "properties": {
        "tile": "bellinzona_full_nir_2024_c010_r060_nirchm.tif",
        "predicted_prob_at_review": 1.0,
        "source": "active_learning"
      },
      "geometry": {
        "type": "Point",
        "coordinates": [
          2716026.04,
          1114729.09
        ]
      }
    },
    {
      "type": "Feature",
      "properties": {
        "tile": "bellinzona_full_nir_2024_c010_r060_nirchm.tif",
        "predicted_prob_at_review": 1.0,
        "source": "active_learning"
      },
      "geometry": {
        "type": "Point",
        "coordinates": [
          2716023.69,
          1114728.98
        ]
      }
    },
    {
      "type": "Feature",
      "properties": {
        "tile": "bellinzona_full_nir_2024_c062_r040_nirchm.tif",
        "predicted_prob_at_review": 1.0,
        "source": "active_learning"
      },
      "geometry": {
        "type": "Point",
        "coordinates": [
          2720708.91,
          1116523.19
        ]
      }
    },
    {
      "type": "Feature",
      "properties": {
        "tile": "bellinzona_full_nir_2024_c062_r040_nirchm.tif",
        "predicted_prob_at_review": 1.0,
        "source": "active_learning"
      },
      "geometry": {
        "type": "Point",
        "coordinates": [
          2720703.64,
          1116513.67
        ]
      }
    },
    {
      "type": "Feature",
      "properties": {
        "tile": "bellinzona_full_nir_2024_c062_r040_nirchm.tif",
        "predicted_prob_at_review": 1.0,
        "source": "active_learning"
      },
      "geometry": {
        "type": "Point",
        "coordinates": [
          2720701.74,
          1116513.78
        ]
      }
    },
    {
      "type": "Feature",
      "properties": {
        "tile": "bellinzona_full_nir_2024_c062_r040_nirchm.tif",
        "predicted_prob_at_review": 1.0,
        "source": "active_learning"
      },
      "geometry": {
        "type": "Point",
        "coordinates": [
          2720697.48,
          1116515.91
        ]
      }
    },
    {
      "type": "Feature",
      "properties": {
        "tile": "bellinzona_full_nir_2024_c058_r045_nirchm.tif",
        "predicted_prob_at_review": 1.0,
        "source": "active_learning"
      },
      "geometry": {
        "type": "Point",
        "coordinates": [
          2720334.6,
          1116126.29
        ]
      }
    },
    {
      "type": "Feature",
      "properties": {
        "tile": "bellinzona_full_nir_2024_c058_r045_nirchm.tif",
        "predicted_prob_at_review": 1.0,
        "source": "active_learning"
      },
      "geometry": {
        "type": "Point",
        "coordinates": [
          2720343.11,
          1116124.17
        ]
      }
    },
    {
      "type": "Feature",
      "properties": {
        "tile": "bellinzona_full_nir_2024_c065_r061_nirchm.tif",
        "predicted_prob_at_review": 1.0,
        "source": "active_learning"
      },
      "geometry": {
        "type": "Point",
        "coordinates": [
          2720968.96,
          1114670.01
        ]
      }
    },
    {
      "type": "Feature",
      "properties": {
        "tile": "bellinzona_full_nir_2024_c065_r061_nirchm.tif",
        "predicted_prob_at_review": 1.0,
        "source": "active_learning"
      },
      "geometry": {
        "type": "Point",
        "coordinates": [
          2720970.42,
          1114672.59
        ]
      }
    },
    {
      "type": "Feature",
      "properties": {
        "tile": "bellinzona_full_nir_2024_c032_r088_nirchm.tif",
        "predicted_prob_at_review": 1.0,
        "source": "active_learning"
      },
      "geometry": {
        "type": "Point",
        "coordinates": [
          2718002.0,
          1112232.0
        ]
      }
    },
    {
      "type": "Feature",
      "properties": {
        "tile": "bellinzona_full_nir_2024_c022_r085_nirchm.tif",
        "predicted_prob_at_review": 1.0,
        "source": "active_learning"
      },
      "geometry": {
        "type": "Point",
        "coordinates": [
          2717151.09,
          1112477.09
        ]
      }
    },
    {
      "type": "Feature",
      "properties": {
        "tile": "bellinzona_full_nir_2024_c022_r085_nirchm.tif",
        "predicted_prob_at_review": 1.0,
        "source": "active_learning"
      },
      "geometry": {
        "type": "Point",
        "coordinates": [
          2717150.51,
          1112477.09
        ]
      }
    },
    {
      "type": "Feature",
      "properties": {
        "tile": "bellinzona_full_nir_2024_c061_r044_nirchm.tif",
        "predicted_prob_at_review": 1.0,
        "source": "active_learning"
      },
      "geometry": {
        "type": "Point",
        "coordinates": [
          2720661.74,
          1116175.89
        ]
      }
    },
    {
      "type": "Feature",
      "properties": {
        "tile": "bellinzona_full_nir_2024_c061_r044_nirchm.tif",
        "predicted_prob_at_review": 1.0,
        "source": "active_learning"
      },
      "geometry": {
        "type": "Point",
        "coordinates": [
          2720659.28,
          1116177.46
        ]
      }
    },
    {
      "type": "Feature",
      "properties": {
        "tile": "bellinzona_full_nir_2024_c010_r060_nirchm.tif",
        "predicted_prob_at_review": 1.0,
        "source": "active_learning"
      },
      "geometry": {
        "type": "Point",
        "coordinates": [
          2716029.85,
          1114728.85
        ]
      }
    },
    {
      "type": "Feature",
      "properties": {
        "tile": "bellinzona_full_nir_2024_c010_r060_nirchm.tif",
        "predicted_prob_at_review": 1.0,
        "source": "active_learning"
      },
      "geometry": {
        "type": "Point",
        "coordinates": [
          2716026.04,
          1114727.84
        ]
      }
    },
    {
      "type": "Feature",
      "properties": {
        "tile": "bellinzona_full_nir_2024_c010_r060_nirchm.tif",
        "predicted_prob_at_review": 1.0,
        "source": "active_learning"
      },
      "geometry": {
        "type": "Point",
        "coordinates": [
          2716024.25,
          1114729.18
        ]
      }
    },
    {
      "type": "Feature",
      "properties": {
        "tile": "bellinzona_full_nir_2024_c045_r084_nirchm.tif",
        "predicted_prob_at_review": 1.0,
        "source": "active_learning"
      },
      "geometry": {
        "type": "Point",
        "coordinates": [
          2719193.84,
          1112608.76
        ]
      }
    },
    {
      "type": "Feature",
      "properties": {
        "tile": "bellinzona_full_nir_2024_c057_r039_nirchm.tif",
        "predicted_prob_at_review": 1.0,
        "source": "active_learning"
      },
      "geometry": {
        "type": "Point",
        "coordinates": [
          2720288.22,
          1116640.05
        ]
      }
    },
    {
      "type": "Feature",
      "properties": {
        "tile": "bellinzona_full_nir_2024_c057_r039_nirchm.tif",
        "predicted_prob_at_review": 1.0,
        "source": "active_learning"
      },
      "geometry": {
        "type": "Point",
        "coordinates": [
          2720296.18,
          1116644.08
        ]
      }
    },
    {
      "type": "Feature",
      "properties": {
        "tile": "bellinzona_full_nir_2024_c015_r060_nirchm.tif",
        "predicted_prob_at_review": 1.0,
        "source": "active_learning"
      },
      "geometry": {
        "type": "Point",
        "coordinates": [
          2716462.0,
          1114784.0
        ]
      }
    },
    {
      "type": "Feature",
      "properties": {
        "tile": "bellinzona_full_nir_2024_c061_r038_nirchm.tif",
        "predicted_prob_at_review": 1.0,
        "source": "active_learning"
      },
      "geometry": {
        "type": "Point",
        "coordinates": [
          2720602.94,
          1116740.37
        ]
      }
    },
    {
      "type": "Feature",
      "properties": {
        "tile": "bellinzona_full_nir_2024_c061_r038_nirchm.tif",
        "predicted_prob_at_review": 1.0,
        "source": "active_learning"
      },
      "geometry": {
        "type": "Point",
        "coordinates": [
          2720601.93,
          1116740.14
        ]
      }
    },
    {
      "type": "Feature",
      "properties": {
        "tile": "bellinzona_full_nir_2024_c061_r038_nirchm.tif",
        "predicted_prob_at_review": 1.0,
        "source": "active_learning"
      },
      "geometry": {
        "type": "Point",
        "coordinates": [
          2720600.48,
          1116739.13
        ]
      }
    },
    {
      "type": "Feature",
      "properties": {
        "tile": "bellinzona_full_nir_2024_c038_r052_nirchm.tif",
        "predicted_prob_at_review": 1.0,
        "source": "active_learning"
      },
      "geometry": {
        "type": "Point",
        "coordinates": [
          2718520.8,
          1115477.18
        ]
      }
    },
    {
      "type": "Feature",
      "properties": {
        "tile": "bellinzona_full_nir_2024_c016_r060_nirchm.tif",
        "predicted_prob_at_review": 1.0,
        "source": "active_learning"
      },
      "geometry": {
        "type": "Point",
        "coordinates": [
          2716605.0,
          1114773.0
        ]
      }
    },
    {
      "type": "Feature",
      "properties": {
        "tile": "bellinzona_full_nir_2024_c056_r049_nirchm.tif",
        "predicted_prob_at_review": 1.0,
        "source": "active_learning"
      },
      "geometry": {
        "type": "Point",
        "coordinates": [
          2720191.0,
          1115741.0
        ]
      }
    },
    {
      "type": "Feature",
      "properties": {
        "tile": "bellinzona_full_nir_2024_c060_r039_nirchm.tif",
        "predicted_prob_at_review": 1.0,
        "source": "active_learning"
      },
      "geometry": {
        "type": "Point",
        "coordinates": [
          2720499.0,
          1116632.0
        ]
      }
    },
    {
      "type": "Feature",
      "properties": {
        "tile": "bellinzona_full_nir_2024_c017_r056_nirchm.tif",
        "predicted_prob_at_review": 1.0,
        "source": "active_learning"
      },
      "geometry": {
        "type": "Point",
        "coordinates": [
          2716671.0,
          1115103.0
        ]
      }
    },
    {
      "type": "Feature",
      "properties": {
        "tile": "bellinzona_full_nir_2024_c021_r093_nirchm.tif",
        "predicted_prob_at_review": 1.0,
        "source": "active_learning"
      },
      "geometry": {
        "type": "Point",
        "coordinates": [
          2717062.4,
          1111808.25
        ]
      }
    },
    {
      "type": "Feature",
      "properties": {
        "tile": "bellinzona_full_nir_2024_c018_r093_nirchm.tif",
        "predicted_prob_at_review": 1.0,
        "source": "active_learning"
      },
      "geometry": {
        "type": "Point",
        "coordinates": [
          2716770.0,
          1111803.0
        ]
      }
    },
    {
      "type": "Feature",
      "properties": {
        "tile": "bellinzona_full_nir_2024_c017_r058_nirchm.tif",
        "predicted_prob_at_review": 0.9041,
        "source": "active_learning"
      },
      "geometry": {
        "type": "Point",
        "coordinates": [
          2716670.68,
          1114898.24
        ]
      }
    },
    {
      "type": "Feature",
      "properties": {
        "tile": "bellinzona_full_nir_2024_c021_r086_nirchm.tif",
        "predicted_prob_at_review": 0.8976,
        "source": "active_learning"
      },
      "geometry": {
        "type": "Point",
        "coordinates": [
          2717070.04,
          1112444.99
        ]
      }
    },
    {
      "type": "Feature",
      "properties": {
        "tile": "bellinzona_full_nir_2024_c018_r058_nirchm.tif",
        "predicted_prob_at_review": 0.8881,
        "source": "active_learning"
      },
      "geometry": {
        "type": "Point",
        "coordinates": [
          2716726.8,
          1114917.53
        ]
      }
    },
    {
      "type": "Feature",
      "properties": {
        "tile": "bellinzona_full_nir_2024_c060_r046_nirchm.tif",
        "predicted_prob_at_review": 0.8858,
        "source": "active_learning"
      },
      "geometry": {
        "type": "Point",
        "coordinates": [
          2720506.74,
          1116014.39
        ]
      }
    },
    {
      "type": "Feature",
      "properties": {
        "tile": "bellinzona_full_nir_2024_c055_r043_nirchm.tif",
        "predicted_prob_at_review": 0.8772,
        "source": "active_learning"
      },
      "geometry": {
        "type": "Point",
        "coordinates": [
          2720091.45,
          1116250.9
        ]
      }
    },
    {
      "type": "Feature",
      "properties": {
        "tile": "bellinzona_full_nir_2024_c018_r092_nirchm.tif",
        "predicted_prob_at_review": 0.8762,
        "source": "active_learning"
      },
      "geometry": {
        "type": "Point",
        "coordinates": [
          2716743.76,
          1111894.23
        ]
      }
    },
    {
      "type": "Feature",
      "properties": {
        "tile": "bellinzona_full_nir_2024_c005_r060_nirchm.tif",
        "predicted_prob_at_review": 0.8711,
        "source": "active_learning"
      },
      "geometry": {
        "type": "Point",
        "coordinates": [
          2715592.81,
          1114752.08
        ]
      }
    },
    {
      "type": "Feature",
      "properties": {
        "tile": "bellinzona_full_nir_2024_c005_r060_nirchm.tif",
        "predicted_prob_at_review": 0.8705,
        "source": "active_learning"
      },
      "geometry": {
        "type": "Point",
        "coordinates": [
          2715593.0,
          1114751.0
        ]
      }
    },
    {
      "type": "Feature",
      "properties": {
        "tile": "bellinzona_full_nir_2024_c046_r081_nirchm.tif",
        "predicted_prob_at_review": 0.8693,
        "source": "active_learning"
      },
      "geometry": {
        "type": "Point",
        "coordinates": [
          2719311.0,
          1112870.0
        ]
      }
    },
    {
      "type": "Feature",
      "properties": {
        "tile": "bellinzona_full_nir_2024_c046_r081_nirchm.tif",
        "predicted_prob_at_review": 0.8693,
        "source": "active_learning"
      },
      "geometry": {
        "type": "Point",
        "coordinates": [
          2719322.0,
          1112870.0
        ]
      }
    },
    {
      "type": "Feature",
      "properties": {
        "tile": "bellinzona_full_nir_2024_c021_r086_nirchm.tif",
        "predicted_prob_at_review": 0.8685,
        "source": "active_learning"
      },
      "geometry": {
        "type": "Point",
        "coordinates": [
          2717070.24,
          1112444.09
        ]
      }
    },
    {
      "type": "Feature",
      "properties": {
        "tile": "bellinzona_full_nir_2024_c010_r060_nirchm.tif",
        "predicted_prob_at_review": 0.8658,
        "source": "active_learning"
      },
      "geometry": {
        "type": "Point",
        "coordinates": [
          2716048.96,
          1114752.77
        ]
      }
    },
    {
      "type": "Feature",
      "properties": {
        "tile": "bellinzona_full_nir_2024_c013_r058_nirchm.tif",
        "predicted_prob_at_review": 0.865,
        "source": "active_learning"
      },
      "geometry": {
        "type": "Point",
        "coordinates": [
          2716309.72,
          1114962.45
        ]
      }
    },
    {
      "type": "Feature",
      "properties": {
        "tile": "bellinzona_full_nir_2024_c013_r058_nirchm.tif",
        "predicted_prob_at_review": 0.865,
        "source": "active_learning"
      },
      "geometry": {
        "type": "Point",
        "coordinates": [
          2716309.83,
          1114972.41
        ]
      }
    },
    {
      "type": "Feature",
      "properties": {
        "tile": "bellinzona_full_nir_2024_c060_r046_nirchm.tif",
        "predicted_prob_at_review": 0.8642,
        "source": "active_learning"
      },
      "geometry": {
        "type": "Point",
        "coordinates": [
          2720484.99,
          1116007.22
        ]
      }
    },
    {
      "type": "Feature",
      "properties": {
        "tile": "bellinzona_full_nir_2024_c017_r058_nirchm.tif",
        "predicted_prob_at_review": 0.8627,
        "source": "active_learning"
      },
      "geometry": {
        "type": "Point",
        "coordinates": [
          2716671.0,
          1114894.0
        ]
      }
    },
    {
      "type": "Feature",
      "properties": {
        "tile": "bellinzona_full_nir_2024_c056_r047_nirchm.tif",
        "predicted_prob_at_review": 0.8596,
        "source": "active_learning"
      },
      "geometry": {
        "type": "Point",
        "coordinates": [
          2720174.97,
          1115887.01
        ]
      }
    },
    {
      "type": "Feature",
      "properties": {
        "tile": "bellinzona_full_nir_2024_c066_r071_nirchm.tif",
        "predicted_prob_at_review": 1.0,
        "source": "active_learning"
      },
      "geometry": {
        "type": "Point",
        "coordinates": [
          2721104.59,
          1113761.07
        ]
      }
    },
    {
      "type": "Feature",
      "properties": {
        "tile": "bellinzona_full_nir_2024_c057_r040_nirchm.tif",
        "predicted_prob_at_review": 1.0,
        "source": "active_learning"
      },
      "geometry": {
        "type": "Point",
        "coordinates": [
          2720238.73,
          1116556.64
        ]
      }
    },
    {
      "type": "Feature",
      "properties": {
        "tile": "bellinzona_full_nir_2024_c057_r040_nirchm.tif",
        "predicted_prob_at_review": 1.0,
        "source": "active_learning"
      },
      "geometry": {
        "type": "Point",
        "coordinates": [
          2720237.61,
          1116555.85
        ]
      }
    },
    {
      "type": "Feature",
      "properties": {
        "tile": "bellinzona_full_nir_2024_c057_r040_nirchm.tif",
        "predicted_prob_at_review": 1.0,
        "source": "active_learning"
      },
      "geometry": {
        "type": "Point",
        "coordinates": [
          2720236.49,
          1116554.73
        ]
      }
    },
    {
      "type": "Feature",
      "properties": {
        "tile": "bellinzona_full_nir_2024_c057_r040_nirchm.tif",
        "predicted_prob_at_review": 1.0,
        "source": "active_learning"
      },
      "geometry": {
        "type": "Point",
        "coordinates": [
          2720241.42,
          1116552.05
        ]
      }
    },
    {
      "type": "Feature",
      "properties": {
        "tile": "bellinzona_full_nir_2024_c057_r040_nirchm.tif",
        "predicted_prob_at_review": 1.0,
        "source": "active_learning"
      },
      "geometry": {
        "type": "Point",
        "coordinates": [
          2720243.66,
          1116552.05
        ]
      }
    },
    {
      "type": "Feature",
      "properties": {
        "tile": "bellinzona_full_nir_2024_c005_r059_nirchm.tif",
        "predicted_prob_at_review": 1.0,
        "source": "active_learning"
      },
      "geometry": {
        "type": "Point",
        "coordinates": [
          2715568.32,
          1114836.05
        ]
      }
    },
    {
      "type": "Feature",
      "properties": {
        "tile": "bellinzona_full_nir_2024_c001_r056_nirchm.tif",
        "predicted_prob_at_review": 1.0,
        "source": "active_learning"
      },
      "geometry": {
        "type": "Point",
        "coordinates": [
          2715240.98,
          1115082.66
        ]
      }
    },
    {
      "type": "Feature",
      "properties": {
        "tile": "bellinzona_full_nir_2024_c016_r056_nirchm.tif",
        "predicted_prob_at_review": 1.0,
        "source": "active_learning"
      },
      "geometry": {
        "type": "Point",
        "coordinates": [
          2716595.38,
          1115116.42
        ]
      }
    },
    {
      "type": "Feature",
      "properties": {
        "tile": "bellinzona_full_nir_2024_c013_r058_nirchm.tif",
        "predicted_prob_at_review": 1.0,
        "source": "active_learning"
      },
      "geometry": {
        "type": "Point",
        "coordinates": [
          2716351.32,
          1114929.76
        ]
      }
    },
    {
      "type": "Feature",
      "properties": {
        "tile": "bellinzona_full_nir_2024_c056_r047_nirchm.tif",
        "predicted_prob_at_review": 1.0,
        "source": "active_learning"
      },
      "geometry": {
        "type": "Point",
        "coordinates": [
          2720171.92,
          1115937.95
        ]
      }
    },
    {
      "type": "Feature",
      "properties": {
        "tile": "bellinzona_full_nir_2024_c056_r047_nirchm.tif",
        "predicted_prob_at_review": 1.0,
        "source": "active_learning"
      },
      "geometry": {
        "type": "Point",
        "coordinates": [
          2720171.92,
          1115938.85
        ]
      }
    },
    {
      "type": "Feature",
      "properties": {
        "tile": "bellinzona_full_nir_2024_c013_r057_nirchm.tif",
        "predicted_prob_at_review": 1.0,
        "source": "active_learning"
      },
      "geometry": {
        "type": "Point",
        "coordinates": [
          2716290.72,
          1114985.02
        ]
      }
    },
    {
      "type": "Feature",
      "properties": {
        "tile": "bellinzona_full_nir_2024_c013_r057_nirchm.tif",
        "predicted_prob_at_review": 1.0,
        "source": "active_learning"
      },
      "geometry": {
        "type": "Point",
        "coordinates": [
          2716290.72,
          1114985.02
        ]
      }
    },
    {
      "type": "Feature",
      "properties": {
        "tile": "bellinzona_full_nir_2024_c013_r057_nirchm.tif",
        "predicted_prob_at_review": 1.0,
        "source": "active_learning"
      },
      "geometry": {
        "type": "Point",
        "coordinates": [
          2716290.72,
          1114985.02
        ]
      }
    },
    {
      "type": "Feature",
      "properties": {
        "tile": "bellinzona_full_nir_2024_c055_r037_nirchm.tif",
        "predicted_prob_at_review": 1.0,
        "source": "active_learning"
      },
      "geometry": {
        "type": "Point",
        "coordinates": [
          2720089.21,
          1116822.68
        ]
      }
    },
    {
      "type": "Feature",
      "properties": {
        "tile": "bellinzona_full_nir_2024_c055_r037_nirchm.tif",
        "predicted_prob_at_review": 1.0,
        "source": "active_learning"
      },
      "geometry": {
        "type": "Point",
        "coordinates": [
          2720100.86,
          1116821.0
        ]
      }
    },
    {
      "type": "Feature",
      "properties": {
        "tile": "bellinzona_full_nir_2024_c063_r072_nirchm.tif",
        "predicted_prob_at_review": 0.9999,
        "source": "active_learning"
      },
      "geometry": {
        "type": "Point",
        "coordinates": [
          2720840.38,
          1113694.73
        ]
      }
    },
    {
      "type": "Feature",
      "properties": {
        "tile": "bellinzona_full_nir_2024_c038_r053_nirchm.tif",
        "predicted_prob_at_review": 0.9999,
        "source": "active_learning"
      },
      "geometry": {
        "type": "Point",
        "coordinates": [
          2718598.03,
          1115371.8
        ]
      }
    },
    {
      "type": "Feature",
      "properties": {
        "tile": "bellinzona_full_nir_2024_c038_r053_nirchm.tif",
        "predicted_prob_at_review": 0.9999,
        "source": "active_learning"
      },
      "geometry": {
        "type": "Point",
        "coordinates": [
          2718603.52,
          1115370.34
        ]
      }
    },
    {
      "type": "Feature",
      "properties": {
        "tile": "bellinzona_full_nir_2024_c016_r056_nirchm.tif",
        "predicted_prob_at_review": 0.9999,
        "source": "active_learning"
      },
      "geometry": {
        "type": "Point",
        "coordinates": [
          2716618.59,
          1115116.53
        ]
      }
    },
    {
      "type": "Feature",
      "properties": {
        "tile": "bellinzona_full_nir_2024_c054_r037_nirchm.tif",
        "predicted_prob_at_review": 0.9999,
        "source": "active_learning"
      },
      "geometry": {
        "type": "Point",
        "coordinates": [
          2720026.37,
          1116766.16
        ]
      }
    },
    {
      "type": "Feature",
      "properties": {
        "tile": "bellinzona_full_nir_2024_c054_r037_nirchm.tif",
        "predicted_prob_at_review": 0.9999,
        "source": "active_learning"
      },
      "geometry": {
        "type": "Point",
        "coordinates": [
          2720028.61,
          1116771.2
        ]
      }
    }
  ]
}