{
"type": "FeatureCollection",
"name": "active_learning_hard_negatives",
"crs": { "type": "name", "properties": { "name": "urn:ogc:def:crs:EPSG::2056" } },
"features": [
{ "type": "Feature", "properties": { "tile": "bellinzona_full_nir_2024_c030_r086_nirchm.tif", "predicted_prob_at_review": 0.9139, "source": "active_learning" }, "geometry": { "type": "Point", "coordinates": [ 2717876.069999999832362, 1112450.7 ] } },
{ "type": "Feature", "properties": { "tile": "bellinzona_full_nir_2024_c030_r086_nirchm.tif", "predicted_prob_at_review": 0.8854, "source": "active_learning" }, "geometry": { "type": "Point", "coordinates": [ 2717876.069999999832362, 1112450.7 ] } },
{ "type": "Feature", "properties": { "tile": "bellinzona_full_nir_2024_c031_r086_nirchm.tif", "predicted_prob_at_review": 0.8763, "source": "active_learning" }, "geometry": { "type": "Point", "coordinates": [ 2717876.069999999832362, 1112450.7 ] } },
{ "type": "Feature", "properties": { "tile": "bellinzona_full_nir_2024_c044_r079_nirchm.tif", "predicted_prob_at_review": 0.8498, "source": "active_learning" }, "geometry": { "type": "Point", "coordinates": [ 2719096.83, 1113094.98 ] } },
{ "type": "Feature", "properties": { "tile": "bellinzona_full_nir_2024_c063_r056_nirchm.tif", "predicted_prob_at_review": 0.8453, "source": "active_learning" }, "geometry": { "type": "Point", "coordinates": [ 2720813.92, 1115083.47 ] } },
{ "type": "Feature", "properties": { "tile": "bellinzona_full_nir_2024_c046_r080_nirchm.tif", "predicted_prob_at_review": 0.8392, "source": "active_learning" }, "geometry": { "type": "Point", "coordinates": [ 2719220.9, 1112951.16 ] } },
{ "type": "Feature", "properties": { "tile": "bellinzona_full_nir_2024_c044_r078_nirchm.tif", "predicted_prob_at_review": 0.8382, "source": "active_learning" }, "geometry": { "type": "Point", "coordinates": [ 2719096.83, 1113094.98 ] } },
{ "type": "Feature", "properties": { "tile": "bellinzona_full_nir_2024_c045_r080_nirchm.tif", "predicted_prob_at_review": 0.8285, "source": "active_learning" }, "geometry": { "type": "Point", "coordinates": [ 2719220.9, 1112951.16 ] } },
{ "type": "Feature", "properties": { "tile": "bellinzona_full_nir_2024_c046_r080_nirchm.tif", "predicted_prob_at_review": 0.825, "source": "active_learning" }, "geometry": { "type": "Point", "coordinates": [ 2719220.9, 1112951.16 ] } },
{ "type": "Feature", "properties": { "tile": "bellinzona_full_nir_2024_c044_r078_nirchm.tif", "predicted_prob_at_review": 0.8181, "source": "active_learning" }, "geometry": { "type": "Point", "coordinates": [ 2719096.83, 1113094.98 ] } },
{ "type": "Feature", "properties": { "tile": "bellinzona_full_nir_2024_c063_r056_nirchm.tif", "predicted_prob_at_review": 0.817, "source": "active_learning" }, "geometry": { "type": "Point", "coordinates": [ 2720813.92, 1115083.47 ] } },
{ "type": "Feature", "properties": { "tile": "bellinzona_full_nir_2024_c059_r065_nirchm.tif", "predicted_prob_at_review": 0.8133, "source": "active_learning" }, "geometry": { "type": "Point", "coordinates": [ 2720391.58, 1114315.34 ] } },
{ "type": "Feature", "properties": { "tile": "bellinzona_full_nir_2024_c058_r065_nirchm.tif", "predicted_prob_at_review": 0.806, "source": "active_learning" }, "geometry": { "type": "Point", "coordinates": [ 2720391.58, 1114315.34 ] } },
{ "type": "Feature", "properties": { "tile": "bellinzona_full_nir_2024_c058_r065_nirchm.tif", "predicted_prob_at_review": 0.7986, "source": "active_learning" }, "geometry": { "type": "Point", "coordinates": [ 2720391.58, 1114315.34 ] } },
{ "type": "Feature", "properties": { "tile": "bellinzona_full_nir_2024_c045_r080_nirchm.tif", "predicted_prob_at_review": 0.7864, "source": "active_learning" }, "geometry": { "type": "Point", "coordinates": [ 2719220.9, 1112951.16 ] } },
{ "type": "Feature", "properties": { "tile": "bellinzona_full_nir_2024_c031_r086_nirchm.tif", "predicted_prob_at_review": 0.7822, "source": "active_learning" }, "geometry": { "type": "Point", "coordinates": [ 2717876.069999999832362, 1112450.7 ] } },
{ "type": "Feature", "properties": { "tile": "bellinzona_full_nir_2024_c059_r065_nirchm.tif", "predicted_prob_at_review": 0.7718, "source": "active_learning" }, "geometry": { "type": "Point", "coordinates": [ 2720391.58, 1114315.34 ] } },
{ "type": "Feature", "properties": { "tile": "bellinzona_full_nir_2024_c052_r070_nirchm.tif", "predicted_prob_at_review": 0.7609, "source": "active_learning" }, "geometry": { "type": "Point", "coordinates": [ 2719847.4, 1113875.629999999888241 ] } },
{ "type": "Feature", "properties": { "tile": "bellinzona_full_nir_2024_c044_r079_nirchm.tif", "predicted_prob_at_review": 0.7576, "source": "active_learning" }, "geometry": { "type": "Point", "coordinates": [ 2719096.83, 1113094.98 ] } },
{ "type": "Feature", "properties": { "tile": "bellinzona_full_nir_2024_c046_r080_nirchm.tif", "predicted_prob_at_review": 0.7437, "source": "active_learning" }, "geometry": { "type": "Point", "coordinates": [ 2719220.9, 1112951.16 ] } },
{ "type": "Feature", "properties": { "tile": "bellinzona_full_nir_2024_c061_r034_nirchm.tif", "predicted_prob_at_review": 0.739, "source": "active_learning" }, "geometry": { "type": "Point", "coordinates": [ 2720618.529999999795109, 1117103.76 ] } },
{ "type": "Feature", "properties": { "tile": "bellinzona_full_nir_2024_c044_r079_nirchm.tif", "predicted_prob_at_review": 0.7334, "source": "active_learning" }, "geometry": { "type": "Point", "coordinates": [ 2719096.83, 1113094.98 ] } },
{ "type": "Feature", "properties": { "tile": "bellinzona_full_nir_2024_c061_r034_nirchm.tif", "predicted_prob_at_review": 0.7248, "source": "active_learning" }, "geometry": { "type": "Point", "coordinates": [ 2720618.529999999795109, 1117103.76 ] } },
{ "type": "Feature", "properties": { "tile": "bellinzona_full_nir_2024_c064_r059_nirchm.tif", "predicted_prob_at_review": 0.6967, "source": "active_learning" }, "geometry": { "type": "Point", "coordinates": [ 2720906.859999999869615, 1114869.27 ] } },
{ "type": "Feature", "properties": { "tile": "bellinzona_full_nir_2024_c052_r070_nirchm.tif", "predicted_prob_at_review": 0.6706, "source": "active_learning" }, "geometry": { "type": "Point", "coordinates": [ 2719847.4, 1113875.629999999888241 ] } },
{ "type": "Feature", "properties": { "tile": "bellinzona_full_nir_2024_c053_r070_nirchm.tif", "predicted_prob_at_review": 0.6598, "source": "active_learning" }, "geometry": { "type": "Point", "coordinates": [ 2719847.4, 1113875.629999999888241 ] } },
{ "type": "Feature", "properties": { "tile": "bellinzona_full_nir_2024_c045_r080_nirchm.tif", "predicted_prob_at_review": 0.6586, "source": "active_learning" }, "geometry": { "type": "Point", "coordinates": [ 2719220.9, 1112951.16 ] } },
{ "type": "Feature", "properties": { "tile": "bellinzona_full_nir_2024_c064_r059_nirchm.tif", "predicted_prob_at_review": 0.6512, "source": "active_learning" }, "geometry": { "type": "Point", "coordinates": [ 2720906.859999999869615, 1114869.27 ] } },
{ "type": "Feature", "properties": { "tile": "bellinzona_full_nir_2024_c044_r078_nirchm.tif", "predicted_prob_at_review": 0.6363, "source": "active_learning" }, "geometry": { "type": "Point", "coordinates": [ 2719096.83, 1113094.98 ] } },
{ "type": "Feature", "properties": { "tile": "bellinzona_full_nir_2024_c053_r070_nirchm.tif", "predicted_prob_at_review": 0.6073, "source": "active_learning" }, "geometry": { "type": "Point", "coordinates": [ 2719847.4, 1113875.629999999888241 ] } },
{ "type": "Feature", "properties": { "tile": "bellinzona_full_nir_2024_c031_r066_nirchm.tif", "predicted_prob_at_review": 0.5491, "source": "active_learning" }, "geometry": { "type": "Point", "coordinates": [ 2717898.609999999869615, 1114232.4 ] } },
{ "type": "Feature", "properties": { "tile": "bellinzona_full_nir_2024_c033_r079_nirchm.tif", "predicted_prob_at_review": 0.544, "source": "active_learning" }, "geometry": { "type": "Point", "coordinates": [ 2718156.54, 1113078.15 ] } },
{ "type": "Feature", "properties": { "tile": "bellinzona_full_nir_2024_c020_r064_nirchm.tif", "predicted_prob_at_review": 0.5082, "source": "active_learning" }, "geometry": { "type": "Point", "coordinates": [ 2716953.92, 1114385.34 ] } },
{ "type": "Feature", "properties": { "tile": "bellinzona_full_nir_2024_c042_r064_nirchm.tif", "predicted_prob_at_review": 0.4875, "source": "active_learning" }, "geometry": { "type": "Point", "coordinates": [ 2718890.77, 1114442.27 ] } },
{ "type": "Feature", "properties": { "tile": "bellinzona_full_nir_2024_c031_r066_nirchm.tif", "predicted_prob_at_review": 0.487, "source": "active_learning" }, "geometry": { "type": "Point", "coordinates": [ 2717898.609999999869615, 1114232.4 ] } },
{ "type": "Feature", "properties": { "tile": "bellinzona_full_nir_2024_c031_r066_nirchm.tif", "predicted_prob_at_review": 0.4797, "source": "active_learning" }, "geometry": { "type": "Point", "coordinates": [ 2717898.609999999869615, 1114232.4 ] } },
{ "type": "Feature", "properties": { "tile": "bellinzona_full_nir_2024_c032_r068_nirchm.tif", "predicted_prob_at_review": 0.4698, "source": "active_learning" }, "geometry": { "type": "Point", "coordinates": [ 2718015.0, 1113986.49 ] } },
{ "type": "Feature", "properties": { "tile": "bellinzona_full_nir_2024_c056_r080_nirchm.tif", "predicted_prob_at_review": 0.4621, "source": "active_learning" }, "geometry": { "type": "Point", "coordinates": [ 2720173.609999999869615, 1113000.59 ] } },
{ "type": "Feature", "properties": { "tile": "bellinzona_full_nir_2024_c034_r079_nirchm.tif", "predicted_prob_at_review": 0.4561, "source": "active_learning" }, "geometry": { "type": "Point", "coordinates": [ 2718156.54, 1113078.15 ] } },
{ "type": "Feature", "properties": { "tile": "bellinzona_full_nir_2024_c032_r069_nirchm.tif", "predicted_prob_at_review": 0.425, "source": "active_learning" }, "geometry": { "type": "Point", "coordinates": [ 2718015.0, 1113986.49 ] } },
{ "type": "Feature", "properties": { "tile": "bellinzona_full_nir_2024_c034_r079_nirchm.tif", "predicted_prob_at_review": 0.4211, "source": "active_learning" }, "geometry": { "type": "Point", "coordinates": [ 2718156.54, 1113078.15 ] } },
{ "type": "Feature", "properties": { "tile": "bellinzona_full_nir_2024_c053_r070_nirchm.tif", "predicted_prob_at_review": 0.3832, "source": "active_learning" }, "geometry": { "type": "Point", "coordinates": [ 2719847.4, 1113875.629999999888241 ] } },
{ "type": "Feature", "properties": { "tile": "bellinzona_full_nir_2024_c009_r061_nirchm.tif", "predicted_prob_at_review": 0.3819, "source": "active_learning" }, "geometry": { "type": "Point", "coordinates": [ 2715989.160000000149012, 1114663.85 ] } },
{ "type": "Feature", "properties": { "tile": "bellinzona_full_nir_2024_c042_r064_nirchm.tif", "predicted_prob_at_review": 0.3752, "source": "active_learning" }, "geometry": { "type": "Point", "coordinates": [ 2718890.77, 1114442.27 ] } },
{ "type": "Feature", "properties": { "tile": "bellinzona_full_nir_2024_c020_r064_nirchm.tif", "predicted_prob_at_review": 0.3687, "source": "active_learning" }, "geometry": { "type": "Point", "coordinates": [ 2716953.92, 1114385.34 ] } },
{ "type": "Feature", "properties": { "tile": "bellinzona_full_nir_2024_c056_r080_nirchm.tif", "predicted_prob_at_review": 0.3636, "source": "active_learning" }, "geometry": { "type": "Point", "coordinates": [ 2720173.609999999869615, 1113000.59 ] } },
{ "type": "Feature", "properties": { "tile": "bellinzona_full_nir_2024_c009_r061_nirchm.tif", "predicted_prob_at_review": 0.3621, "source": "active_learning" }, "geometry": { "type": "Point", "coordinates": [ 2715989.160000000149012, 1114663.85 ] } },
{ "type": "Feature", "properties": { "tile": "bellinzona_full_nir_2024_c052_r070_nirchm.tif", "predicted_prob_at_review": 0.3245, "source": "active_learning" }, "geometry": { "type": "Point", "coordinates": [ 2719847.4, 1113875.629999999888241 ] } },
{ "type": "Feature", "properties": { "tile": "bellinzona_full_nir_2024_c033_r079_nirchm.tif", "predicted_prob_at_review": 0.3219, "source": "active_learning" }, "geometry": { "type": "Point", "coordinates": [ 2718156.54, 1113078.15 ] } },
{ "type": "Feature", "properties": { "tile": "bellinzona_full_nir_2024_c056_r079_nirchm.tif", "predicted_prob_at_review": 0.2962, "source": "active_learning" }, "geometry": { "type": "Point", "coordinates": [ 2720173.609999999869615, 1113000.59 ] } },
{ "type": "Feature", "properties": { "tile": "bellinzona_full_nir_2024_c056_r068_nirchm.tif", "predicted_prob_at_review": 0.2545, "source": "active_learning" }, "geometry": { "type": "Point", "coordinates": [ 2720147.23, 1113993.66 ] } },
{ "type": "Feature", "properties": { "tile": "bellinzona_full_nir_2024_c034_r079_nirchm.tif", "predicted_prob_at_review": 0.2535, "source": "active_learning" }, "geometry": { "type": "Point", "coordinates": [ 2718156.54, 1113078.15 ] } },
{ "type": "Feature", "properties": { "tile": "bellinzona_full_nir_2024_c032_r068_nirchm.tif", "predicted_prob_at_review": 0.2284, "source": "active_learning" }, "geometry": { "type": "Point", "coordinates": [ 2718015.0, 1113986.49 ] } },
{ "type": "Feature", "properties": { "tile": "bellinzona_full_nir_2024_c056_r079_nirchm.tif", "predicted_prob_at_review": 0.2031, "source": "active_learning" }, "geometry": { "type": "Point", "coordinates": [ 2720173.609999999869615, 1113000.59 ] } },
{ "type": "Feature", "properties": { "tile": "bellinzona_full_nir_2024_c033_r072_nirchm.tif", "predicted_prob_at_review": 0.9029, "source": "active_learning" }, "geometry": { "type": "Point", "coordinates": [ 2718101.0, 1113673.0 ] } },
{ "type": "Feature", "properties": { "tile": "bellinzona_full_nir_2024_c039_r080_nirchm.tif", "predicted_prob_at_review": 0.9028, "source": "active_learning" }, "geometry": { "type": "Point", "coordinates": [ 2718673.0, 1112936.0 ] } },
{ "type": "Feature", "properties": { "tile": "bellinzona_full_nir_2024_c043_r079_nirchm.tif", "predicted_prob_at_review": 0.8959, "source": "active_learning" }, "geometry": { "type": "Point", "coordinates": [ 2719014.0, 1113024.0 ] } },
{ "type": "Feature", "properties": { "tile": "bellinzona_full_nir_2024_c010_r088_nirchm.tif", "predicted_prob_at_review": 0.8948, "source": "active_learning" }, "geometry": { "type": "Point", "coordinates": [ 2716077.0, 1112265.0 ] } },
{ "type": "Feature", "properties": { "tile": "bellinzona_full_nir_2024_c054_r049_nirchm.tif", "predicted_prob_at_review": 0.893, "source": "active_learning" }, "geometry": { "type": "Point", "coordinates": [ 2720037.0, 1115752.0 ] } },
{ "type": "Feature", "properties": { "tile": "bellinzona_full_nir_2024_c061_r074_nirchm.tif", "predicted_prob_at_review": 0.8916, "source": "active_learning" }, "geometry": { "type": "Point", "coordinates": [ 2720609.0, 1113475.0 ] } },
{ "type": "Feature", "properties": { "tile": "bellinzona_full_nir_2024_c019_r092_nirchm.tif", "predicted_prob_at_review": 0.891, "source": "active_learning" }, "geometry": { "type": "Point", "coordinates": [ 2716814.0, 1111913.0 ] } },
{ "type": "Feature", "properties": { "tile": "bellinzona_full_nir_2024_c012_r090_nirchm.tif", "predicted_prob_at_review": 0.8905, "source": "active_learning" }, "geometry": { "type": "Point", "coordinates": [ 2716209.0, 1112034.0 ] } },
{ "type": "Feature", "properties": { "tile": "bellinzona_full_nir_2024_c016_r085_nirchm.tif", "predicted_prob_at_review": 0.8893, "source": "active_learning" }, "geometry": { "type": "Point", "coordinates": [ 2716616.0, 1112540.0 ] } },
{ "type": "Feature", "properties": { "tile": "bellinzona_full_nir_2024_c045_r081_nirchm.tif", "predicted_prob_at_review": 0.889, "source": "active_learning" }, "geometry": { "type": "Point", "coordinates": [ 2719201.0, 1112881.0 ] } },
{ "type": "Feature", "properties": { "tile": "bellinzona_full_nir_2024_c041_r052_nirchm.tif", "predicted_prob_at_review": 0.8887, "source": "active_learning" }, "geometry": { "type": "Point", "coordinates": [ 2718871.0, 1115433.0 ] } },
{ "type": "Feature", "properties": { "tile": "bellinzona_full_nir_2024_c041_r084_nirchm.tif", "predicted_prob_at_review": 0.8882, "source": "active_learning" }, "geometry": { "type": "Point", "coordinates": [ 2718849.0, 1112617.0 ] } },
{ "type": "Feature", "properties": { "tile": "bellinzona_full_nir_2024_c064_r068_nirchm.tif", "predicted_prob_at_review": 0.8881, "source": "active_learning" }, "geometry": { "type": "Point", "coordinates": [ 2720928.0, 1114058.0 ] } },
{ "type": "Feature", "properties": { "tile": "bellinzona_full_nir_2024_c065_r062_nirchm.tif", "predicted_prob_at_review": 0.888, "source": "active_learning" }, "geometry": { "type": "Point", "coordinates": [ 2720961.0, 1114586.0 ] } },
{ "type": "Feature", "properties": { "tile": "bellinzona_full_nir_2024_c053_r050_nirchm.tif", "predicted_prob_at_review": 0.8879, "source": "active_learning" }, "geometry": { "type": "Point", "coordinates": [ 2719949.0, 1115653.0 ] } },
{ "type": "Feature", "properties": { "tile": "bellinzona_full_nir_2024_c034_r072_nirchm.tif", "predicted_prob_at_review": 0.8878, "source": "active_learning" }, "geometry": { "type": "Point", "coordinates": [ 2718167.0, 1113651.0 ] } },
{ "type": "Feature", "properties": { "tile": "bellinzona_full_nir_2024_c068_r066_nirchm.tif", "predicted_prob_at_review": 0.8867, "source": "active_learning" }, "geometry": { "type": "Point", "coordinates": [ 2721280.0, 1114190.0 ] } },
{ "type": "Feature", "properties": { "tile": "bellinzona_full_nir_2024_c053_r050_nirchm.tif", "predicted_prob_at_review": 0.8862, "source": "active_learning" }, "geometry": { "type": "Point", "coordinates": [ 2719938.0, 1115653.0 ] } },
{ "type": "Feature", "properties": { "tile": "bellinzona_full_nir_2024_c015_r088_nirchm.tif", "predicted_prob_at_review": 0.8861, "source": "active_learning" }, "geometry": { "type": "Point", "coordinates": [ 2716506.0, 1112265.0 ] } },
{ "type": "Feature", "properties": { "tile": "bellinzona_full_nir_2024_c062_r072_nirchm.tif", "predicted_prob_at_review": 0.8859, "source": "active_learning" }, "geometry": { "type": "Point", "coordinates": [ 2720675.0, 1113717.0 ] } },
{ "type": "Feature", "properties": { "tile": "bellinzona_full_nir_2024_c065_r060_nirchm.tif", "predicted_prob_at_review": 0.8857, "source": "active_learning" }, "geometry": { "type": "Point", "coordinates": [ 2720950.0, 1114707.0 ] } },
{ "type": "Feature", "properties": { "tile": "bellinzona_full_nir_2024_c068_r062_nirchm.tif", "predicted_prob_at_review": 0.8854, "source": "active_learning" }, "geometry": { "type": "Point", "coordinates": [ 2721291.0, 1114575.0 ] } },
{ "type": "Feature", "properties": { "tile": "bellinzona_full_nir_2024_c050_r050_nirchm.tif", "predicted_prob_at_review": 0.8852, "source": "active_learning" }, "geometry": { "type": "Point", "coordinates": [ 2719674.0, 1115653.0 ] } },
{ "type": "Feature", "properties": { "tile": "bellinzona_full_nir_2024_c057_r053_nirchm.tif", "predicted_prob_at_review": 0.8851, "source": "active_learning" }, "geometry": { "type": "Point", "coordinates": [ 2720235.0, 1115356.0 ] } },
{ "type": "Feature", "properties": { "tile": "bellinzona_full_nir_2024_c058_r049_nirchm.tif", "predicted_prob_at_review": 0.8849, "source": "active_learning" }, "geometry": { "type": "Point", "coordinates": [ 2720345.0, 1115719.0 ] } },
{ "type": "Feature", "properties": { "tile": "bellinzona_full_nir_2024_c052_r048_nirchm.tif", "predicted_prob_at_review": 0.8848, "source": "active_learning" }, "geometry": { "type": "Point", "coordinates": [ 2719828.0, 1115829.0 ] } },
{ "type": "Feature", "properties": { "tile": "bellinzona_full_nir_2024_c063_r062_nirchm.tif", "predicted_prob_at_review": 0.8845, "source": "active_learning" }, "geometry": { "type": "Point", "coordinates": [ 2720796.0, 1114608.0 ] } },
{ "type": "Feature", "properties": { "tile": "bellinzona_full_nir_2024_c052_r050_nirchm.tif", "predicted_prob_at_review": 0.8844, "source": "active_learning" }, "geometry": { "type": "Point", "coordinates": [ 2719773.0, 1115686.0 ] } },
{ "type": "Feature", "properties": { "tile": "bellinzona_full_nir_2024_c018_r092_nirchm.tif", "predicted_prob_at_review": 0.8843, "source": "active_learning" }, "geometry": { "type": "Point", "coordinates": [ 2716803.0, 1111913.0 ] } },
{ "type": "Feature", "properties": { "tile": "bellinzona_full_nir_2024_c050_r050_nirchm.tif", "predicted_prob_at_review": 0.884, "source": "active_learning" }, "geometry": { "type": "Point", "coordinates": [ 2719674.0, 1115664.0 ] } },
{ "type": "Feature", "properties": { "tile": "bellinzona_full_nir_2024_c049_r048_nirchm.tif", "predicted_prob_at_review": 0.8838, "source": "active_learning" }, "geometry": { "type": "Point", "coordinates": [ 2719575.0, 1115840.0 ] } },
{ "type": "Feature", "properties": { "tile": "bellinzona_full_nir_2024_c009_r091_nirchm.tif", "predicted_prob_at_review": 0.8836, "source": "active_learning" }, "geometry": { "type": "Point", "coordinates": [ 2715978.0, 1112001.0 ] } },
{ "type": "Feature", "properties": { "tile": "bellinzona_full_nir_2024_c010_r087_nirchm.tif", "predicted_prob_at_review": 0.8834, "source": "active_learning" }, "geometry": { "type": "Point", "coordinates": [ 2716066.0, 1112309.0 ] } },
{ "type": "Feature", "properties": { "tile": "bellinzona_full_nir_2024_c061_r072_nirchm.tif", "predicted_prob_at_review": 0.8833, "source": "active_learning" }, "geometry": { "type": "Point", "coordinates": [ 2720620.0, 1113706.0 ] } },
{ "type": "Feature", "properties": { "tile": "bellinzona_full_nir_2024_c065_r079_nirchm.tif", "predicted_prob_at_review": 0.8832, "source": "active_learning" }, "geometry": { "type": "Point", "coordinates": [ 2720950.0, 1113013.0 ] } },
{ "type": "Feature", "properties": { "tile": "bellinzona_full_nir_2024_c061_r074_nirchm.tif", "predicted_prob_at_review": 0.8823, "source": "active_learning" }, "geometry": { "type": "Point", "coordinates": [ 2720642.0, 1113464.0 ] } },
{ "type": "Feature", "properties": { "tile": "bellinzona_full_nir_2024_c058_r066_nirchm.tif", "predicted_prob_at_review": 0.8822, "source": "active_learning" }, "geometry": { "type": "Point", "coordinates": [ 2720378.0, 1114245.0 ] } },
{ "type": "Feature", "properties": { "tile": "bellinzona_full_nir_2024_c052_r048_nirchm.tif", "predicted_prob_at_review": 0.8821, "source": "active_learning" }, "geometry": { "type": "Point", "coordinates": [ 2719817.0, 1115862.0 ] } },
{ "type": "Feature", "properties": { "tile": "bellinzona_full_nir_2024_c058_r052_nirchm.tif", "predicted_prob_at_review": 0.8809, "source": "active_learning" }, "geometry": { "type": "Point", "coordinates": [ 2720345.0, 1115488.0 ] } },
{ "type": "Feature", "properties": { "tile": "bellinzona_full_nir_2024_c056_r051_nirchm.tif", "predicted_prob_at_review": 0.8809, "source": "active_learning" }, "geometry": { "type": "Point", "coordinates": [ 2720136.0, 1115554.0 ] } },
{ "type": "Feature", "properties": { "tile": "bellinzona_full_nir_2024_c010_r058_nirchm.tif", "predicted_prob_at_review": 0.8808, "source": "active_learning" }, "geometry": { "type": "Point", "coordinates": [ 2716077.0, 1114894.0 ] } },
{ "type": "Feature", "properties": { "tile": "bellinzona_full_nir_2024_c020_r086_nirchm.tif", "predicted_prob_at_review": 0.8808, "source": "active_learning" }, "geometry": { "type": "Point", "coordinates": [ 2716924.0, 1112375.0 ] } },
{ "type": "Feature", "properties": { "tile": "bellinzona_full_nir_2024_c066_r073_nirchm.tif", "predicted_prob_at_review": 1.0, "source": "active_learning" }, "geometry": { "type": "Point", "coordinates": [ 2721071.0, 1113552.0 ] } },
{ "type": "Feature", "properties": { "tile": "bellinzona_full_nir_2024_c016_r060_nirchm.tif", "predicted_prob_at_review": 1.0, "source": "active_learning" }, "geometry": { "type": "Point", "coordinates": [ 2716594.0, 1114762.0 ] } },
{ "type": "Feature", "properties": { "tile": "bellinzona_full_nir_2024_c038_r051_nirchm.tif", "predicted_prob_at_review": 1.0, "source": "active_learning" }, "geometry": { "type": "Point", "coordinates": [ 2718530.0, 1115554.0 ] } },
{ "type": "Feature", "properties": { "tile": "bellinzona_full_nir_2024_c004_r060_nirchm.tif", "predicted_prob_at_review": 1.0, "source": "active_learning" }, "geometry": { "type": "Point", "coordinates": [ 2715527.0, 1114740.0 ] } },
{ "type": "Feature", "properties": { "tile": "bellinzona_full_nir_2024_c060_r038_nirchm.tif", "predicted_prob_at_review": 1.0, "source": "active_learning" }, "geometry": { "type": "Point", "coordinates": [ 2720543.0, 1116720.0 ] } },
{ "type": "Feature", "properties": { "tile": "bellinzona_full_nir_2024_c060_r039_nirchm.tif", "predicted_prob_at_review": 1.0, "source": "active_learning" }, "geometry": { "type": "Point", "coordinates": [ 2720510.0, 1116632.0 ] } },
{ "type": "Feature", "properties": { "tile": "bellinzona_full_nir_2024_c057_r041_nirchm.tif", "predicted_prob_at_review": 1.0, "source": "active_learning" }, "geometry": { "type": "Point", "coordinates": [ 2720246.0, 1116456.0 ] } },
{ "type": "Feature", "properties": { "tile": "bellinzona_full_nir_2024_c016_r060_nirchm.tif", "predicted_prob_at_review": 1.0, "source": "active_learning" }, "geometry": { "type": "Point", "coordinates": [ 2716594.0, 1114773.0 ] } },
{ "type": "Feature", "properties": { "tile": "bellinzona_full_nir_2024_c011_r057_nirchm.tif", "predicted_prob_at_review": 1.0, "source": "active_learning" }, "geometry": { "type": "Point", "coordinates": [ 2716099.0, 1115026.0 ] } },
{ "type": "Feature", "properties": { "tile": "bellinzona_full_nir_2024_c056_r084_nirchm.tif", "predicted_prob_at_review": 1.0, "source": "active_learning" }, "geometry": { "type": "Point", "coordinates": [ 2720213.0, 1112573.0 ] } },
{ "type": "Feature", "properties": { "tile": "bellinzona_full_nir_2024_c057_r041_nirchm.tif", "predicted_prob_at_review": 1.0, "source": "active_learning" }, "geometry": { "type": "Point", "coordinates": [ 2720246.0, 1116467.0 ] } },
{ "type": "Feature", "properties": { "tile": "bellinzona_full_nir_2024_c044_r085_nirchm.tif", "predicted_prob_at_review": 1.0, "source": "active_learning" }, "geometry": { "type": "Point", "coordinates": [ 2719113.0, 1112551.0 ] } },
{ "type": "Feature", "properties": { "tile": "bellinzona_full_nir_2024_c021_r093_nirchm.tif", "predicted_prob_at_review": 1.0, "source": "active_learning" }, "geometry": { "type": "Point", "coordinates": [ 2717067.0, 1111814.0 ] } },
{ "type": "Feature", "properties": { "tile": "bellinzona_full_nir_2024_c022_r091_nirchm.tif", "predicted_prob_at_review": 1.0, "source": "active_learning" }, "geometry": { "type": "Point", "coordinates": [ 2717133.0, 1111957.0 ] } },
{ "type": "Feature", "properties": { "tile": "bellinzona_full_nir_2024_c001_r060_nirchm.tif", "predicted_prob_at_review": 1.0, "source": "active_learning" }, "geometry": { "type": "Point", "coordinates": [ 2715252.0, 1114740.0 ] } },
{ "type": "Feature", "properties": { "tile": "bellinzona_full_nir_2024_c060_r039_nirchm.tif", "predicted_prob_at_review": 1.0, "source": "active_learning" }, "geometry": { "type": "Point", "coordinates": [ 2720532.0, 1116654.0 ] } },
{ "type": "Feature", "properties": { "tile": "bellinzona_full_nir_2024_c067_r060_nirchm.tif", "predicted_prob_at_review": 1.0, "source": "active_learning" }, "geometry": { "type": "Point", "coordinates": [ 2721126.0, 1114751.0 ] } },
{ "type": "Feature", "properties": { "tile": "bellinzona_full_nir_2024_c039_r050_nirchm.tif", "predicted_prob_at_review": 1.0, "source": "active_learning" }, "geometry": { "type": "Point", "coordinates": [ 2718629.0, 1115609.0 ] } },
{ "type": "Feature", "properties": { "tile": "bellinzona_full_nir_2024_c022_r085_nirchm.tif", "predicted_prob_at_review": 1.0, "source": "active_learning" }, "geometry": { "type": "Point", "coordinates": [ 2717144.0, 1112463.0 ] } },
{ "type": "Feature", "properties": { "tile": "bellinzona_full_nir_2024_c012_r091_nirchm.tif", "predicted_prob_at_review": 1.0, "source": "active_learning" }, "geometry": { "type": "Point", "coordinates": [ 2716198.0, 1111968.0 ] } },
{ "type": "Feature", "properties": { "tile": "bellinzona_full_nir_2024_c001_r058_nirchm.tif", "predicted_prob_at_review": 1.0, "source": "active_learning" }, "geometry": { "type": "Point", "coordinates": [ 2715285.0, 1114949.0 ] } },
{ "type": "Feature", "properties": { "tile": "bellinzona_full_nir_2024_c061_r046_nirchm.tif", "predicted_prob_at_review": 1.0, "source": "active_learning" }, "geometry": { "type": "Point", "coordinates": [ 2720664.0, 1115972.0 ] } },
{ "type": "Feature", "properties": { "tile": "bellinzona_full_nir_2024_c053_r087_nirchm.tif", "predicted_prob_at_review": 1.0, "source": "active_learning" }, "geometry": { "type": "Point", "coordinates": [ 2719927.0, 1112353.0 ] } },
{ "type": "Feature", "properties": { "tile": "bellinzona_full_nir_2024_c055_r044_nirchm.tif", "predicted_prob_at_review": 1.0, "source": "active_learning" }, "geometry": { "type": "Point", "coordinates": [ 2720125.0, 1116181.0 ] } },
{ "type": "Feature", "properties": { "tile": "bellinzona_full_nir_2024_c044_r076_nirchm.tif", "predicted_prob_at_review": 1.0, "source": "active_learning" }, "geometry": { "type": "Point", "coordinates": [ 2719080.0, 1113299.0 ] } },
{ "type": "Feature", "properties": { "tile": "bellinzona_full_nir_2024_c064_r059_nirchm.tif", "predicted_prob_at_review": 0.8947, "source": "active_learning" }, "geometry": { "type": "Point", "coordinates": [ 2720917.0, 1114795.0 ] } },
{ "type": "Feature", "properties": { "tile": "bellinzona_full_nir_2024_c012_r059_nirchm.tif", "predicted_prob_at_review": 0.8874, "source": "active_learning" }, "geometry": { "type": "Point", "coordinates": [ 2716187.0, 1114872.0 ] } },
{ "type": "Feature", "properties": { "tile": "bellinzona_full_nir_2024_c064_r059_nirchm.tif", "predicted_prob_at_review": 0.8871, "source": "active_learning" }, "geometry": { "type": "Point", "coordinates": [ 2720928.0, 1114806.0 ] } },
{ "type": "Feature", "properties": { "tile": "bellinzona_full_nir_2024_c050_r090_nirchm.tif", "predicted_prob_at_review": 0.8855, "source": "active_learning" }, "geometry": { "type": "Point", "coordinates": [ 2719597.0, 1112089.0 ] } },
{ "type": "Feature", "properties": { "tile": "bellinzona_full_nir_2024_c056_r059_nirchm.tif", "predicted_prob_at_review": 0.8795, "source": "active_learning" }, "geometry": { "type": "Point", "coordinates": [ 2720169.0, 1114872.0 ] } },
{ "type": "Feature", "properties": { "tile": "bellinzona_full_nir_2024_c054_r051_nirchm.tif", "predicted_prob_at_review": 0.8792, "source": "active_learning" }, "geometry": { "type": "Point", "coordinates": [ 2719982.0, 1115554.0 ] } },
{ "type": "Feature", "properties": { "tile": "bellinzona_full_nir_2024_c023_r089_nirchm.tif", "predicted_prob_at_review": 0.879, "source": "active_learning" }, "geometry": { "type": "Point", "coordinates": [ 2717243.0, 1112111.0 ] } },
{ "type": "Feature", "properties": { "tile": "bellinzona_full_nir_2024_c063_r038_nirchm.tif", "predicted_prob_at_review": 0.8773, "source": "active_learning" }, "geometry": { "type": "Point", "coordinates": [ 2720818.0, 1116709.0 ] } },
{ "type": "Feature", "properties": { "tile": "bellinzona_full_nir_2024_c053_r059_nirchm.tif", "predicted_prob_at_review": 0.8769, "source": "active_learning" }, "geometry": { "type": "Point", "coordinates": [ 2719938.0, 1114806.0 ] } },
{ "type": "Feature", "properties": { "tile": "bellinzona_full_nir_2024_c011_r087_nirchm.tif", "predicted_prob_at_review": 0.8763, "source": "active_learning" }, "geometry": { "type": "Point", "coordinates": [ 2716099.0, 1112287.0 ] } },
{ "type": "Feature", "properties": { "tile": "bellinzona_full_nir_2024_c035_r089_nirchm.tif", "predicted_prob_at_review": 0.8749, "source": "active_learning" }, "geometry": { "type": "Point", "coordinates": [ 2718288.0, 1112188.0 ] } },
{ "type": "Feature", "properties": { "tile": "bellinzona_full_nir_2024_c021_r071_nirchm.tif", "predicted_prob_at_review": 0.8741, "source": "active_learning" }, "geometry": { "type": "Point", "coordinates": [ 2717034.0, 1113728.0 ] } },
{ "type": "Feature", "properties": { "tile": "bellinzona_full_nir_2024_c018_r058_nirchm.tif", "predicted_prob_at_review": 0.8731, "source": "active_learning" }, "geometry": { "type": "Point", "coordinates": [ 2716781.0, 1114927.0 ] } },
{ "type": "Feature", "properties": { "tile": "bellinzona_full_nir_2024_c053_r059_nirchm.tif", "predicted_prob_at_review": 0.8727, "source": "active_learning" }, "geometry": { "type": "Point", "coordinates": [ 2719949.0, 1114806.0 ] } },
{ "type": "Feature", "properties": { "tile": "bellinzona_full_nir_2024_c031_r089_nirchm.tif", "predicted_prob_at_review": 0.8724, "source": "active_learning" }, "geometry": { "type": "Point", "coordinates": [ 2717958.0, 1112155.0 ] } },
{ "type": "Feature", "properties": { "tile": "bellinzona_full_nir_2024_c034_r083_nirchm.tif", "predicted_prob_at_review": 0.8723, "source": "active_learning" }, "geometry": { "type": "Point", "coordinates": [ 2718222.0, 1112694.0 ] } },
{ "type": "Feature", "properties": { "tile": "bellinzona_full_nir_2024_c063_r038_nirchm.tif", "predicted_prob_at_review": 0.8719, "source": "active_learning" }, "geometry": { "type": "Point", "coordinates": [ 2720829.0, 1116720.0 ] } },
{ "type": "Feature", "properties": { "tile": "bellinzona_full_nir_2024_c035_r089_nirchm.tif", "predicted_prob_at_review": 0.8719, "source": "active_learning" }, "geometry": { "type": "Point", "coordinates": [ 2718277.0, 1112188.0 ] } },
{ "type": "Feature", "properties": { "tile": "bellinzona_full_nir_2024_c030_r081_nirchm.tif", "predicted_prob_at_review": 0.8716, "source": "active_learning" }, "geometry": { "type": "Point", "coordinates": [ 2717826.0, 1112870.0 ] } },
{ "type": "Feature", "properties": { "tile": "bellinzona_full_nir_2024_c005_r060_nirchm.tif", "predicted_prob_at_review": 0.8713, "source": "active_learning" }, "geometry": { "type": "Point", "coordinates": [ 2715604.0, 1114740.0 ] } },
{ "type": "Feature", "properties": { "tile": "bellinzona_full_nir_2024_c064_r059_nirchm.tif", "predicted_prob_at_review": 0.8711, "source": "active_learning" }, "geometry": { "type": "Point", "coordinates": [ 2720917.0, 1114806.0 ] } },
{ "type": "Feature", "properties": { "tile": "bellinzona_full_nir_2024_c012_r087_nirchm.tif", "predicted_prob_at_review": 0.8709, "source": "active_learning" }, "geometry": { "type": "Point", "coordinates": [ 2716253.0, 1112298.0 ] } },
{ "type": "Feature", "properties": { "tile": "bellinzona_full_nir_2024_c057_r041_nirchm.tif", "predicted_prob_at_review": 0.8707, "source": "active_learning" }, "geometry": { "type": "Point", "coordinates": [ 2720290.0, 1116489.0 ] } },
{ "type": "Feature", "properties": { "tile": "bellinzona_full_nir_2024_c058_r048_nirchm.tif", "predicted_prob_at_review": 0.8702, "source": "active_learning" }, "geometry": { "type": "Point", "coordinates": [ 2720378.0, 1115829.0 ] } },
{ "type": "Feature", "properties": { "tile": "bellinzona_full_nir_2024_c054_r053_nirchm.tif", "predicted_prob_at_review": 0.8698, "source": "active_learning" }, "geometry": { "type": "Point", "coordinates": [ 2719960.0, 1115400.0 ] } },
{ "type": "Feature", "properties": { "tile": "bellinzona_full_nir_2024_c058_r048_nirchm.tif", "predicted_prob_at_review": 0.8694, "source": "active_learning" }, "geometry": { "type": "Point", "coordinates": [ 2720389.0, 1115807.0 ] } },
{ "type": "Feature", "properties": { "tile": "bellinzona_full_nir_2024_c036_r081_nirchm.tif", "predicted_prob_at_review": 0.8694, "source": "active_learning" }, "geometry": { "type": "Point", "coordinates": [ 2718420.0, 1112892.0 ] } },
{ "type": "Feature", "properties": { "tile": "bellinzona_full_nir_2024_c054_r059_nirchm.tif", "predicted_prob_at_review": 0.8683, "source": "active_learning" }, "geometry": { "type": "Point", "coordinates": [ 2719960.0, 1114806.0 ] } },
{ "type": "Feature", "properties": { "tile": "bellinzona_full_nir_2024_c039_r077_nirchm.tif", "predicted_prob_at_review": 0.8683, "source": "active_learning" }, "geometry": { "type": "Point", "coordinates": [ 2718607.0, 1113200.0 ] } },
{ "type": "Feature", "properties": { "tile": "bellinzona_full_nir_2024_c029_r090_nirchm.tif", "predicted_prob_at_review": 0.8682, "source": "active_learning" }, "geometry": { "type": "Point", "coordinates": [ 2717760.0, 1112078.0 ] } },
{ "type": "Feature", "properties": { "tile": "bellinzona_full_nir_2024_c072_r052_nirchm.tif", "predicted_prob_at_review": 0.868, "source": "active_learning" }, "geometry": { "type": "Point", "coordinates": [ 2721588.0, 1115433.0 ] } },
{ "type": "Feature", "properties": { "tile": "bellinzona_full_nir_2024_c039_r089_nirchm.tif", "predicted_prob_at_review": 0.8678, "source": "active_learning" }, "geometry": { "type": "Point", "coordinates": [ 2718607.0, 1112144.0 ] } },
{ "type": "Feature", "properties": { "tile": "bellinzona_full_nir_2024_c064_r059_nirchm.tif", "predicted_prob_at_review": 0.8675, "source": "active_learning" }, "geometry": { "type": "Point", "coordinates": [ 2720928.0, 1114795.0 ] } },
{ "type": "Feature", "properties": { "tile": "bellinzona_full_nir_2024_c003_r058_nirchm.tif", "predicted_prob_at_review": 0.8674, "source": "active_learning" }, "geometry": { "type": "Point", "coordinates": [ 2715417.0, 1114894.0 ] } },
{ "type": "Feature", "properties": { "tile": "bellinzona_full_nir_2024_c035_r089_nirchm.tif", "predicted_prob_at_review": 0.8667, "source": "active_learning" }, "geometry": { "type": "Point", "coordinates": [ 2718299.0, 1112188.0 ] } },
{ "type": "Feature", "properties": { "tile": "bellinzona_full_nir_2024_c029_r081_nirchm.tif", "predicted_prob_at_review": 0.8661, "source": "active_learning" }, "geometry": { "type": "Point", "coordinates": [ 2717793.0, 1112870.0 ] } },
{ "type": "Feature", "properties": { "tile": "bellinzona_full_nir_2024_c015_r091_nirchm.tif", "predicted_prob_at_review": 0.8655, "source": "active_learning" }, "geometry": { "type": "Point", "coordinates": [ 2716517.0, 1112012.0 ] } },
{ "type": "Feature", "properties": { "tile": "bellinzona_full_nir_2024_c003_r058_nirchm.tif", "predicted_prob_at_review": 0.8654, "source": "active_learning" }, "geometry": { "type": "Point", "coordinates": [ 2715417.0, 1114883.0 ] } },
{ "type": "Feature", "properties": { "tile": "bellinzona_full_nir_2024_c044_r086_nirchm.tif", "predicted_prob_at_review": 0.8643, "source": "active_learning" }, "geometry": { "type": "Point", "coordinates": [ 2719124.0, 1112441.0 ] } },
{ "type": "Feature", "properties": { "tile": "bellinzona_full_nir_2024_c039_r089_nirchm.tif", "predicted_prob_at_review": 0.863, "source": "active_learning" }, "geometry": { "type": "Point", "coordinates": [ 2718618.0, 1112144.0 ] } },
{ "type": "Feature", "properties": { "tile": "bellinzona_full_nir_2024_c035_r088_nirchm.tif", "predicted_prob_at_review": 0.8623, "source": "active_learning" }, "geometry": { "type": "Point", "coordinates": [ 2718277.0, 1112199.0 ] } },
{ "type": "Feature", "properties": { "tile": "bellinzona_full_nir_2024_c072_r038_nirchm.tif", "predicted_prob_at_review": 0.8614, "source": "active_learning" }, "geometry": { "type": "Point", "coordinates": [ 2721599.0, 1116742.0 ] } },
{ "type": "Feature", "properties": { "tile": "bellinzona_full_nir_2024_c062_r065_nirchm.tif", "predicted_prob_at_review": 0.8608, "source": "active_learning" }, "geometry": { "type": "Point", "coordinates": [ 2720686.0, 1114267.0 ] } },
{ "type": "Feature", "properties": { "tile": "bellinzona_full_nir_2024_c041_r082_nirchm.tif", "predicted_prob_at_review": 0.8605, "source": "active_learning" }, "geometry": { "type": "Point", "coordinates": [ 2718816.0, 1112793.0 ] } },
{ "type": "Feature", "properties": { "tile": "bellinzona_full_nir_2024_c055_r074_nirchm.tif", "predicted_prob_at_review": 0.8604, "source": "active_learning" }, "geometry": { "type": "Point", "coordinates": [ 2720114.0, 1113475.0 ] } },
{ "type": "Feature", "properties": { "tile": "bellinzona_full_nir_2024_c035_r088_nirchm.tif", "predicted_prob_at_review": 0.8601, "source": "active_learning" }, "geometry": { "type": "Point", "coordinates": [ 2718266.0, 1112199.0 ] } },
{ "type": "Feature", "properties": { "tile": "bellinzona_full_nir_2024_c062_r042_nirchm.tif", "predicted_prob_at_review": 0.8596, "source": "active_learning" }, "geometry": { "type": "Point", "coordinates": [ 2720708.0, 1116401.0 ] } },
{ "type": "Feature", "properties": { "tile": "bellinzona_full_nir_2024_c016_r058_nirchm.tif", "predicted_prob_at_review": 0.8586, "source": "active_learning" }, "geometry": { "type": "Point", "coordinates": [ 2716605.0, 1114905.0 ] } },
{ "type": "Feature", "properties": { "tile": "bellinzona_full_nir_2024_c070_r052_nirchm.tif", "predicted_prob_at_review": 0.8582, "source": "active_learning" }, "geometry": { "type": "Point", "coordinates": [ 2721401.0, 1115433.0 ] } },
{ "type": "Feature", "properties": { "tile": "bellinzona_full_nir_2024_c018_r059_nirchm.tif", "predicted_prob_at_review": 0.8581, "source": "active_learning" }, "geometry": { "type": "Point", "coordinates": [ 2716770.0, 1114817.0 ] } },
{ "type": "Feature", "properties": { "tile": "bellinzona_full_nir_2024_c010_r090_nirchm.tif", "predicted_prob_at_review": 0.857, "source": "active_learning" }, "geometry": { "type": "Point", "coordinates": [ 2716088.0, 1112100.0 ] } }
]
}
