{
  "type": "FeatureCollection",
  "crs": {
    "type": "name",
    "properties": {
      "name": "urn:ogc:def:crs:EPSG::2056"
    }
  },
  "features": [
    {
      "type": "Feature",
      "properties": {
        "id": "gearth_batch1_negative_1",
        "x": 2718971.3,
        "y": 1112832.03,
        "lon": 8.978774350660936,
        "lat": 46.15646250181302,
        "note": "non palm tree",
        "source": "google_earth_visual_review_batch1"
      },
      "geometry": {
        "type": "Point",
        "coordinates": [
          2718971.3,
          1112832.03
        ]
      }
    },
    {
      "type": "Feature",
      "properties": {
        "id": "gearth_batch1_negative_2",
        "x": 2719002.73,
        "y": 1115643.05,
        "lon": 8.979895897212767,
        "lat": 46.18173889861886,
        "note": "",
        "source": "google_earth_visual_review_batch1"
      },
      "geometry": {
        "type": "Point",
        "coordinates": [
          2719002.73,
          1115643.05
        ]
      }
    },
    {
      "type": "Feature",
      "properties": {
        "id": "gearth_batch1_negative_3",
        "x": 2719138.9,
        "y": 1115759.65,
        "lon": 8.981688816556597,
        "lat": 46.18276344572472,
        "note": "non palm tree",
        "source": "google_earth_visual_review_batch1"
      },
      "geometry": {
        "type": "Point",
        "coordinates": [
          2719138.9,
          1115759.65
        ]
      }
    },
    {
      "type": "Feature",
      "properties": {
        "id": "gearth_batch1_negative_4",
        "x": 2719240.9,
        "y": 1115737.65,
        "lon": 8.983003950099205,
        "lat": 46.18254758074366,
        "note": "non palm tree",
        "source": "google_earth_visual_review_batch1"
      },
      "geometry": {
        "type": "Point",
        "coordinates": [
          2719240.9,
          1115737.65
        ]
      }
    },
    {
      "type": "Feature",
      "properties": {
        "id": "gearth_batch1_negative_5",
        "x": 2718378.38,
        "y": 1112787.84,
        "lon": 8.971089459891532,
        "lat": 46.15616954092293,
        "note": "non palm tree",
        "source": "google_earth_visual_review_batch1"
      },
      "geometry": {
        "type": "Point",
        "coordinates": [
          2718378.38,
          1112787.84
        ]
      }
    },
    {
      "type": "Feature",
      "properties": {
        "id": "gearth_batch1_negative_6",
        "x": 2718363.44,
        "y": 1112813.19,
        "lon": 8.970902524675905,
        "lat": 46.15640012417914,
        "note": "non-palm tree",
        "source": "google_earth_visual_review_batch1"
      },
      "geometry": {
        "type": "Point",
        "coordinates": [
          2718363.44,
          1112813.19
        ]
      }
    },
    {
      "type": "Feature",
      "properties": {
        "id": "gearth_batch1_negative_7",
        "x": 2719188.57,
        "y": 1113136.11,
        "lon": 8.981663600375294,
        "lat": 46.15915899549273,
        "note": "non-palm tree",
        "source": "google_earth_visual_review_batch1"
      },
      "geometry": {
        "type": "Point",
        "coordinates": [
          2719188.57,
          1113136.11
        ]
      }
    },
    {
      "type": "Feature",
      "properties": {
        "id": "gearth_batch1_negative_8",
        "x": 2719123.58,
        "y": 1113045.38,
        "lon": 8.980799370370713,
        "lat": 46.15835440811084,
        "note": "non palm tree",
        "source": "google_earth_visual_review_batch1"
      },
      "geometry": {
        "type": "Point",
        "coordinates": [
          2719123.58,
          1113045.38
        ]
      }
    },
    {
      "type": "Feature",
      "properties": {
        "id": "gearth_batch1_negative_9",
        "x": 2719254.25,
        "y": 1113047.35,
        "lon": 8.98249114431267,
        "lat": 46.15834902826699,
        "note": "non palm tree",
        "source": "google_earth_visual_review_batch1"
      },
      "geometry": {
        "type": "Point",
        "coordinates": [
          2719254.25,
          1113047.35
        ]
      }
    },
    {
      "type": "Feature",
      "properties": {
        "id": "gearth_batch1_negative_10",
        "x": 2719123.86,
        "y": 1112998.26,
        "lon": 8.98079110758222,
        "lat": 46.15793061041929,
        "note": "non palm tree",
        "source": "google_earth_visual_review_batch1"
      },
      "geometry": {
        "type": "Point",
        "coordinates": [
          2719123.86,
          1112998.26
        ]
      }
    },
    {
      "type": "Feature",
      "properties": {
        "id": "gearth_batch1_negative_11",
        "x": 2719185.26,
        "y": 1113217.55,
        "lon": 8.981641514598026,
        "lat": 46.1598919944627,
        "note": "non palm tree",
        "source": "google_earth_visual_review_batch1"
      },
      "geometry": {
        "type": "Point",
        "coordinates": [
          2719185.26,
          1113217.55
        ]
      }
    },
    {
      "type": "Feature",
      "properties": {
        "id": "gearth_batch1_negative_12",
        "x": 2718772.14,
        "y": 1112795.51,
        "lon": 8.976187448721475,
        "lat": 46.15616921444045,
        "note": "non palm tree",
        "source": "google_earth_visual_review_batch1"
      },
      "geometry": {
        "type": "Point",
        "coordinates": [
          2718772.14,
          1112795.51
        ]
      }
    },
    {
      "type": "Feature",
      "properties": {
        "id": "gearth_batch1_negative_13",
        "x": 2719261.58,
        "y": 1115721.13,
        "lon": 8.983267417352598,
        "lat": 46.18239534237229,
        "note": "non palm tree",
        "source": "google_earth_visual_review_batch1"
      },
      "geometry": {
        "type": "Point",
        "coordinates": [
          2719261.58,
          1115721.13
        ]
      }
    },
    {
      "type": "Feature",
      "properties": {
        "id": "gearth_batch1_negative_14",
        "x": 2719100.56,
        "y": 1115724.6,
        "lon": 8.981183357015015,
        "lat": 46.18245499607039,
        "note": "non palm tree",
        "source": "google_earth_visual_review_batch1"
      },
      "geometry": {
        "type": "Point",
        "coordinates": [
          2719100.56,
          1115724.6
        ]
      }
    },
    {
      "type": "Feature",
      "properties": {
        "id": "gearth_batch1_negative_15",
        "x": 2719220.25,
        "y": 1115782.89,
        "lon": 8.982748020896075,
        "lat": 46.18295811754258,
        "note": "non palm tree",
        "source": "google_earth_visual_review_batch1"
      },
      "geometry": {
        "type": "Point",
        "coordinates": [
          2719220.25,
          1115782.89
        ]
      }
    },
    {
      "type": "Feature",
      "properties": {
        "id": "gearth_batch1_negative_16",
        "x": 2719108.95,
        "y": 1115752.94,
        "lon": 8.981299238369168,
        "lat": 46.18270840133196,
        "note": "non palm tree",
        "source": "google_earth_visual_review_batch1"
      },
      "geometry": {
        "type": "Point",
        "coordinates": [
          2719108.95,
          1115752.94
        ]
      }
    },
    {
      "type": "Feature",
      "properties": {
        "id": "gearth_batch1_negative_17",
        "x": 2719112.28,
        "y": 1115756.49,
        "lon": 8.981343236378423,
        "lat": 46.18273979251261,
        "note": "non palm tree",
        "source": "google_earth_visual_review_batch1"
      },
      "geometry": {
        "type": "Point",
        "coordinates": [
          2719112.28,
          1115756.49
        ]
      }
    },
    {
      "type": "Feature",
      "properties": {
        "id": "gearth_batch1_negative_18",
        "x": 2719015.02,
        "y": 1115625.0,
        "lon": 8.980050496470461,
        "lat": 46.1815743605292,
        "note": "",
        "source": "google_earth_visual_review_batch1"
      },
      "geometry": {
        "type": "Point",
        "coordinates": [
          2719015.02,
          1115625.0
        ]
      }
    },
    {
      "type": "Feature",
      "properties": {
        "id": "gearth_batch1_negative_19",
        "x": 2718954.9,
        "y": 1115611.0,
        "lon": 8.979268513349965,
        "lat": 46.18145908240885,
        "note": "",
        "source": "google_earth_visual_review_batch1"
      },
      "geometry": {
        "type": "Point",
        "coordinates": [
          2718954.9,
          1115611.0
        ]
      }
    },
    {
      "type": "Feature",
      "properties": {
        "id": "gearth_batch1_negative_20",
        "x": 2718904.38,
        "y": 1115384.96,
        "lon": 8.978556892592204,
        "lat": 46.17943499125223,
        "note": "",
        "source": "google_earth_visual_review_batch1"
      },
      "geometry": {
        "type": "Point",
        "coordinates": [
          2718904.38,
          1115384.96
        ]
      }
    }
  ]
}