{
"type": "FeatureCollection",
"name": "lugano_example_confirmed_palms",
"crs": { "type": "name", "properties": { "name": "urn:ogc:def:crs:EPSG::2056" } },
"features": [
{ "type": "Feature", "properties": { "id": "palm_1", "x": 2718329.3473819224, "y": 1115252.1581521283, "source": "triangulated", "crossing_angle_deg": 80.0, "agreement_with_estimate_m": 2.4, "note": "", "ndvi_at_point": 0.37, "ndvi_near_3m": 0.31, "ndvi_background": 0.21, "ndvi_contrast": 0.1, "ndvi_signal": "weak", "ndvi_near_v2": 0.57, "ndvi_bg_v2": 0.42, "ndvi_contrast_v2": 0.15, "ndvi_signal_v2": "distinct", "bg_clean_pixels_v2": 88728 }, "geometry": { "type": "Point", "coordinates": [ 2718329.347381922416389, 1115252.158152128336951 ] } },
{ "type": "Feature", "properties": { "id": "palm_2", "x": 2718326.3788225031, "y": 1115244.3624724338, "source": "triangulated", "crossing_angle_deg": 111.2, "agreement_with_estimate_m": 3.4, "note": "", "ndvi_at_point": 0.59, "ndvi_near_3m": 0.24, "ndvi_background": 0.08, "ndvi_contrast": 0.16, "ndvi_signal": "distinct", "ndvi_near_v2": 0.3, "ndvi_bg_v2": 0.21, "ndvi_contrast_v2": 0.09, "ndvi_signal_v2": "weak", "bg_clean_pixels_v2": 87798 }, "geometry": { "type": "Point", "coordinates": [ 2718326.378822503145784, 1115244.36247243382968 ] } },
{ "type": "Feature", "properties": { "id": "palm_3a", "x": 2718319.7660336685, "y": 1115241.2682686683, "source": "triangulated", "crossing_angle_deg": 99.8, "agreement_with_estimate_m": 3.1, "note": "", "ndvi_at_point": 0.58, "ndvi_near_3m": 0.26, "ndvi_background": 0.07, "ndvi_contrast": 0.19, "ndvi_signal": "distinct", "ndvi_near_v2": 0.38, "ndvi_bg_v2": 0.17, "ndvi_contrast_v2": 0.21, "ndvi_signal_v2": "distinct", "bg_clean_pixels_v2": 87035 }, "geometry": { "type": "Point", "coordinates": [ 2718319.766033668536693, 1115241.268268668325618 ] } },
{ "type": "Feature", "properties": { "id": "palm_3b", "x": 2718310.7320651994, "y": 1115238.6251975563, "source": "triangulated", "crossing_angle_deg": 86.3, "agreement_with_estimate_m": 3.5, "note": "", "ndvi_at_point": 0.48, "ndvi_near_3m": 0.29, "ndvi_background": 0.13, "ndvi_contrast": 0.16, "ndvi_signal": "distinct", "ndvi_near_v2": 0.47, "ndvi_bg_v2": 0.19, "ndvi_contrast_v2": 0.28, "ndvi_signal_v2": "distinct", "bg_clean_pixels_v2": 88327 }, "geometry": { "type": "Point", "coordinates": [ 2718310.73206519940868, 1115238.625197556335479 ] } },
{ "type": "Feature", "properties": { "id": "palm_4", "x": 2718280.4349184623, "y": 1115219.3439006226, "source": "triangulated", "crossing_angle_deg": 96.8, "agreement_with_estimate_m": 2.0, "note": "", "ndvi_at_point": 0.26, "ndvi_near_3m": 0.15, "ndvi_background": 0.14, "ndvi_contrast": 0.01, "ndvi_signal": "none", "ndvi_near_v2": 0.22, "ndvi_bg_v2": 0.19, "ndvi_contrast_v2": 0.03, "ndvi_signal_v2": "none", "bg_clean_pixels_v2": 90461 }, "geometry": { "type": "Point", "coordinates": [ 2718280.43491846229881, 1115219.343900622567162 ] } },
{ "type": "Feature", "properties": { "id": "palm_5", "x": 2718278.8300972437, "y": 1115217.41858019, "source": "triangulated", "crossing_angle_deg": 145.6, "agreement_with_estimate_m": 1.9, "note": "", "ndvi_at_point": 0.73, "ndvi_near_3m": 0.35, "ndvi_background": 0.11, "ndvi_contrast": 0.24, "ndvi_signal": "distinct", "ndvi_near_v2": 0.44, "ndvi_bg_v2": 0.15, "ndvi_contrast_v2": 0.29, "ndvi_signal_v2": "distinct", "bg_clean_pixels_v2": 90459 }, "geometry": { "type": "Point", "coordinates": [ 2718278.830097243655473, 1115217.418580190045759 ] } },
{ "type": "Feature", "properties": { "id": "palm_6", "x": 2718267.7353233336, "y": 1115223.6585325126, "source": "triangulated", "crossing_angle_deg": 124.9, "agreement_with_estimate_m": 3.5, "note": "2 trees here", "ndvi_at_point": 0.21, "ndvi_near_3m": 0.27, "ndvi_background": 0.33, "ndvi_contrast": -0.05, "ndvi_signal": "none", "ndvi_near_v2": 0.28, "ndvi_bg_v2": 0.6, "ndvi_contrast_v2": -0.32, "ndvi_signal_v2": "none", "bg_clean_pixels_v2": 83350 }, "geometry": { "type": "Point", "coordinates": [ 2718267.735323333647102, 1115223.658532512607053 ] } },
{ "type": "Feature", "properties": { "id": "palm_7", "x": 2718207.2213613153, "y": 1115172.8832230403, "source": "triangulated", "crossing_angle_deg": 102.3, "agreement_with_estimate_m": 3.7, "note": "B barely visible - lower confidence", "ndvi_at_point": 0.21, "ndvi_near_3m": 0.15, "ndvi_background": 0.12, "ndvi_contrast": 0.03, "ndvi_signal": "none", "ndvi_near_v2": 0.33, "ndvi_bg_v2": 0.27, "ndvi_contrast_v2": 0.06, "ndvi_signal_v2": "weak", "bg_clean_pixels_v2": 93284 }, "geometry": { "type": "Point", "coordinates": [ 2718207.221361315343529, 1115172.883223040262237 ] } },
{ "type": "Feature", "properties": { "id": "palm_8", "x": 2718180.3551378385, "y": 1115155.2757962004, "source": "triangulated", "crossing_angle_deg": 112.3, "agreement_with_estimate_m": 1.9, "note": "", "ndvi_at_point": -0.05, "ndvi_near_3m": 0.04, "ndvi_background": 0.04, "ndvi_contrast": -0.0, "ndvi_signal": "none", "ndvi_near_v2": 0.24, "ndvi_bg_v2": 0.14, "ndvi_contrast_v2": 0.1, "ndvi_signal_v2": "weak", "bg_clean_pixels_v2": 92250 }, "geometry": { "type": "Point", "coordinates": [ 2718180.355137838516384, 1115155.275796200381592 ] } },
{ "type": "Feature", "properties": { "id": "palm_9", "x": 2718160.9256767766, "y": 1115153.1260080051, "source": "triangulated", "crossing_angle_deg": 38.9, "agreement_with_estimate_m": 3.0, "note": "weakest crossing angle - lower confidence", "ndvi_at_point": -0.14, "ndvi_near_3m": 0.07, "ndvi_background": 0.13, "ndvi_contrast": -0.05, "ndvi_signal": "none", "ndvi_near_v2": 0.16, "ndvi_bg_v2": 0.18, "ndvi_contrast_v2": -0.02, "ndvi_signal_v2": "none", "bg_clean_pixels_v2": 92250 }, "geometry": { "type": "Point", "coordinates": [ 2718160.925676776561886, 1115153.126008005114272 ] } },
{ "type": "Feature", "properties": { "id": "palm_X", "x": 2718258.7541619949, "y": 1115233.4085911331, "source": "estimate_only", "crossing_angle_deg": null, "agreement_with_estimate_m": null, "note": "estimate only, too far off-road to triangulate", "ndvi_at_point": 0.71, "ndvi_near_3m": 0.4, "ndvi_background": 0.39, "ndvi_contrast": 0.01, "ndvi_signal": "none", "ndvi_near_v2": 0.6, "ndvi_bg_v2": 0.63, "ndvi_contrast_v2": -0.02, "ndvi_signal_v2": "none", "bg_clean_pixels_v2": 88901 }, "geometry": { "type": "Point", "coordinates": [ 2718258.75416199490428, 1115233.408591133076698 ] } },
{ "type": "Feature", "properties": { "id": "palm_Y", "x": 2718265.131863954, "y": 1115238.3341731681, "source": "estimate_only", "crossing_angle_deg": null, "agreement_with_estimate_m": null, "note": "estimate only, too far off-road to triangulate", "ndvi_at_point": 0.58, "ndvi_near_3m": 0.54, "ndvi_background": 0.35, "ndvi_contrast": 0.2, "ndvi_signal": "distinct", "ndvi_near_v2": 0.66, "ndvi_bg_v2": 0.62, "ndvi_contrast_v2": 0.03, "ndvi_signal_v2": "none", "bg_clean_pixels_v2": 88902 }, "geometry": { "type": "Point", "coordinates": [ 2718265.131863954011351, 1115238.334173168055713 ] } }
]
}
