{
"type": "FeatureCollection",
"name": "lugano_batch3_satellite_confirmed_palms",
"crs": { "type": "name", "properties": { "name": "urn:ogc:def:crs:EPSG::2056" } },
"features": [
{ "type": "Feature", "properties": { "id": "batch3_q1", "x": 2719928.660086805, "y": 1115755.0151361106, "lat": 46.182581607847034, "lon": 8.9919136240405955, "rs_dates_available": "20210811,20220715,20240810,20240821", "source": "satellite_landmark_match", "ndvi_at_point": 0.38, "ndvi_near_3m": 0.19, "ndvi_background": 0.17, "ndvi_contrast": 0.02, "ndvi_signal": "none", "note": "adjacent block to batch2 suburban cluster, ~70-135m away; several points <15m apart" }, "geometry": { "type": "Point", "coordinates": [ 2719928.660086805000901, 1115755.015136110596359 ] } },
{ "type": "Feature", "properties": { "id": "batch3_q2", "x": 2719922.6347066164, "y": 1115748.0819263649, "lat": 46.182520324797501, "lon": 8.991833828326163, "rs_dates_available": "20210811,20220715,20240810,20240821", "source": "satellite_landmark_match", "ndvi_at_point": 0.35, "ndvi_near_3m": 0.28, "ndvi_background": 0.21, "ndvi_contrast": 0.07, "ndvi_signal": "weak", "note": "adjacent block to batch2 suburban cluster, ~70-135m away; several points <15m apart" }, "geometry": { "type": "Point", "coordinates": [ 2719922.634706616401672, 1115748.081926364917308 ] } },
{ "type": "Feature", "properties": { "id": "batch3_q3", "x": 2719899.5428927522, "y": 1115737.3522375638, "lat": 46.182427935828478, "lon": 8.991532079817194, "rs_dates_available": "20210811,20220715,20240810,20240821", "source": "satellite_landmark_match", "ndvi_at_point": 0.31, "ndvi_near_3m": 0.31, "ndvi_background": 0.23, "ndvi_contrast": 0.08, "ndvi_signal": "weak", "note": "adjacent block to batch2 suburban cluster, ~70-135m away; several points <15m apart" }, "geometry": { "type": "Point", "coordinates": [ 2719899.542892752215266, 1115737.352237563813105 ] } },
{ "type": "Feature", "properties": { "id": "batch3_q4", "x": 2719892.9030769477, "y": 1115732.6781795037, "lat": 46.182387080354474, "lon": 8.9914449080240821, "rs_dates_available": "20210811,20220715,20240810,20240821", "source": "satellite_landmark_match", "ndvi_at_point": 0.39, "ndvi_near_3m": 0.3, "ndvi_background": 0.29, "ndvi_contrast": 0.0, "ndvi_signal": "none", "note": "adjacent block to batch2 suburban cluster, ~70-135m away; several points <15m apart" }, "geometry": { "type": "Point", "coordinates": [ 2719892.903076947666705, 1115732.678179503651336 ] } },
{ "type": "Feature", "properties": { "id": "batch3_q5", "x": 2719890.4468613029, "y": 1115731.1841791051, "lat": 46.18237408087942, "lon": 8.9914127215174204, "rs_dates_available": "20210811,20220715,20240810,20240821", "source": "satellite_landmark_match", "ndvi_at_point": 0.44, "ndvi_near_3m": 0.34, "ndvi_background": 0.3, "ndvi_contrast": 0.03, "ndvi_signal": "weak", "note": "adjacent block to batch2 suburban cluster, ~70-135m away; several points <15m apart" }, "geometry": { "type": "Point", "coordinates": [ 2719890.446861302945763, 1115731.184179105097428 ] } },
{ "type": "Feature", "properties": { "id": "batch3_q6", "x": 2719888.1956697344, "y": 1115729.7974791972, "lat": 46.182362009935574, "lon": 8.9913832172196457, "rs_dates_available": "20210811,20220715,20240810,20240821", "source": "satellite_landmark_match", "ndvi_at_point": 0.55, "ndvi_near_3m": 0.3, "ndvi_background": 0.3, "ndvi_contrast": -0.0, "ndvi_signal": "none", "note": "adjacent block to batch2 suburban cluster, ~70-135m away; several points <15m apart" }, "geometry": { "type": "Point", "coordinates": [ 2719888.195669734384865, 1115729.797479197150096 ] } },
{ "type": "Feature", "properties": { "id": "batch3_q7", "x": 2719875.3165306817, "y": 1115723.7610300812, "lat": 46.182310011992833, "lon": 8.9912149086049418, "rs_dates_available": "20210811,20220715,20240810,20240821", "source": "satellite_landmark_match", "ndvi_at_point": 0.31, "ndvi_near_3m": 0.33, "ndvi_background": 0.25, "ndvi_contrast": 0.08, "ndvi_signal": "weak", "note": "adjacent block to batch2 suburban cluster, ~70-135m away; several points <15m apart" }, "geometry": { "type": "Point", "coordinates": [ 2719875.316530681680888, 1115723.761030081193894 ] } },
{ "type": "Feature", "properties": { "id": "batch3_q8", "x": 2719868.2040721537, "y": 1115732.4989918545, "lat": 46.182389865955408, "lon": 8.9911250546071759, "rs_dates_available": "20210811,20220715,20240810,20240821", "source": "satellite_landmark_match", "ndvi_at_point": 0.46, "ndvi_near_3m": 0.19, "ndvi_background": 0.18, "ndvi_contrast": 0.01, "ndvi_signal": "none", "note": "adjacent block to batch2 suburban cluster, ~70-135m away; several points <15m apart" }, "geometry": { "type": "Point", "coordinates": [ 2719868.2040721536614, 1115732.49899185448885 ] } },
{ "type": "Feature", "properties": { "id": "batch3_q9", "x": 2719869.0040070703, "y": 1115723.4812222549, "lat": 46.182308619190174, "lon": 8.9911331012338387, "rs_dates_available": "20210811,20220715,20240810,20240821", "source": "satellite_landmark_match", "ndvi_at_point": 0.44, "ndvi_near_3m": 0.5, "ndvi_background": 0.2, "ndvi_contrast": 0.3, "ndvi_signal": "distinct", "note": "adjacent block to batch2 suburban cluster, ~70-135m away; several points <15m apart" }, "geometry": { "type": "Point", "coordinates": [ 2719869.004007070325315, 1115723.481222254922614 ] } },
{ "type": "Feature", "properties": { "id": "batch3_q10", "x": 2719866.6060600295, "y": 1115726.8923414024, "lat": 46.182339725108804, "lon": 8.991102926383844, "rs_dates_available": "20210811,20220715,20240810,20240821", "source": "satellite_landmark_match", "ndvi_at_point": 0.56, "ndvi_near_3m": 0.36, "ndvi_background": 0.19, "ndvi_contrast": 0.17, "ndvi_signal": "distinct", "note": "adjacent block to batch2 suburban cluster, ~70-135m away; several points <15m apart" }, "geometry": { "type": "Point", "coordinates": [ 2719866.606060029473156, 1115726.892341402359307 ] } }
]
}
