{
  "type": "FeatureCollection",
  "name": "lugano_MASTER_confirmed_palms",
  "crs": {
    "type": "name",
    "properties": {
      "name": "urn:ogc:def:crs:EPSG::2056"
    }
  },
  "features": [
    {
      "type": "Feature",
      "properties": {
        "id": "batch2_p1",
        "batch_file": "lugano_batch2_satellite_confirmed_palms.geojson",
        "source": "satellite_landmark_match",
        "ndvi_near_v2": 0.36,
        "ndvi_bg_v2": 0.51,
        "ndvi_contrast_current": -0.15,
        "ndvi_signal_current": "none",
        "note": "confident, area near candidate A/B",
        "imagery_vintage_note": "Street View source imagery ~2013 vs RS/satellite ~2021-2024; no direct evidence of removal seen, kept in set",
        "crossing_angle_deg": null,
        "agreement_with_estimate_m": null,
        "ndvi_at_point": 0.62,
        "ndvi_near_3m": 0.36,
        "ndvi_background": 0.44,
        "ndvi_contrast_v1_deprecated": -0.08,
        "ndvi_signal_v1_deprecated": "none"
      },
      "geometry": {
        "type": "Point",
        "coordinates": [
          2715727.6838535913,
          1114591.1012151907
        ]
      }
    },
    {
      "type": "Feature",
      "properties": {
        "id": "batch2_p2",
        "batch_file": "lugano_batch2_satellite_confirmed_palms.geojson",
        "source": "satellite_landmark_match",
        "ndvi_near_v2": 0.53,
        "ndvi_bg_v2": 0.59,
        "ndvi_contrast_current": -0.06,
        "ndvi_signal_current": "none",
        "note": "juvenile, blends into grass - lower visual confidence",
        "imagery_vintage_note": "Street View source imagery ~2013 vs RS/satellite ~2021-2024; no direct evidence of removal seen, kept in set",
        "crossing_angle_deg": null,
        "agreement_with_estimate_m": null,
        "ndvi_at_point": 0.71,
        "ndvi_near_3m": 0.53,
        "ndvi_background": 0.57,
        "ndvi_contrast_v1_deprecated": -0.04,
        "ndvi_signal_v1_deprecated": "none"
      },
      "geometry": {
        "type": "Point",
        "coordinates": [
          2715707.95272856,
          1114506.8440873479
        ]
      }
    },
    {
      "type": "Feature",
      "properties": {
        "id": "batch2_p3",
        "batch_file": "lugano_batch2_satellite_confirmed_palms.geojson",
        "source": "satellite_landmark_match",
        "ndvi_near_v2": 0.43,
        "ndvi_bg_v2": 0.16,
        "ndvi_contrast_current": 0.27,
        "ndvi_signal_current": "distinct",
        "note": "multiple palms adjacent",
        "imagery_vintage_note": "Street View source imagery ~2013 vs RS/satellite ~2021-2024; no direct evidence of removal seen, kept in set",
        "crossing_angle_deg": null,
        "agreement_with_estimate_m": null,
        "ndvi_at_point": 0.58,
        "ndvi_near_3m": 0.43,
        "ndvi_background": 0.22,
        "ndvi_contrast_v1_deprecated": 0.21,
        "ndvi_signal_v1_deprecated": "distinct"
      },
      "geometry": {
        "type": "Point",
        "coordinates": [
          2719674.3763696617,
          1115601.5784221753
        ]
      }
    },
    {
      "type": "Feature",
      "properties": {
        "id": "batch2_p4",
        "batch_file": "lugano_batch2_satellite_confirmed_palms.geojson",
        "source": "satellite_landmark_match",
        "ndvi_near_v2": 0.52,
        "ndvi_bg_v2": 0.05,
        "ndvi_contrast_current": 0.47,
        "ndvi_signal_current": "distinct",
        "note": "multiple palms adjacent",
        "imagery_vintage_note": "Street View source imagery ~2013 vs RS/satellite ~2021-2024; no direct evidence of removal seen, kept in set",
        "crossing_angle_deg": null,
        "agreement_with_estimate_m": null,
        "ndvi_at_point": 0.67,
        "ndvi_near_3m": 0.52,
        "ndvi_background": 0.21,
        "ndvi_contrast_v1_deprecated": 0.31,
        "ndvi_signal_v1_deprecated": "distinct"
      },
      "geometry": {
        "type": "Point",
        "coordinates": [
          2719673.299756811,
          1115624.2957424093
        ]
      }
    },
    {
      "type": "Feature",
      "properties": {
        "id": "batch2_p5",
        "batch_file": "lugano_batch2_satellite_confirmed_palms.geojson",
        "source": "satellite_landmark_match",
        "ndvi_near_v2": 0.28,
        "ndvi_bg_v2": 0.07,
        "ndvi_contrast_current": 0.22,
        "ndvi_signal_current": "distinct",
        "note": "row of 3+",
        "imagery_vintage_note": "",
        "crossing_angle_deg": null,
        "agreement_with_estimate_m": null,
        "ndvi_at_point": 0.67,
        "ndvi_near_3m": 0.28,
        "ndvi_background": 0.24,
        "ndvi_contrast_v1_deprecated": 0.05,
        "ndvi_signal_v1_deprecated": "weak"
      },
      "geometry": {
        "type": "Point",
        "coordinates": [
          2719799.3676796574,
          1115691.2282428055
        ]
      }
    },
    {
      "type": "Feature",
      "properties": {
        "id": "batch2_p6",
        "batch_file": "lugano_batch2_satellite_confirmed_palms.geojson",
        "source": "satellite_landmark_match",
        "ndvi_near_v2": 0.17,
        "ndvi_bg_v2": 0.21,
        "ndvi_contrast_current": -0.03,
        "ndvi_signal_current": "none",
        "note": "row of 3+",
        "imagery_vintage_note": "",
        "crossing_angle_deg": null,
        "agreement_with_estimate_m": null,
        "ndvi_at_point": 0.65,
        "ndvi_near_3m": 0.17,
        "ndvi_background": 0.26,
        "ndvi_contrast_v1_deprecated": -0.09,
        "ndvi_signal_v1_deprecated": "none"
      },
      "geometry": {
        "type": "Point",
        "coordinates": [
          2719799.8717942904,
          1115694.5419498717
        ]
      }
    },
    {
      "type": "Feature",
      "properties": {
        "id": "batch2_p7",
        "batch_file": "lugano_batch2_satellite_confirmed_palms.geojson",
        "source": "satellite_landmark_match",
        "ndvi_near_v2": 0.09,
        "ndvi_bg_v2": 0.26,
        "ndvi_contrast_current": -0.17,
        "ndvi_signal_current": "none",
        "note": "row of 3+",
        "imagery_vintage_note": "",
        "crossing_angle_deg": null,
        "agreement_with_estimate_m": null,
        "ndvi_at_point": 0.22,
        "ndvi_near_3m": 0.09,
        "ndvi_background": 0.26,
        "ndvi_contrast_v1_deprecated": -0.16,
        "ndvi_signal_v1_deprecated": "none"
      },
      "geometry": {
        "type": "Point",
        "coordinates": [
          2719800.0908226003,
          1115696.559495213
        ]
      }
    },
    {
      "type": "Feature",
      "properties": {
        "id": "batch2_p8",
        "batch_file": "lugano_batch2_satellite_confirmed_palms.geojson",
        "source": "satellite_landmark_match",
        "ndvi_near_v2": 0.25,
        "ndvi_bg_v2": 0.08,
        "ndvi_contrast_current": 0.16,
        "ndvi_signal_current": "distinct",
        "note": "row of 3+",
        "imagery_vintage_note": "",
        "crossing_angle_deg": null,
        "agreement_with_estimate_m": null,
        "ndvi_at_point": 0.48,
        "ndvi_near_3m": 0.25,
        "ndvi_background": 0.17,
        "ndvi_contrast_v1_deprecated": 0.08,
        "ndvi_signal_v1_deprecated": "weak"
      },
      "geometry": {
        "type": "Point",
        "coordinates": [
          2719792.339723743,
          1115698.3161432906
        ]
      }
    },
    {
      "type": "Feature",
      "properties": {
        "id": "batch2_p9",
        "batch_file": "lugano_batch2_satellite_confirmed_palms.geojson",
        "source": "satellite_landmark_match",
        "ndvi_near_v2": 0.34,
        "ndvi_bg_v2": 0.04,
        "ndvi_contrast_current": 0.3,
        "ndvi_signal_current": "distinct",
        "note": "confident",
        "imagery_vintage_note": "Street View source imagery ~2013 vs RS/satellite ~2021-2024; no direct evidence of removal seen, kept in set",
        "crossing_angle_deg": null,
        "agreement_with_estimate_m": null,
        "ndvi_at_point": 0.62,
        "ndvi_near_3m": 0.34,
        "ndvi_background": 0.14,
        "ndvi_contrast_v1_deprecated": 0.2,
        "ndvi_signal_v1_deprecated": "distinct"
      },
      "geometry": {
        "type": "Point",
        "coordinates": [
          2719805.063552245,
          1115678.177579442
        ]
      }
    },
    {
      "type": "Feature",
      "properties": {
        "id": "batch2_p10",
        "batch_file": "lugano_batch2_satellite_confirmed_palms.geojson",
        "source": "satellite_landmark_match",
        "ndvi_near_v2": 0.31,
        "ndvi_bg_v2": 0.08,
        "ndvi_contrast_current": 0.22,
        "ndvi_signal_current": "distinct",
        "note": "SV shows cluster of 4, satellite shows 1 - possible date mismatch",
        "imagery_vintage_note": "Street View source imagery ~2013 vs RS/satellite ~2021-2024; no direct evidence of removal seen, kept in set",
        "crossing_angle_deg": null,
        "agreement_with_estimate_m": null,
        "ndvi_at_point": 0.47,
        "ndvi_near_3m": 0.31,
        "ndvi_background": 0.24,
        "ndvi_contrast_v1_deprecated": 0.06,
        "ndvi_signal_v1_deprecated": "weak"
      },
      "geometry": {
        "type": "Point",
        "coordinates": [
          2719815.4947697986,
          1115682.307133772
        ]
      }
    },
    {
      "type": "Feature",
      "properties": {
        "id": "batch2_p11",
        "batch_file": "lugano_batch2_satellite_confirmed_palms.geojson",
        "source": "satellite_landmark_match",
        "ndvi_near_v2": 0.42,
        "ndvi_bg_v2": 0.33,
        "ndvi_contrast_current": 0.09,
        "ndvi_signal_current": "weak",
        "note": "two palms adjacent, pairs with p12",
        "imagery_vintage_note": "",
        "crossing_angle_deg": null,
        "agreement_with_estimate_m": null,
        "ndvi_at_point": 0.48,
        "ndvi_near_3m": 0.42,
        "ndvi_background": 0.34,
        "ndvi_contrast_v1_deprecated": 0.08,
        "ndvi_signal_v1_deprecated": "weak"
      },
      "geometry": {
        "type": "Point",
        "coordinates": [
          2719822.6730015534,
          1115693.816827907
        ]
      }
    },
    {
      "type": "Feature",
      "properties": {
        "id": "batch2_p12",
        "batch_file": "lugano_batch2_satellite_confirmed_palms.geojson",
        "source": "satellite_landmark_match",
        "ndvi_near_v2": 0.54,
        "ndvi_bg_v2": 0.21,
        "ndvi_contrast_current": 0.33,
        "ndvi_signal_current": "distinct",
        "note": "two palms adjacent, pairs with p11",
        "imagery_vintage_note": "",
        "crossing_angle_deg": null,
        "agreement_with_estimate_m": null,
        "ndvi_at_point": 0.39,
        "ndvi_near_3m": 0.54,
        "ndvi_background": 0.31,
        "ndvi_contrast_v1_deprecated": 0.23,
        "ndvi_signal_v1_deprecated": "distinct"
      },
      "geometry": {
        "type": "Point",
        "coordinates": [
          2719820.8642064314,
          1115693.6261784502
        ]
      }
    },
    {
      "type": "Feature",
      "properties": {
        "id": "batch2_p13",
        "batch_file": "lugano_batch2_satellite_confirmed_palms.geojson",
        "source": "satellite_landmark_match",
        "ndvi_near_v2": 0.34,
        "ndvi_bg_v2": 0.07,
        "ndvi_contrast_current": 0.27,
        "ndvi_signal_current": "distinct",
        "note": "confident",
        "imagery_vintage_note": "",
        "crossing_angle_deg": null,
        "agreement_with_estimate_m": null,
        "ndvi_at_point": 0.63,
        "ndvi_near_3m": 0.34,
        "ndvi_background": 0.17,
        "ndvi_contrast_v1_deprecated": 0.17,
        "ndvi_signal_v1_deprecated": "distinct"
      },
      "geometry": {
        "type": "Point",
        "coordinates": [
          2719843.0905700624,
          1115698.9995801565
        ]
      }
    },
    {
      "type": "Feature",
      "properties": {
        "id": "batch2_p14",
        "batch_file": "lugano_batch2_satellite_confirmed_palms.geojson",
        "source": "satellite_landmark_match",
        "ndvi_near_v2": 0.43,
        "ndvi_bg_v2": 0.07,
        "ndvi_contrast_current": 0.36,
        "ndvi_signal_current": "distinct",
        "note": "cluster of 3 palms",
        "imagery_vintage_note": "Street View source imagery ~2013 vs RS/satellite ~2021-2024; no direct evidence of removal seen, kept in set",
        "crossing_angle_deg": null,
        "agreement_with_estimate_m": null,
        "ndvi_at_point": 0.59,
        "ndvi_near_3m": 0.43,
        "ndvi_background": 0.15,
        "ndvi_contrast_v1_deprecated": 0.28,
        "ndvi_signal_v1_deprecated": "distinct"
      },
      "geometry": {
        "type": "Point",
        "coordinates": [
          2719856.6889792145,
          1115686.216689844
        ]
      }
    },
    {
      "type": "Feature",
      "properties": {
        "id": "batch3_q1",
        "batch_file": "lugano_batch3_satellite_confirmed_palms.geojson",
        "source": "satellite_landmark_match",
        "ndvi_near_v2": 0.19,
        "ndvi_bg_v2": -0.02,
        "ndvi_contrast_current": 0.21,
        "ndvi_signal_current": "distinct",
        "note": "adjacent block to batch2 suburban cluster, ~70-135m away; several points <15m apart",
        "imagery_vintage_note": null,
        "crossing_angle_deg": null,
        "agreement_with_estimate_m": null,
        "ndvi_at_point": 0.38,
        "ndvi_near_3m": 0.19,
        "ndvi_background": 0.17,
        "ndvi_contrast_v1_deprecated": 0.02,
        "ndvi_signal_v1_deprecated": "none"
      },
      "geometry": {
        "type": "Point",
        "coordinates": [
          2719928.660086805,
          1115755.0151361106
        ]
      }
    },
    {
      "type": "Feature",
      "properties": {
        "id": "batch3_q2",
        "batch_file": "lugano_batch3_satellite_confirmed_palms.geojson",
        "source": "satellite_landmark_match",
        "ndvi_near_v2": 0.28,
        "ndvi_bg_v2": -0.0,
        "ndvi_contrast_current": 0.28,
        "ndvi_signal_current": "distinct",
        "note": "adjacent block to batch2 suburban cluster, ~70-135m away; several points <15m apart",
        "imagery_vintage_note": null,
        "crossing_angle_deg": null,
        "agreement_with_estimate_m": null,
        "ndvi_at_point": 0.35,
        "ndvi_near_3m": 0.28,
        "ndvi_background": 0.21,
        "ndvi_contrast_v1_deprecated": 0.07,
        "ndvi_signal_v1_deprecated": "weak"
      },
      "geometry": {
        "type": "Point",
        "coordinates": [
          2719922.6347066164,
          1115748.081926365
        ]
      }
    },
    {
      "type": "Feature",
      "properties": {
        "id": "batch3_q3",
        "batch_file": "lugano_batch3_satellite_confirmed_palms.geojson",
        "source": "satellite_landmark_match",
        "ndvi_near_v2": 0.31,
        "ndvi_bg_v2": 0.15,
        "ndvi_contrast_current": 0.15,
        "ndvi_signal_current": "distinct",
        "note": "adjacent block to batch2 suburban cluster, ~70-135m away; several points <15m apart",
        "imagery_vintage_note": null,
        "crossing_angle_deg": null,
        "agreement_with_estimate_m": null,
        "ndvi_at_point": 0.31,
        "ndvi_near_3m": 0.31,
        "ndvi_background": 0.23,
        "ndvi_contrast_v1_deprecated": 0.08,
        "ndvi_signal_v1_deprecated": "weak"
      },
      "geometry": {
        "type": "Point",
        "coordinates": [
          2719899.542892752,
          1115737.3522375638
        ]
      }
    },
    {
      "type": "Feature",
      "properties": {
        "id": "batch3_q4",
        "batch_file": "lugano_batch3_satellite_confirmed_palms.geojson",
        "source": "satellite_landmark_match",
        "ndvi_near_v2": 0.3,
        "ndvi_bg_v2": 0.34,
        "ndvi_contrast_current": -0.05,
        "ndvi_signal_current": "none",
        "note": "adjacent block to batch2 suburban cluster, ~70-135m away; several points <15m apart",
        "imagery_vintage_note": null,
        "crossing_angle_deg": null,
        "agreement_with_estimate_m": null,
        "ndvi_at_point": 0.39,
        "ndvi_near_3m": 0.3,
        "ndvi_background": 0.29,
        "ndvi_contrast_v1_deprecated": 0.0,
        "ndvi_signal_v1_deprecated": "none"
      },
      "geometry": {
        "type": "Point",
        "coordinates": [
          2719892.9030769477,
          1115732.6781795037
        ]
      }
    },
    {
      "type": "Feature",
      "properties": {
        "id": "batch3_q5",
        "batch_file": "lugano_batch3_satellite_confirmed_palms.geojson",
        "source": "satellite_landmark_match",
        "ndvi_near_v2": 0.34,
        "ndvi_bg_v2": 0.36,
        "ndvi_contrast_current": -0.02,
        "ndvi_signal_current": "none",
        "note": "adjacent block to batch2 suburban cluster, ~70-135m away; several points <15m apart",
        "imagery_vintage_note": null,
        "crossing_angle_deg": null,
        "agreement_with_estimate_m": null,
        "ndvi_at_point": 0.44,
        "ndvi_near_3m": 0.34,
        "ndvi_background": 0.3,
        "ndvi_contrast_v1_deprecated": 0.03,
        "ndvi_signal_v1_deprecated": "weak"
      },
      "geometry": {
        "type": "Point",
        "coordinates": [
          2719890.446861303,
          1115731.184179105
        ]
      }
    },
    {
      "type": "Feature",
      "properties": {
        "id": "batch3_q6",
        "batch_file": "lugano_batch3_satellite_confirmed_palms.geojson",
        "source": "satellite_landmark_match",
        "ndvi_near_v2": 0.3,
        "ndvi_bg_v2": 0.36,
        "ndvi_contrast_current": -0.06,
        "ndvi_signal_current": "none",
        "note": "adjacent block to batch2 suburban cluster, ~70-135m away; several points <15m apart",
        "imagery_vintage_note": null,
        "crossing_angle_deg": null,
        "agreement_with_estimate_m": null,
        "ndvi_at_point": 0.55,
        "ndvi_near_3m": 0.3,
        "ndvi_background": 0.3,
        "ndvi_contrast_v1_deprecated": -0.0,
        "ndvi_signal_v1_deprecated": "none"
      },
      "geometry": {
        "type": "Point",
        "coordinates": [
          2719888.1956697344,
          1115729.7974791972
        ]
      }
    },
    {
      "type": "Feature",
      "properties": {
        "id": "batch3_q7",
        "batch_file": "lugano_batch3_satellite_confirmed_palms.geojson",
        "source": "satellite_landmark_match",
        "ndvi_near_v2": 0.33,
        "ndvi_bg_v2": 0.12,
        "ndvi_contrast_current": 0.2,
        "ndvi_signal_current": "distinct",
        "note": "adjacent block to batch2 suburban cluster, ~70-135m away; several points <15m apart",
        "imagery_vintage_note": null,
        "crossing_angle_deg": null,
        "agreement_with_estimate_m": null,
        "ndvi_at_point": 0.31,
        "ndvi_near_3m": 0.33,
        "ndvi_background": 0.25,
        "ndvi_contrast_v1_deprecated": 0.08,
        "ndvi_signal_v1_deprecated": "weak"
      },
      "geometry": {
        "type": "Point",
        "coordinates": [
          2719875.3165306817,
          1115723.7610300812
        ]
      }
    },
    {
      "type": "Feature",
      "properties": {
        "id": "batch3_q8",
        "batch_file": "lugano_batch3_satellite_confirmed_palms.geojson",
        "source": "satellite_landmark_match",
        "ndvi_near_v2": 0.19,
        "ndvi_bg_v2": 0.08,
        "ndvi_contrast_current": 0.11,
        "ndvi_signal_current": "distinct",
        "note": "adjacent block to batch2 suburban cluster, ~70-135m away; several points <15m apart",
        "imagery_vintage_note": null,
        "crossing_angle_deg": null,
        "agreement_with_estimate_m": null,
        "ndvi_at_point": 0.46,
        "ndvi_near_3m": 0.19,
        "ndvi_background": 0.18,
        "ndvi_contrast_v1_deprecated": 0.01,
        "ndvi_signal_v1_deprecated": "none"
      },
      "geometry": {
        "type": "Point",
        "coordinates": [
          2719868.2040721537,
          1115732.4989918545
        ]
      }
    },
    {
      "type": "Feature",
      "properties": {
        "id": "batch3_q9",
        "batch_file": "lugano_batch3_satellite_confirmed_palms.geojson",
        "source": "satellite_landmark_match",
        "ndvi_near_v2": 0.5,
        "ndvi_bg_v2": 0.14,
        "ndvi_contrast_current": 0.36,
        "ndvi_signal_current": "distinct",
        "note": "adjacent block to batch2 suburban cluster, ~70-135m away; several points <15m apart",
        "imagery_vintage_note": null,
        "crossing_angle_deg": null,
        "agreement_with_estimate_m": null,
        "ndvi_at_point": 0.44,
        "ndvi_near_3m": 0.5,
        "ndvi_background": 0.2,
        "ndvi_contrast_v1_deprecated": 0.3,
        "ndvi_signal_v1_deprecated": "distinct"
      },
      "geometry": {
        "type": "Point",
        "coordinates": [
          2719869.0040070703,
          1115723.481222255
        ]
      }
    },
    {
      "type": "Feature",
      "properties": {
        "id": "batch3_q10",
        "batch_file": "lugano_batch3_satellite_confirmed_palms.geojson",
        "source": "satellite_landmark_match",
        "ndvi_near_v2": 0.36,
        "ndvi_bg_v2": 0.12,
        "ndvi_contrast_current": 0.25,
        "ndvi_signal_current": "distinct",
        "note": "adjacent block to batch2 suburban cluster, ~70-135m away; several points <15m apart",
        "imagery_vintage_note": null,
        "crossing_angle_deg": null,
        "agreement_with_estimate_m": null,
        "ndvi_at_point": 0.56,
        "ndvi_near_3m": 0.36,
        "ndvi_background": 0.19,
        "ndvi_contrast_v1_deprecated": 0.17,
        "ndvi_signal_v1_deprecated": "distinct"
      },
      "geometry": {
        "type": "Point",
        "coordinates": [
          2719866.6060600295,
          1115726.8923414024
        ]
      }
    },
    {
      "type": "Feature",
      "properties": {
        "id": "batch4_r1",
        "batch_file": "lugano_batch4_satellite_confirmed_palms.geojson",
        "source": "satellite_landmark_match",
        "ndvi_near_v2": 0.18,
        "ndvi_bg_v2": 0.14,
        "ndvi_contrast_current": 0.04,
        "ndvi_signal_current": "weak",
        "note": "3 trunks within ~30cm of each other, produces ONE merged canopy",
        "imagery_vintage_note": null,
        "crossing_angle_deg": null,
        "agreement_with_estimate_m": null,
        "ndvi_at_point": null,
        "ndvi_near_3m": null,
        "ndvi_background": null,
        "ndvi_contrast_v1_deprecated": null,
        "ndvi_signal_v1_deprecated": null
      },
      "geometry": {
        "type": "Point",
        "coordinates": [
          2720231.5614099638,
          1115320.5649414323
        ]
      }
    },
    {
      "type": "Feature",
      "properties": {
        "id": "batch4_r2",
        "batch_file": "lugano_batch4_satellite_confirmed_palms.geojson",
        "source": "satellite_landmark_match",
        "ndvi_near_v2": 0.46,
        "ndvi_bg_v2": 0.27,
        "ndvi_contrast_current": 0.2,
        "ndvi_signal_current": "distinct",
        "note": "",
        "imagery_vintage_note": null,
        "crossing_angle_deg": null,
        "agreement_with_estimate_m": null,
        "ndvi_at_point": null,
        "ndvi_near_3m": null,
        "ndvi_background": null,
        "ndvi_contrast_v1_deprecated": null,
        "ndvi_signal_v1_deprecated": null
      },
      "geometry": {
        "type": "Point",
        "coordinates": [
          2720254.3510721466,
          1115307.4402219928
        ]
      }
    },
    {
      "type": "Feature",
      "properties": {
        "id": "batch4_r3",
        "batch_file": "lugano_batch4_satellite_confirmed_palms.geojson",
        "source": "satellite_landmark_match",
        "ndvi_near_v2": 0.33,
        "ndvi_bg_v2": 0.32,
        "ndvi_contrast_current": 0.01,
        "ndvi_signal_current": "none",
        "note": "",
        "imagery_vintage_note": null,
        "crossing_angle_deg": null,
        "agreement_with_estimate_m": null,
        "ndvi_at_point": null,
        "ndvi_near_3m": null,
        "ndvi_background": null,
        "ndvi_contrast_v1_deprecated": null,
        "ndvi_signal_v1_deprecated": null
      },
      "geometry": {
        "type": "Point",
        "coordinates": [
          2720255.0968939085,
          1115309.0037585145
        ]
      }
    },
    {
      "type": "Feature",
      "properties": {
        "id": "palm_1",
        "batch_file": "lugano_example_confirmed_palms.geojson",
        "source": "triangulated",
        "ndvi_near_v2": 0.57,
        "ndvi_bg_v2": 0.42,
        "ndvi_contrast_current": 0.15,
        "ndvi_signal_current": "distinct",
        "note": "",
        "imagery_vintage_note": null,
        "crossing_angle_deg": 80.0,
        "agreement_with_estimate_m": 2.4,
        "ndvi_at_point": 0.37,
        "ndvi_near_3m": 0.31,
        "ndvi_background": 0.21,
        "ndvi_contrast_v1_deprecated": 0.1,
        "ndvi_signal_v1_deprecated": "weak"
      },
      "geometry": {
        "type": "Point",
        "coordinates": [
          2718329.3473819224,
          1115252.1581521283
        ]
      }
    },
    {
      "type": "Feature",
      "properties": {
        "id": "palm_2",
        "batch_file": "lugano_example_confirmed_palms.geojson",
        "source": "triangulated",
        "ndvi_near_v2": 0.3,
        "ndvi_bg_v2": 0.21,
        "ndvi_contrast_current": 0.09,
        "ndvi_signal_current": "weak",
        "note": "",
        "imagery_vintage_note": null,
        "crossing_angle_deg": 111.2,
        "agreement_with_estimate_m": 3.4,
        "ndvi_at_point": 0.59,
        "ndvi_near_3m": 0.24,
        "ndvi_background": 0.08,
        "ndvi_contrast_v1_deprecated": 0.16,
        "ndvi_signal_v1_deprecated": "distinct"
      },
      "geometry": {
        "type": "Point",
        "coordinates": [
          2718326.378822503,
          1115244.3624724338
        ]
      }
    },
    {
      "type": "Feature",
      "properties": {
        "id": "palm_3a",
        "batch_file": "lugano_example_confirmed_palms.geojson",
        "source": "triangulated",
        "ndvi_near_v2": 0.38,
        "ndvi_bg_v2": 0.17,
        "ndvi_contrast_current": 0.21,
        "ndvi_signal_current": "distinct",
        "note": "",
        "imagery_vintage_note": null,
        "crossing_angle_deg": 99.8,
        "agreement_with_estimate_m": 3.1,
        "ndvi_at_point": 0.58,
        "ndvi_near_3m": 0.26,
        "ndvi_background": 0.07,
        "ndvi_contrast_v1_deprecated": 0.19,
        "ndvi_signal_v1_deprecated": "distinct"
      },
      "geometry": {
        "type": "Point",
        "coordinates": [
          2718319.7660336685,
          1115241.2682686683
        ]
      }
    },
    {
      "type": "Feature",
      "properties": {
        "id": "palm_3b",
        "batch_file": "lugano_example_confirmed_palms.geojson",
        "source": "triangulated",
        "ndvi_near_v2": 0.47,
        "ndvi_bg_v2": 0.19,
        "ndvi_contrast_current": 0.28,
        "ndvi_signal_current": "distinct",
        "note": "",
        "imagery_vintage_note": null,
        "crossing_angle_deg": 86.3,
        "agreement_with_estimate_m": 3.5,
        "ndvi_at_point": 0.48,
        "ndvi_near_3m": 0.29,
        "ndvi_background": 0.13,
        "ndvi_contrast_v1_deprecated": 0.16,
        "ndvi_signal_v1_deprecated": "distinct"
      },
      "geometry": {
        "type": "Point",
        "coordinates": [
          2718310.7320651994,
          1115238.6251975563
        ]
      }
    },
    {
      "type": "Feature",
      "properties": {
        "id": "palm_4",
        "batch_file": "lugano_example_confirmed_palms.geojson",
        "source": "triangulated",
        "ndvi_near_v2": 0.22,
        "ndvi_bg_v2": 0.19,
        "ndvi_contrast_current": 0.03,
        "ndvi_signal_current": "none",
        "note": "",
        "imagery_vintage_note": null,
        "crossing_angle_deg": 96.8,
        "agreement_with_estimate_m": 2.0,
        "ndvi_at_point": 0.26,
        "ndvi_near_3m": 0.15,
        "ndvi_background": 0.14,
        "ndvi_contrast_v1_deprecated": 0.01,
        "ndvi_signal_v1_deprecated": "none"
      },
      "geometry": {
        "type": "Point",
        "coordinates": [
          2718280.4349184623,
          1115219.3439006226
        ]
      }
    },
    {
      "type": "Feature",
      "properties": {
        "id": "palm_5",
        "batch_file": "lugano_example_confirmed_palms.geojson",
        "source": "triangulated",
        "ndvi_near_v2": 0.44,
        "ndvi_bg_v2": 0.15,
        "ndvi_contrast_current": 0.29,
        "ndvi_signal_current": "distinct",
        "note": "",
        "imagery_vintage_note": null,
        "crossing_angle_deg": 145.6,
        "agreement_with_estimate_m": 1.9,
        "ndvi_at_point": 0.73,
        "ndvi_near_3m": 0.35,
        "ndvi_background": 0.11,
        "ndvi_contrast_v1_deprecated": 0.24,
        "ndvi_signal_v1_deprecated": "distinct"
      },
      "geometry": {
        "type": "Point",
        "coordinates": [
          2718278.8300972437,
          1115217.41858019
        ]
      }
    },
    {
      "type": "Feature",
      "properties": {
        "id": "palm_6",
        "batch_file": "lugano_example_confirmed_palms.geojson",
        "source": "triangulated",
        "ndvi_near_v2": 0.28,
        "ndvi_bg_v2": 0.6,
        "ndvi_contrast_current": -0.32,
        "ndvi_signal_current": "none",
        "note": "2 trees here",
        "imagery_vintage_note": null,
        "crossing_angle_deg": 124.9,
        "agreement_with_estimate_m": 3.5,
        "ndvi_at_point": 0.21,
        "ndvi_near_3m": 0.27,
        "ndvi_background": 0.33,
        "ndvi_contrast_v1_deprecated": -0.05,
        "ndvi_signal_v1_deprecated": "none"
      },
      "geometry": {
        "type": "Point",
        "coordinates": [
          2718267.7353233336,
          1115223.6585325126
        ]
      }
    },
    {
      "type": "Feature",
      "properties": {
        "id": "palm_7",
        "batch_file": "lugano_example_confirmed_palms.geojson",
        "source": "triangulated",
        "ndvi_near_v2": 0.33,
        "ndvi_bg_v2": 0.27,
        "ndvi_contrast_current": 0.06,
        "ndvi_signal_current": "weak",
        "note": "B barely visible - lower confidence",
        "imagery_vintage_note": null,
        "crossing_angle_deg": 102.3,
        "agreement_with_estimate_m": 3.7,
        "ndvi_at_point": 0.21,
        "ndvi_near_3m": 0.15,
        "ndvi_background": 0.12,
        "ndvi_contrast_v1_deprecated": 0.03,
        "ndvi_signal_v1_deprecated": "none"
      },
      "geometry": {
        "type": "Point",
        "coordinates": [
          2718207.2213613153,
          1115172.8832230403
        ]
      }
    },
    {
      "type": "Feature",
      "properties": {
        "id": "palm_8",
        "batch_file": "lugano_example_confirmed_palms.geojson",
        "source": "triangulated",
        "ndvi_near_v2": 0.24,
        "ndvi_bg_v2": 0.14,
        "ndvi_contrast_current": 0.1,
        "ndvi_signal_current": "weak",
        "note": "",
        "imagery_vintage_note": null,
        "crossing_angle_deg": 112.3,
        "agreement_with_estimate_m": 1.9,
        "ndvi_at_point": -0.05,
        "ndvi_near_3m": 0.04,
        "ndvi_background": 0.04,
        "ndvi_contrast_v1_deprecated": -0.0,
        "ndvi_signal_v1_deprecated": "none"
      },
      "geometry": {
        "type": "Point",
        "coordinates": [
          2718180.3551378385,
          1115155.2757962004
        ]
      }
    },
    {
      "type": "Feature",
      "properties": {
        "id": "palm_9",
        "batch_file": "lugano_example_confirmed_palms.geojson",
        "source": "triangulated",
        "ndvi_near_v2": 0.16,
        "ndvi_bg_v2": 0.18,
        "ndvi_contrast_current": -0.02,
        "ndvi_signal_current": "none",
        "note": "weakest crossing angle - lower confidence",
        "imagery_vintage_note": null,
        "crossing_angle_deg": 38.9,
        "agreement_with_estimate_m": 3.0,
        "ndvi_at_point": -0.14,
        "ndvi_near_3m": 0.07,
        "ndvi_background": 0.13,
        "ndvi_contrast_v1_deprecated": -0.05,
        "ndvi_signal_v1_deprecated": "none"
      },
      "geometry": {
        "type": "Point",
        "coordinates": [
          2718160.9256767766,
          1115153.126008005
        ]
      }
    },
    {
      "type": "Feature",
      "properties": {
        "id": "palm_X",
        "batch_file": "lugano_example_confirmed_palms.geojson",
        "source": "estimate_only",
        "ndvi_near_v2": 0.6,
        "ndvi_bg_v2": 0.63,
        "ndvi_contrast_current": -0.02,
        "ndvi_signal_current": "none",
        "note": "estimate only, too far off-road to triangulate",
        "imagery_vintage_note": null,
        "crossing_angle_deg": null,
        "agreement_with_estimate_m": null,
        "ndvi_at_point": 0.71,
        "ndvi_near_3m": 0.4,
        "ndvi_background": 0.39,
        "ndvi_contrast_v1_deprecated": 0.01,
        "ndvi_signal_v1_deprecated": "none"
      },
      "geometry": {
        "type": "Point",
        "coordinates": [
          2718258.754161995,
          1115233.408591133
        ]
      }
    },
    {
      "type": "Feature",
      "properties": {
        "id": "palm_Y",
        "batch_file": "lugano_example_confirmed_palms.geojson",
        "source": "estimate_only",
        "ndvi_near_v2": 0.66,
        "ndvi_bg_v2": 0.62,
        "ndvi_contrast_current": 0.03,
        "ndvi_signal_current": "none",
        "note": "estimate only, too far off-road to triangulate",
        "imagery_vintage_note": null,
        "crossing_angle_deg": null,
        "agreement_with_estimate_m": null,
        "ndvi_at_point": 0.58,
        "ndvi_near_3m": 0.54,
        "ndvi_background": 0.35,
        "ndvi_contrast_v1_deprecated": 0.2,
        "ndvi_signal_v1_deprecated": "distinct"
      },
      "geometry": {
        "type": "Point",
        "coordinates": [
          2718265.131863954,
          1115238.334173168
        ]
      }
    },
    {
      "type": "Feature",
      "properties": {
        "id": "gearth_batch1_palm_1",
        "x": 2719192.21,
        "y": 1113093.4,
        "lon": 8.981699936371864,
        "lat": 46.15877416952298,
        "note": "cnofindent of palm",
        "source": "google_earth_visual_review_batch1",
        "batch_file": "google_earth_review_batch1_confirmed_palms.geojson"
      },
      "geometry": {
        "type": "Point",
        "coordinates": [
          2719192.21,
          1113093.4
        ]
      }
    },
    {
      "type": "Feature",
      "properties": {
        "id": "gearth_batch1_palm_2",
        "x": 2718737.39,
        "y": 1112870.87,
        "lon": 8.975756882199079,
        "lat": 46.15685314207267,
        "note": "confident",
        "source": "google_earth_visual_review_batch1",
        "batch_file": "google_earth_review_batch1_confirmed_palms.geojson"
      },
      "geometry": {
        "type": "Point",
        "coordinates": [
          2718737.39,
          1112870.87
        ]
      }
    },
    {
      "type": "Feature",
      "properties": {
        "id": "gearth_batch1_palm_3",
        "x": 2718735.97,
        "y": 1112875.55,
        "lon": 8.975739624416057,
        "lat": 46.15689540607681,
        "note": "confident",
        "source": "google_earth_visual_review_batch1",
        "batch_file": "google_earth_review_batch1_confirmed_palms.geojson"
      },
      "geometry": {
        "type": "Point",
        "coordinates": [
          2718735.97,
          1112875.55
        ]
      }
    },
    {
      "type": "Feature",
      "properties": {
        "id": "gearth_batch1_palm_4",
        "x": 2718735.06,
        "y": 1112879.45,
        "lon": 8.975728929955679,
        "lat": 46.15693064683472,
        "note": "confident",
        "source": "google_earth_visual_review_batch1",
        "batch_file": "google_earth_review_batch1_confirmed_palms.geojson"
      },
      "geometry": {
        "type": "Point",
        "coordinates": [
          2718735.06,
          1112879.45
        ]
      }
    },
    {
      "type": "Feature",
      "properties": {
        "id": "gearth_batch1_palm_5",
        "x": 2718973.64,
        "y": 1112890.65,
        "lon": 8.978819550832203,
        "lat": 46.15698935637763,
        "note": "",
        "source": "google_earth_visual_review_batch1",
        "batch_file": "google_earth_review_batch1_confirmed_palms.geojson"
      },
      "geometry": {
        "type": "Point",
        "coordinates": [
          2718973.64,
          1112890.65
        ]
      }
    },
    {
      "type": "Feature",
      "properties": {
        "id": "gearth_batch1_palm_6",
        "x": 2718766.78,
        "y": 1112807.8,
        "lon": 8.976121301000076,
        "lat": 46.15628071029512,
        "note": "confident",
        "source": "google_earth_visual_review_batch1",
        "batch_file": "google_earth_review_batch1_confirmed_palms.geojson"
      },
      "geometry": {
        "type": "Point",
        "coordinates": [
          2718766.78,
          1112807.8
        ]
      }
    },
    {
      "type": "Feature",
      "properties": {
        "id": "gearth_batch1_palm_7",
        "x": 2718767.97,
        "y": 1112809.01,
        "lon": 8.976137020725997,
        "lat": 46.15629137062606,
        "note": "confident",
        "source": "google_earth_visual_review_batch1",
        "batch_file": "google_earth_review_batch1_confirmed_palms.geojson"
      },
      "geometry": {
        "type": "Point",
        "coordinates": [
          2718767.97,
          1112809.01
        ]
      }
    },
    {
      "type": "Feature",
      "properties": {
        "id": "gearth_batch1_palm_8",
        "x": 2718969.62,
        "y": 1112900.88,
        "lon": 8.978770082603988,
        "lat": 46.15708201113373,
        "note": "",
        "source": "google_earth_visual_review_batch1",
        "batch_file": "google_earth_review_batch1_confirmed_palms.geojson"
      },
      "geometry": {
        "type": "Point",
        "coordinates": [
          2718969.62,
          1112900.88
        ]
      }
    },
    {
      "type": "Feature",
      "properties": {
        "id": "gearth_batch1_palm_9",
        "x": 2719220.41,
        "y": 1115724.14,
        "lon": 8.982735167055342,
        "lat": 46.1824296578494,
        "note": "",
        "source": "google_earth_visual_review_batch1",
        "batch_file": "google_earth_review_batch1_confirmed_palms.geojson"
      },
      "geometry": {
        "type": "Point",
        "coordinates": [
          2719220.41,
          1115724.14
        ]
      }
    },
    {
      "type": "Feature",
      "properties": {
        "id": "gearth_batch1_palm_10",
        "x": 2718982.91,
        "y": 1112877.36,
        "lon": 8.978936129733835,
        "lat": 46.15686817051118,
        "note": "",
        "source": "google_earth_visual_review_batch1",
        "batch_file": "google_earth_review_batch1_confirmed_palms.geojson"
      },
      "geometry": {
        "type": "Point",
        "coordinates": [
          2718982.91,
          1112877.36
        ]
      }
    },
    {
      "type": "Feature",
      "properties": {
        "id": "gearth_batch1_palm_11",
        "x": 2718964.67,
        "y": 1112875.51,
        "lon": 8.978699501799188,
        "lat": 46.15685472750568,
        "note": "",
        "source": "google_earth_visual_review_batch1",
        "batch_file": "google_earth_review_batch1_confirmed_palms.geojson"
      },
      "geometry": {
        "type": "Point",
        "coordinates": [
          2718964.67,
          1112875.51
        ]
      }
    },
    {
      "type": "Feature",
      "properties": {
        "id": "gearth_batch1_palm_12",
        "x": 2719214.54,
        "y": 1115737.04,
        "lon": 8.982662372250378,
        "lat": 46.18254676899015,
        "note": "",
        "source": "google_earth_visual_review_batch1",
        "batch_file": "google_earth_review_batch1_confirmed_palms.geojson"
      },
      "geometry": {
        "type": "Point",
        "coordinates": [
          2719214.54,
          1115737.04
        ]
      }
    },
    {
      "type": "Feature",
      "properties": {
        "id": "gearth_batch1_palm_13",
        "x": 2719222.11,
        "y": 1115759.81,
        "lon": 8.982766191830132,
        "lat": 46.18275020084602,
        "note": "",
        "source": "google_earth_visual_review_batch1",
        "batch_file": "google_earth_review_batch1_confirmed_palms.geojson"
      },
      "geometry": {
        "type": "Point",
        "coordinates": [
          2719222.11,
          1115759.81
        ]
      }
    },
    {
      "type": "Feature",
      "properties": {
        "id": "gearth_batch1_palm_14",
        "x": 2719134.79,
        "y": 1115777.77,
        "lon": 8.981640216475977,
        "lat": 46.18292721388388,
        "note": "",
        "source": "google_earth_visual_review_batch1",
        "batch_file": "google_earth_review_batch1_confirmed_palms.geojson"
      },
      "geometry": {
        "type": "Point",
        "coordinates": [
          2719134.79,
          1115777.77
        ]
      }
    },
    {
      "type": "Feature",
      "properties": {
        "id": "gearth_batch1_palm_15",
        "x": 2719131.57,
        "y": 1115757.23,
        "lon": 8.981593287870016,
        "lat": 46.18274300672678,
        "note": "",
        "source": "google_earth_visual_review_batch1",
        "batch_file": "google_earth_review_batch1_confirmed_palms.geojson"
      },
      "geometry": {
        "type": "Point",
        "coordinates": [
          2719131.57,
          1115757.23
        ]
      }
    },
    {
      "type": "Feature",
      "properties": {
        "id": "gearth_batch1_palm_16",
        "x": 2719135.5,
        "y": 1115776.46,
        "lon": 8.981649096545517,
        "lat": 46.182915320595,
        "note": "",
        "source": "google_earth_visual_review_batch1",
        "batch_file": "google_earth_review_batch1_confirmed_palms.geojson"
      },
      "geometry": {
        "type": "Point",
        "coordinates": [
          2719135.5,
          1115776.46
        ]
      }
    },
    {
      "type": "Feature",
      "properties": {
        "id": "gearth_batch1_palm_17",
        "x": 2719098.36,
        "y": 1115721.45,
        "lon": 8.981154096111734,
        "lat": 46.18242707381214,
        "note": "",
        "source": "google_earth_visual_review_batch1",
        "batch_file": "google_earth_review_batch1_confirmed_palms.geojson"
      },
      "geometry": {
        "type": "Point",
        "coordinates": [
          2719098.36,
          1115721.45
        ]
      }
    },
    {
      "type": "Feature",
      "properties": {
        "id": "gearth_batch1_palm_18",
        "x": 2719085.32,
        "y": 1115718.45,
        "lon": 8.980984531534235,
        "lat": 46.1824023763557,
        "note": "",
        "source": "google_earth_visual_review_batch1",
        "batch_file": "google_earth_review_batch1_confirmed_palms.geojson"
      },
      "geometry": {
        "type": "Point",
        "coordinates": [
          2719085.32,
          1115718.45
        ]
      }
    },
    {
      "type": "Feature",
      "properties": {
        "id": "gearth_batch1_palm_19",
        "x": 2719133.67,
        "y": 1115776.42,
        "lon": 8.98162536083456,
        "lat": 46.18291528132771,
        "note": "",
        "source": "google_earth_visual_review_batch1",
        "batch_file": "google_earth_review_batch1_confirmed_palms.geojson"
      },
      "geometry": {
        "type": "Point",
        "coordinates": [
          2719133.67,
          1115776.42
        ]
      }
    },
    {
      "type": "Feature",
      "properties": {
        "id": "gearth_batch1_palm_20",
        "x": 2719081.95,
        "y": 1115714.56,
        "lon": 8.980939956408884,
        "lat": 46.18236807171817,
        "note": "",
        "source": "google_earth_visual_review_batch1",
        "batch_file": "google_earth_review_batch1_confirmed_palms.geojson"
      },
      "geometry": {
        "type": "Point",
        "coordinates": [
          2719081.95,
          1115714.56
        ]
      }
    },
    {
      "type": "Feature",
      "properties": {
        "id": "gearth_batch1_palm_21",
        "x": 2719005.3,
        "y": 1115638.1,
        "lon": 8.979927907473328,
        "lat": 46.18169386497061,
        "note": "",
        "source": "google_earth_visual_review_batch1",
        "batch_file": "google_earth_review_batch1_confirmed_palms.geojson"
      },
      "geometry": {
        "type": "Point",
        "coordinates": [
          2719005.3,
          1115638.1
        ]
      }
    },
    {
      "type": "Feature",
      "properties": {
        "id": "gearth_batch2_palm_1",
        "x": 2719344.32,
        "y": 1115862.71,
        "lon": 8.98437491753566,
        "lat": 46.18365404761143,
        "note": "",
        "source": "google_earth_visual_review_batch2",
        "batch_file": "google_earth_review_batch2_confirmed_palms.geojson"
      },
      "geometry": {
        "type": "Point",
        "coordinates": [
          2719344.32,
          1115862.71
        ]
      }
    },
    {
      "type": "Feature",
      "properties": {
        "id": "gearth_batch2_palm_2",
        "x": 2719130.74,
        "y": 1115723.48,
        "lon": 8.981573926843554,
        "lat": 46.18243961620053,
        "note": "",
        "source": "google_earth_visual_review_batch2",
        "batch_file": "google_earth_review_batch2_confirmed_palms.geojson"
      },
      "geometry": {
        "type": "Point",
        "coordinates": [
          2719130.74,
          1115723.48
        ]
      }
    },
    {
      "type": "Feature",
      "properties": {
        "id": "gearth_batch2_palm_3",
        "x": 2719128.67,
        "y": 1115721.2,
        "lon": 8.981546561570186,
        "lat": 46.18241946277303,
        "note": "",
        "source": "google_earth_visual_review_batch2",
        "batch_file": "google_earth_review_batch2_confirmed_palms.geojson"
      },
      "geometry": {
        "type": "Point",
        "coordinates": [
          2719128.67,
          1115721.2
        ]
      }
    },
    {
      "type": "Feature",
      "properties": {
        "id": "gearth_batch2_palm_4",
        "x": 2719195.37,
        "y": 1115530.41,
        "lon": 8.98236159095083,
        "lat": 46.18069174509675,
        "note": "",
        "source": "google_earth_visual_review_batch2",
        "batch_file": "google_earth_review_batch2_confirmed_palms.geojson"
      },
      "geometry": {
        "type": "Point",
        "coordinates": [
          2719195.37,
          1115530.41
        ]
      }
    },
    {
      "type": "Feature",
      "properties": {
        "id": "gearth_batch2_palm_5",
        "x": 2719410.44,
        "y": 1115856.42,
        "lon": 8.985229526476456,
        "lat": 46.18358574860736,
        "note": "",
        "source": "google_earth_visual_review_batch2",
        "batch_file": "google_earth_review_batch2_confirmed_palms.geojson"
      },
      "geometry": {
        "type": "Point",
        "coordinates": [
          2719410.44,
          1115856.42
        ]
      }
    },
    {
      "type": "Feature",
      "properties": {
        "id": "gearth_batch2_palm_6",
        "x": 2719368.84,
        "y": 1115855.2,
        "lon": 8.984690456384289,
        "lat": 46.18358212662727,
        "note": "",
        "source": "google_earth_visual_review_batch2",
        "batch_file": "google_earth_review_batch2_confirmed_palms.geojson"
      },
      "geometry": {
        "type": "Point",
        "coordinates": [
          2719368.84,
          1115855.2
        ]
      }
    },
    {
      "type": "Feature",
      "properties": {
        "id": "gearth_batch2_palm_7",
        "x": 2719143.96,
        "y": 1112890.33,
        "lon": 8.981023755716958,
        "lat": 46.15695632593776,
        "note": "",
        "source": "google_earth_visual_review_batch2",
        "batch_file": "google_earth_review_batch2_confirmed_palms.geojson"
      },
      "geometry": {
        "type": "Point",
        "coordinates": [
          2719143.96,
          1112890.33
        ]
      }
    },
    {
      "type": "Feature",
      "properties": {
        "id": "gearth_batch2_palm_8",
        "x": 2719039.93,
        "y": 1112861.89,
        "lon": 8.979670157818148,
        "lat": 46.15671898575954,
        "note": "",
        "source": "google_earth_visual_review_batch2",
        "batch_file": "google_earth_review_batch2_confirmed_palms.geojson"
      },
      "geometry": {
        "type": "Point",
        "coordinates": [
          2719039.93,
          1112861.89
        ]
      }
    },
    {
      "type": "Feature",
      "properties": {
        "id": "gearth_batch2_palm_9",
        "x": 2719139.22,
        "y": 1112892.88,
        "lon": 8.98096304720334,
        "lat": 46.1569800974405,
        "note": "",
        "source": "google_earth_visual_review_batch2",
        "batch_file": "google_earth_review_batch2_confirmed_palms.geojson"
      },
      "geometry": {
        "type": "Point",
        "coordinates": [
          2719139.22,
          1112892.88
        ]
      }
    },
    {
      "type": "Feature",
      "properties": {
        "id": "gearth_batch2_palm_10",
        "x": 2718769.56,
        "y": 1112948.58,
        "lon": 8.976192976607106,
        "lat": 46.15754632544851,
        "note": "",
        "source": "google_earth_visual_review_batch2",
        "batch_file": "google_earth_review_batch2_confirmed_palms.geojson"
      },
      "geometry": {
        "type": "Point",
        "coordinates": [
          2718769.56,
          1112948.58
        ]
      }
    },
    {
      "type": "Feature",
      "properties": {
        "id": "gearth_batch2_palm_11",
        "x": 2718767.3,
        "y": 1112957.47,
        "lon": 8.976165893524469,
        "lat": 46.15762667299978,
        "note": "",
        "source": "google_earth_visual_review_batch2",
        "batch_file": "google_earth_review_batch2_confirmed_palms.geojson"
      },
      "geometry": {
        "type": "Point",
        "coordinates": [
          2718767.3,
          1112957.47
        ]
      }
    },
    {
      "type": "Feature",
      "properties": {
        "id": "gearth_batch2_palm_12",
        "x": 2718842.48,
        "y": 1113005.1,
        "lon": 8.977151068114715,
        "lat": 46.15804184312179,
        "note": "",
        "source": "google_earth_visual_review_batch2",
        "batch_file": "google_earth_review_batch2_confirmed_palms.geojson"
      },
      "geometry": {
        "type": "Point",
        "coordinates": [
          2718842.48,
          1113005.1
        ]
      }
    },
    {
      "type": "Feature",
      "properties": {
        "id": "gearth_batch2_palm_13",
        "x": 2719362.77,
        "y": 1115923.3,
        "lon": 8.984629236940256,
        "lat": 46.18419567249683,
        "note": "",
        "source": "google_earth_visual_review_batch2",
        "batch_file": "google_earth_review_batch2_confirmed_palms.geojson"
      },
      "geometry": {
        "type": "Point",
        "coordinates": [
          2719362.77,
          1115923.3
        ]
      }
    },
    {
      "type": "Feature",
      "properties": {
        "id": "gearth_batch2_palm_14",
        "x": 2718651.57,
        "y": 1113192.7,
        "lon": 8.97472772449682,
        "lat": 46.15976271475045,
        "note": "",
        "source": "google_earth_visual_review_batch2",
        "batch_file": "google_earth_review_batch2_confirmed_palms.geojson"
      },
      "geometry": {
        "type": "Point",
        "coordinates": [
          2718651.57,
          1113192.7
        ]
      }
    },
    {
      "type": "Feature",
      "properties": {
        "id": "gearth_batch2_palm_15",
        "x": 2718650.0,
        "y": 1113190.52,
        "lon": 8.974706847441096,
        "lat": 46.15974340160898,
        "note": "",
        "source": "google_earth_visual_review_batch2",
        "batch_file": "google_earth_review_batch2_confirmed_palms.geojson"
      },
      "geometry": {
        "type": "Point",
        "coordinates": [
          2718650.0,
          1113190.52
        ]
      }
    },
    {
      "type": "Feature",
      "properties": {
        "id": "gearth_batch2_palm_16",
        "x": 2719429.37,
        "y": 1115821.96,
        "lon": 8.985465771414587,
        "lat": 46.18327244968248,
        "note": "",
        "source": "google_earth_visual_review_batch2",
        "batch_file": "google_earth_review_batch2_confirmed_palms.geojson"
      },
      "geometry": {
        "type": "Point",
        "coordinates": [
          2719429.37,
          1115821.96
        ]
      }
    },
    {
      "type": "Feature",
      "properties": {
        "id": "gearth_batch2_palm_17",
        "x": 2719369.68,
        "y": 1115857.48,
        "lon": 8.984701941091636,
        "lat": 46.18360250930618,
        "note": "",
        "source": "google_earth_visual_review_batch2",
        "batch_file": "google_earth_review_batch2_confirmed_palms.geojson"
      },
      "geometry": {
        "type": "Point",
        "coordinates": [
          2719369.68,
          1115857.48
        ]
      }
    },
    {
      "type": "Feature",
      "properties": {
        "id": "gearth_batch2_palm_18",
        "x": 2719932.22,
        "y": 1115531.88,
        "lon": 8.991902556768371,
        "lat": 46.18057410402975,
        "note": "",
        "source": "google_earth_visual_review_batch2",
        "batch_file": "google_earth_review_batch2_confirmed_palms.geojson"
      },
      "geometry": {
        "type": "Point",
        "coordinates": [
          2719932.22,
          1115531.88
        ]
      }
    },
    {
      "type": "Feature",
      "properties": {
        "id": "gearth_batch2_palm_19",
        "x": 2719849.67,
        "y": 1115587.63,
        "lon": 8.990847908985227,
        "lat": 46.18109021509861,
        "note": "",
        "source": "google_earth_visual_review_batch2",
        "batch_file": "google_earth_review_batch2_confirmed_palms.geojson"
      },
      "geometry": {
        "type": "Point",
        "coordinates": [
          2719849.67,
          1115587.63
        ]
      }
    },
    {
      "type": "Feature",
      "properties": {
        "id": "gearth_batch2_palm_20",
        "x": 2719368.64,
        "y": 1115856.55,
        "lon": 8.984688250253491,
        "lat": 46.18359428112282,
        "note": "",
        "source": "google_earth_visual_review_batch2",
        "batch_file": "google_earth_review_batch2_confirmed_palms.geojson"
      },
      "geometry": {
        "type": "Point",
        "coordinates": [
          2719368.64,
          1115856.55
        ]
      }
    },
    {
      "type": "Feature",
      "properties": {
        "id": "gearth_batch2_palm_21",
        "x": 2718322.72,
        "y": 1114557.99,
        "lon": 8.970816704268245,
        "lat": 46.17209977637343,
        "note": "",
        "source": "google_earth_visual_review_batch2",
        "batch_file": "google_earth_review_batch2_confirmed_palms.geojson"
      },
      "geometry": {
        "type": "Point",
        "coordinates": [
          2718322.72,
          1114557.99
        ]
      }
    },
    {
      "type": "Feature",
      "properties": {
        "id": "gearth_batch2_palm_22",
        "x": 2719487.32,
        "y": 1115739.03,
        "lon": 8.986194899162186,
        "lat": 46.18251628402295,
        "note": "",
        "source": "google_earth_visual_review_batch2",
        "batch_file": "google_earth_review_batch2_confirmed_palms.geojson"
      },
      "geometry": {
        "type": "Point",
        "coordinates": [
          2719487.32,
          1115739.03
        ]
      }
    },
    {
      "type": "Feature",
      "properties": {
        "id": "gearth_batch2_palm_23",
        "x": 2718348.05,
        "y": 1114566.36,
        "lon": 8.971146663521147,
        "lat": 46.1721706349412,
        "note": "",
        "source": "google_earth_visual_review_batch2",
        "batch_file": "google_earth_review_batch2_confirmed_palms.geojson"
      },
      "geometry": {
        "type": "Point",
        "coordinates": [
          2718348.05,
          1114566.36
        ]
      }
    },
    {
      "type": "Feature",
      "properties": {
        "id": "gearth_batch2_palm_24",
        "x": 2719485.91,
        "y": 1115727.57,
        "lon": 8.986173723445486,
        "lat": 46.18241345578551,
        "note": "",
        "source": "google_earth_visual_review_batch2",
        "batch_file": "google_earth_review_batch2_confirmed_palms.geojson"
      },
      "geometry": {
        "type": "Point",
        "coordinates": [
          2719485.91,
          1115727.57
        ]
      }
    },
    {
      "type": "Feature",
      "properties": {
        "id": "gearth_batch2_palm_25",
        "x": 2719816.97,
        "y": 1115597.02,
        "lon": 8.990426924671937,
        "lat": 46.18118047021123,
        "note": "",
        "source": "google_earth_visual_review_batch2",
        "batch_file": "google_earth_review_batch2_confirmed_palms.geojson"
      },
      "geometry": {
        "type": "Point",
        "coordinates": [
          2719816.97,
          1115597.02
        ]
      }
    },
    {
      "type": "Feature",
      "properties": {
        "id": "gearth_batch2_palm_26",
        "x": 2718528.35,
        "y": 1113778.46,
        "lon": 8.973281212599758,
        "lat": 46.16505264581043,
        "note": "",
        "source": "google_earth_visual_review_batch2",
        "batch_file": "google_earth_review_batch2_confirmed_palms.geojson"
      },
      "geometry": {
        "type": "Point",
        "coordinates": [
          2718528.35,
          1113778.46
        ]
      }
    },
    {
      "type": "Feature",
      "properties": {
        "id": "gearth_batch2_palm_27",
        "x": 2717354.6,
        "y": 1114160.99,
        "lon": 8.95818400126084,
        "lat": 46.16869864087616,
        "note": "",
        "source": "google_earth_visual_review_batch2",
        "batch_file": "google_earth_review_batch2_confirmed_palms.geojson"
      },
      "geometry": {
        "type": "Point",
        "coordinates": [
          2717354.6,
          1114160.99
        ]
      }
    },
    {
      "type": "Feature",
      "properties": {
        "id": "gearth_batch2_palm_28",
        "x": 2717327.98,
        "y": 1114182.66,
        "lon": 8.957844742589645,
        "lat": 46.16889817173984,
        "note": "",
        "source": "google_earth_visual_review_batch2",
        "batch_file": "google_earth_review_batch2_confirmed_palms.geojson"
      },
      "geometry": {
        "type": "Point",
        "coordinates": [
          2717327.98,
          1114182.66
        ]
      }
    }
  ]
}