{
"type": "FeatureCollection",
"name": "lugano_batch2_satellite_confirmed_palms",
"crs": { "type": "name", "properties": { "name": "urn:ogc:def:crs:EPSG::2056" } },
"features": [
{ "type": "Feature", "properties": { "id": "batch2_p1", "x": 2715727.6838535913, "y": 1114591.1012151907, "lat": 46.172848518885097, "lon": 8.9372297193770187, "note": "confident, area near candidate A/B", "rs_dates_available": "20210811,20240821", "source": "satellite_landmark_match", "ndvi_at_point": 0.62, "ndvi_near_3m": 0.36, "ndvi_background": 0.44, "ndvi_contrast": -0.08, "ndvi_signal": "none", "imagery_vintage_note": "Street View source imagery ~2013 vs RS/satellite ~2021-2024; no direct evidence of removal seen, kept in set" }, "geometry": { "type": "Point", "coordinates": [ 2715727.683853591326624, 1114591.101215190719813 ] } },
{ "type": "Feature", "properties": { "id": "batch2_p2", "x": 2715707.9527285602, "y": 1114506.8440873479, "lat": 46.172094104360482, "lon": 8.9369534422318768, "note": "juvenile, blends into grass - lower visual confidence", "rs_dates_available": "20240821", "source": "satellite_landmark_match", "ndvi_at_point": 0.71, "ndvi_near_3m": 0.53, "ndvi_background": 0.57, "ndvi_contrast": -0.04, "ndvi_signal": "none", "imagery_vintage_note": "Street View source imagery ~2013 vs RS/satellite ~2021-2024; no direct evidence of removal seen, kept in set" }, "geometry": { "type": "Point", "coordinates": [ 2715707.952728560194373, 1114506.844087347853929 ] } },
{ "type": "Feature", "properties": { "id": "batch2_p3", "x": 2719674.3763696617, "y": 1115601.5784221753, "lat": 46.181246862606315, "lon": 8.9885818369279509, "note": "multiple palms adjacent", "rs_dates_available": "20210811,20220715,20240810,20240821", "source": "satellite_landmark_match", "ndvi_at_point": 0.58, "ndvi_near_3m": 0.43, "ndvi_background": 0.22, "ndvi_contrast": 0.21, "ndvi_signal": "distinct", "imagery_vintage_note": "Street View source imagery ~2013 vs RS/satellite ~2021-2024; no direct evidence of removal seen, kept in set" }, "geometry": { "type": "Point", "coordinates": [ 2719674.376369661651552, 1115601.578422175254673 ] } },
{ "type": "Feature", "properties": { "id": "batch2_p4", "x": 2719673.299756811, "y": 1115624.2957424093, "lat": 46.181451369977786, "lon": 8.9885737093224005, "note": "multiple palms adjacent", "rs_dates_available": "20210811,20220715,20240810,20240821", "source": "satellite_landmark_match", "ndvi_at_point": 0.67, "ndvi_near_3m": 0.52, "ndvi_background": 0.21, "ndvi_contrast": 0.31, "ndvi_signal": "distinct", "imagery_vintage_note": "Street View source imagery ~2013 vs RS/satellite ~2021-2024; no direct evidence of removal seen, kept in set" }, "geometry": { "type": "Point", "coordinates": [ 2719673.299756811000407, 1115624.295742409303784 ] } },
{ "type": "Feature", "properties": { "id": "batch2_p5", "x": 2719799.3676796574, "y": 1115691.2282428055, "lat": 46.182030933631793, "lon": 8.9902231767054825, "note": "row of 3+", "rs_dates_available": "20210811,20220715,20240810,20240821", "source": "satellite_landmark_match", "ndvi_at_point": 0.67, "ndvi_near_3m": 0.28, "ndvi_background": 0.24, "ndvi_contrast": 0.05, "ndvi_signal": "weak", "imagery_vintage_note": "" }, "geometry": { "type": "Point", "coordinates": [ 2719799.367679657414556, 1115691.228242805460468 ] } },
{ "type": "Feature", "properties": { "id": "batch2_p6", "x": 2719799.8717942904, "y": 1115694.5419498717, "lat": 46.18206064689852, "lon": 8.9902305527799253, "note": "row of 3+", "rs_dates_available": "20210811,20220715,20240810,20240821", "source": "satellite_landmark_match", "ndvi_at_point": 0.65, "ndvi_near_3m": 0.17, "ndvi_background": 0.26, "ndvi_contrast": -0.09, "ndvi_signal": "none", "imagery_vintage_note": "" }, "geometry": { "type": "Point", "coordinates": [ 2719799.871794290374964, 1115694.541949871694669 ] } },
{ "type": "Feature", "properties": { "id": "batch2_p7", "x": 2719800.0908226003, "y": 1115696.559495213, "lat": 46.182078753412569, "lon": 8.9902339055410359, "note": "row of 3+", "rs_dates_available": "20210811,20220715,20240810,20240821", "source": "satellite_landmark_match", "ndvi_at_point": 0.22, "ndvi_near_3m": 0.09, "ndvi_background": 0.26, "ndvi_contrast": -0.16, "ndvi_signal": "none", "imagery_vintage_note": "" }, "geometry": { "type": "Point", "coordinates": [ 2719800.090822600293905, 1115696.559495212975889 ] } },
{ "type": "Feature", "properties": { "id": "batch2_p8", "x": 2719792.339723743, "y": 1115698.3161432906, "lat": 46.182095931381916, "lon": 8.9901339932599402, "note": "row of 3+", "rs_dates_available": "20210811,20220715,20240810,20240821", "source": "satellite_landmark_match", "ndvi_at_point": 0.48, "ndvi_near_3m": 0.25, "ndvi_background": 0.17, "ndvi_contrast": 0.08, "ndvi_signal": "weak", "imagery_vintage_note": "" }, "geometry": { "type": "Point", "coordinates": [ 2719792.339723743032664, 1115698.316143290605396 ] } },
{ "type": "Feature", "properties": { "id": "batch2_p9", "x": 2719805.063552245, "y": 1115678.177579442, "lat": 46.181912544675207, "lon": 8.990293584688807, "note": "confident", "rs_dates_available": "20210811,20220715,20240810,20240821", "source": "satellite_landmark_match", "ndvi_at_point": 0.62, "ndvi_near_3m": 0.34, "ndvi_background": 0.14, "ndvi_contrast": 0.2, "ndvi_signal": "distinct", "imagery_vintage_note": "Street View source imagery ~2013 vs RS/satellite ~2021-2024; no direct evidence of removal seen, kept in set" }, "geometry": { "type": "Point", "coordinates": [ 2719805.063552245032042, 1115678.177579442039132 ] } },
{ "type": "Feature", "properties": { "id": "batch2_p10", "x": 2719815.4947697986, "y": 1115682.3071337719, "lat": 46.181947829253261, "lon": 8.9904297067980217, "note": "SV shows cluster of 4, satellite shows 1 - possible date mismatch", "rs_dates_available": "20210811,20220715,20240810,20240821", "source": "satellite_landmark_match", "ndvi_at_point": 0.47, "ndvi_near_3m": 0.31, "ndvi_background": 0.24, "ndvi_contrast": 0.06, "ndvi_signal": "weak", "imagery_vintage_note": "Street View source imagery ~2013 vs RS/satellite ~2021-2024; no direct evidence of removal seen, kept in set" }, "geometry": { "type": "Point", "coordinates": [ 2719815.494769798591733, 1115682.307133771944791 ] } },
{ "type": "Feature", "properties": { "id": "batch2_p11", "x": 2719822.6730015534, "y": 1115693.816827907, "lat": 46.182050068319803, "lon": 8.9905255997377456, "note": "two palms adjacent, pairs with p12", "rs_dates_available": "20210811,20220715,20240810,20240821", "source": "satellite_landmark_match", "ndvi_at_point": 0.48, "ndvi_near_3m": 0.42, "ndvi_background": 0.34, "ndvi_contrast": 0.08, "ndvi_signal": "weak", "imagery_vintage_note": "" }, "geometry": { "type": "Point", "coordinates": [ 2719822.673001553397626, 1115693.816827906994149 ] } },
{ "type": "Feature", "properties": { "id": "batch2_p12", "x": 2719820.8642064314, "y": 1115693.6261784502, "lat": 46.182048675510515, "lon": 8.9905021304099719, "note": "two palms adjacent, pairs with p11", "rs_dates_available": "20210811,20220715,20240810,20240821", "source": "satellite_landmark_match", "ndvi_at_point": 0.39, "ndvi_near_3m": 0.54, "ndvi_background": 0.31, "ndvi_contrast": 0.23, "ndvi_signal": "distinct", "imagery_vintage_note": "" }, "geometry": { "type": "Point", "coordinates": [ 2719820.864206431433558, 1115693.626178450183943 ] } },
{ "type": "Feature", "properties": { "id": "batch2_p13", "x": 2719843.0905700624, "y": 1115698.9995801565, "lat": 46.182093047672325, "lon": 8.990791296694459, "note": "confident", "rs_dates_available": "20210811,20220715,20240810,20240821", "source": "satellite_landmark_match", "ndvi_at_point": 0.63, "ndvi_near_3m": 0.34, "ndvi_background": 0.17, "ndvi_contrast": 0.17, "ndvi_signal": "distinct", "imagery_vintage_note": "" }, "geometry": { "type": "Point", "coordinates": [ 2719843.090570062398911, 1115698.999580156523734 ] } },
{ "type": "Feature", "properties": { "id": "batch2_p14", "x": 2719856.6889792145, "y": 1115686.2166898439, "lat": 46.181975660110055, "lon": 8.9909640949427807, "note": "cluster of 3 palms", "rs_dates_available": "20210811,20220715,20240810,20240821", "source": "satellite_landmark_match", "ndvi_at_point": 0.59, "ndvi_near_3m": 0.43, "ndvi_background": 0.15, "ndvi_contrast": 0.28, "ndvi_signal": "distinct", "imagery_vintage_note": "Street View source imagery ~2013 vs RS/satellite ~2021-2024; no direct evidence of removal seen, kept in set" }, "geometry": { "type": "Point", "coordinates": [ 2719856.688979214522988, 1115686.216689843917266 ] } }
]
}
