{
"type": "FeatureCollection",
"name": "candidate_scores",
"crs": { "type": "name", "properties": { "name": "urn:ogc:def:crs:EPSG::2056" } },
"features": [
{ "type": "Feature", "properties": { "x": 2719220.9008468231, "y": 1112951.156242036, "tile": "bellinzona_full_nir_2024_c046_r080_nirchm.tif", "predicted_prob": 0.74979108572006226 }, "geometry": { "type": "Point", "coordinates": [ 2719220.900846823118627, 1112951.156242036027834 ] } },
{ "type": "Feature", "properties": { "x": 2721506.007990269, "y": 1115668.0884003127, "tile": "bellinzona_full_nir_2024_c071_r050_nirchm.tif", "predicted_prob": 0.72271484136581421 }, "geometry": { "type": "Point", "coordinates": [ 2721506.007990268990397, 1115668.088400312699378 ] } },
{ "type": "Feature", "properties": { "x": 2720813.9246108825, "y": 1115083.4740819999, "tile": "bellinzona_full_nir_2024_c063_r056_nirchm.tif", "predicted_prob": 0.68016290664672852 }, "geometry": { "type": "Point", "coordinates": [ 2720813.924610882531852, 1115083.474081999855116 ] } },
{ "type": "Feature", "properties": { "x": 2720618.5340603357, "y": 1117103.7563986399, "tile": "bellinzona_full_nir_2024_c061_r034_nirchm.tif", "predicted_prob": 0.66956257820129395 }, "geometry": { "type": "Point", "coordinates": [ 2720618.534060335718095, 1117103.756398639874533 ] } },
{ "type": "Feature", "properties": { "x": 2717876.0670041009, "y": 1112450.7047338823, "tile": "bellinzona_full_nir_2024_c031_r086_nirchm.tif", "predicted_prob": 0.56598246097564697 }, "geometry": { "type": "Point", "coordinates": [ 2717876.067004100885242, 1112450.704733882332221 ] } },
{ "type": "Feature", "properties": { "x": 2717022.6057379567, "y": 1113315.185614022, "tile": "bellinzona_full_nir_2024_c021_r076_nirchm.tif", "predicted_prob": 0.52462434768676758 }, "geometry": { "type": "Point", "coordinates": [ 2717022.605737956706434, 1113315.185614021960646 ] } },
{ "type": "Feature", "properties": { "x": 2720173.6114054434, "y": 1113000.5907808421, "tile": "bellinzona_full_nir_2024_c056_r080_nirchm.tif", "predicted_prob": 0.52420443296432495 }, "geometry": { "type": "Point", "coordinates": [ 2720173.611405443400145, 1113000.590780842117965 ] } },
{ "type": "Feature", "properties": { "x": 2716953.9173479434, "y": 1114385.3403868179, "tile": "bellinzona_full_nir_2024_c020_r064_nirchm.tif", "predicted_prob": 0.40982380509376526 }, "geometry": { "type": "Point", "coordinates": [ 2716953.917347943410277, 1114385.340386817930266 ] } },
{ "type": "Feature", "properties": { "x": 2718979.708226392, "y": 1117078.6683443205, "tile": "bellinzona_full_nir_2024_c043_r034_nirchm.tif", "predicted_prob": 0.3566165566444397 }, "geometry": { "type": "Point", "coordinates": [ 2718979.708226392045617, 1117078.668344320496544 ] } },
{ "type": "Feature", "properties": { "x": 2718156.5406056573, "y": 1113078.1467610016, "tile": "bellinzona_full_nir_2024_c034_r079_nirchm.tif", "predicted_prob": 0.32503879070281982 }, "geometry": { "type": "Point", "coordinates": [ 2718156.540605657268316, 1113078.146761001553386 ] } },
{ "type": "Feature", "properties": { "x": 2719647.583959376, "y": 1111685.2159922884, "tile": "bellinzona_full_nir_2024_c050_r094_nirchm.tif", "predicted_prob": 0.30333095788955688 }, "geometry": { "type": "Point", "coordinates": [ 2719647.583959375973791, 1111685.215992288431153 ] } },
{ "type": "Feature", "properties": { "x": 2718890.7727370597, "y": 1114442.2730733191, "tile": "bellinzona_full_nir_2024_c042_r064_nirchm.tif", "predicted_prob": 0.28440263867378235 }, "geometry": { "type": "Point", "coordinates": [ 2718890.772737059742212, 1114442.273073319112882 ] } },
{ "type": "Feature", "properties": { "x": 2720906.8641559095, "y": 1114869.2714668817, "tile": "bellinzona_full_nir_2024_c064_r059_nirchm.tif", "predicted_prob": 0.27459642291069031 }, "geometry": { "type": "Point", "coordinates": [ 2720906.864155909512192, 1114869.27146688173525 ] } },
{ "type": "Feature", "properties": { "x": 2720200.492888968, "y": 1111816.1527332445, "tile": "bellinzona_full_nir_2024_c056_r093_nirchm.tif", "predicted_prob": 0.25956621766090393 }, "geometry": { "type": "Point", "coordinates": [ 2720200.492888967972249, 1111816.152733244467527 ] } },
{ "type": "Feature", "properties": { "x": 2720461.3835286396, "y": 1119478.4020810211, "tile": "bellinzona_full_nir_2024_c059_r007_nirchm.tif", "predicted_prob": 0.24655584990978241 }, "geometry": { "type": "Point", "coordinates": [ 2720461.383528639562428, 1119478.402081021107733 ] } },
{ "type": "Feature", "properties": { "x": 2720391.5809720526, "y": 1114315.3410367903, "tile": "bellinzona_full_nir_2024_c059_r065_nirchm.tif", "predicted_prob": 0.24449740350246429 }, "geometry": { "type": "Point", "coordinates": [ 2720391.580972052644938, 1114315.341036790283397 ] } },
{ "type": "Feature", "properties": { "x": 2720747.2825931464, "y": 1112285.4510296879, "tile": "bellinzona_full_nir_2024_c063_r088_nirchm.tif", "predicted_prob": 0.23750150203704834 }, "geometry": { "type": "Point", "coordinates": [ 2720747.282593146432191, 1112285.451029687887058 ] } },
{ "type": "Feature", "properties": { "x": 2720233.7219120981, "y": 1111699.4127564556, "tile": "bellinzona_full_nir_2024_c057_r094_nirchm.tif", "predicted_prob": 0.23432101309299469 }, "geometry": { "type": "Point", "coordinates": [ 2720233.721912098117173, 1111699.412756455596536 ] } },
{ "type": "Feature", "properties": { "x": 2717898.6065851441, "y": 1114232.3970471884, "tile": "bellinzona_full_nir_2024_c031_r066_nirchm.tif", "predicted_prob": 0.23319414258003235 }, "geometry": { "type": "Point", "coordinates": [ 2717898.60658514406532, 1114232.397047188365832 ] } },
{ "type": "Feature", "properties": { "x": 2719464.4923482994, "y": 1118102.3276098934, "tile": "bellinzona_full_nir_2024_c048_r023_nirchm.tif", "predicted_prob": 0.22218073904514313 }, "geometry": { "type": "Point", "coordinates": [ 2719464.492348299361765, 1118102.327609893400222 ] } },
{ "type": "Feature", "properties": { "x": 2718973.1661277749, "y": 1116304.9188414288, "tile": "bellinzona_full_nir_2024_c043_r043_nirchm.tif", "predicted_prob": 0.21446223556995392 }, "geometry": { "type": "Point", "coordinates": [ 2718973.166127774864435, 1116304.918841428821906 ] } },
{ "type": "Feature", "properties": { "x": 2719096.8270172803, "y": 1113094.9834636522, "tile": "bellinzona_full_nir_2024_c044_r079_nirchm.tif", "predicted_prob": 0.21296007931232452 }, "geometry": { "type": "Point", "coordinates": [ 2719096.827017280273139, 1113094.983463652199134 ] } },
{ "type": "Feature", "properties": { "x": 2720570.5496748667, "y": 1112116.7830906054, "tile": "bellinzona_full_nir_2024_c061_r090_nirchm.tif", "predicted_prob": 0.20501783490180969 }, "geometry": { "type": "Point", "coordinates": [ 2720570.549674866721034, 1112116.783090605400503 ] } },
{ "type": "Feature", "properties": { "x": 2715989.1645002826, "y": 1114663.8452136389, "tile": "bellinzona_full_nir_2024_c009_r061_nirchm.tif", "predicted_prob": 0.203206866979599 }, "geometry": { "type": "Point", "coordinates": [ 2715989.164500282611698, 1114663.845213638851419 ] } },
{ "type": "Feature", "properties": { "x": 2718098.8721791189, "y": 1118653.0335893878, "tile": "bellinzona_full_nir_2024_c033_r017_nirchm.tif", "predicted_prob": 0.20094029605388641 }, "geometry": { "type": "Point", "coordinates": [ 2718098.872179118916392, 1118653.033589387778193 ] } },
{ "type": "Feature", "properties": { "x": 2718339.116859436, "y": 1116763.8056436419, "tile": "bellinzona_full_nir_2024_c036_r038_nirchm.tif", "predicted_prob": 0.19008840620517731 }, "geometry": { "type": "Point", "coordinates": [ 2718339.116859436035156, 1116763.805643641855568 ] } },
{ "type": "Feature", "properties": { "x": 2719122.4560039011, "y": 1115139.1564966782, "tile": "bellinzona_full_nir_2024_c044_r056_nirchm.tif", "predicted_prob": 0.18437658250331879 }, "geometry": { "type": "Point", "coordinates": [ 2719122.456003901083022, 1115139.156496678246185 ] } },
{ "type": "Feature", "properties": { "x": 2718100.9793668464, "y": 1117447.4746559625, "tile": "bellinzona_full_nir_2024_c033_r030_nirchm.tif", "predicted_prob": 0.18372571468353271 }, "geometry": { "type": "Point", "coordinates": [ 2718100.979366846382618, 1117447.47465596254915 ] } },
{ "type": "Feature", "properties": { "x": 2719698.7260273271, "y": 1115103.7864407145, "tile": "bellinzona_full_nir_2024_c051_r056_nirchm.tif", "predicted_prob": 0.17298521101474762 }, "geometry": { "type": "Point", "coordinates": [ 2719698.726027327124029, 1115103.786440714495257 ] } },
{ "type": "Feature", "properties": { "x": 2719847.3996350593, "y": 1113875.6253407481, "tile": "bellinzona_full_nir_2024_c053_r070_nirchm.tif", "predicted_prob": 0.17162467539310455 }, "geometry": { "type": "Point", "coordinates": [ 2719847.39963505929336, 1113875.625340748112649 ] } },
{ "type": "Feature", "properties": { "x": 2716395.8687174143, "y": 1117274.0857581261, "tile": "bellinzona_full_nir_2024_c014_r032_nirchm.tif", "predicted_prob": 0.17129792273044586 }, "geometry": { "type": "Point", "coordinates": [ 2716395.868717414326966, 1117274.085758126107976 ] } },
{ "type": "Feature", "properties": { "x": 2717616.3553374396, "y": 1117450.8108314176, "tile": "bellinzona_full_nir_2024_c028_r030_nirchm.tif", "predicted_prob": 0.16610050201416016 }, "geometry": { "type": "Point", "coordinates": [ 2717616.355337439570576, 1117450.81083141756244 ] } },
{ "type": "Feature", "properties": { "x": 2716886.3353684507, "y": 1116375.5234480691, "tile": "bellinzona_full_nir_2024_c019_r042_nirchm.tif", "predicted_prob": 0.15394546091556549 }, "geometry": { "type": "Point", "coordinates": [ 2716886.335368450731039, 1116375.523448069114238 ] } },
{ "type": "Feature", "properties": { "x": 2718737.2062789313, "y": 1118821.7187438505, "tile": "bellinzona_full_nir_2024_c040_r015_nirchm.tif", "predicted_prob": 0.14153651893138885 }, "geometry": { "type": "Point", "coordinates": [ 2718737.206278931349516, 1118821.71874385047704 ] } },
{ "type": "Feature", "properties": { "x": 2719973.5051581822, "y": 1115089.8257351038, "tile": "bellinzona_full_nir_2024_c054_r056_nirchm.tif", "predicted_prob": 0.14044198393821716 }, "geometry": { "type": "Point", "coordinates": [ 2719973.505158182233572, 1115089.825735103804618 ] } },
{ "type": "Feature", "properties": { "x": 2717295.001146161, "y": 1115567.7397743387, "tile": "bellinzona_full_nir_2024_c024_r051_nirchm.tif", "predicted_prob": 0.13699804246425629 }, "geometry": { "type": "Point", "coordinates": [ 2717295.00114616099745, 1115567.739774338668212 ] } },
{ "type": "Feature", "properties": { "x": 2719585.5833202298, "y": 1116285.2451898218, "tile": "bellinzona_full_nir_2024_c050_r043_nirchm.tif", "predicted_prob": 0.13543124496936798 }, "geometry": { "type": "Point", "coordinates": [ 2719585.583320229779929, 1116285.245189821813256 ] } },
{ "type": "Feature", "properties": { "x": 2717334.2321692971, "y": 1115653.3971335222, "tile": "bellinzona_full_nir_2024_c024_r050_nirchm.tif", "predicted_prob": 0.1353258490562439 }, "geometry": { "type": "Point", "coordinates": [ 2717334.232169297058135, 1115653.397133522201329 ] } },
{ "type": "Feature", "properties": { "x": 2716085.3307309253, "y": 1118315.1320218113, "tile": "bellinzona_full_nir_2024_c011_r020_nirchm.tif", "predicted_prob": 0.1315665990114212 }, "geometry": { "type": "Point", "coordinates": [ 2716085.330730925314128, 1118315.132021811325103 ] } },
{ "type": "Feature", "properties": { "x": 2715981.5533065605, "y": 1114133.9057716231, "tile": "bellinzona_full_nir_2024_c009_r067_nirchm.tif", "predicted_prob": 0.12930145859718323 }, "geometry": { "type": "Point", "coordinates": [ 2715981.553306560497731, 1114133.90577162313275 ] } },
{ "type": "Feature", "properties": { "x": 2720300.7560616154, "y": 1117937.8752774165, "tile": "bellinzona_full_nir_2024_c058_r025_nirchm.tif", "predicted_prob": 0.11879673600196838 }, "geometry": { "type": "Point", "coordinates": [ 2720300.756061615422368, 1117937.87527741654776 ] } },
{ "type": "Feature", "properties": { "x": 2718299.5647399272, "y": 1116678.3045319556, "tile": "bellinzona_full_nir_2024_c035_r039_nirchm.tif", "predicted_prob": 0.1137772873044014 }, "geometry": { "type": "Point", "coordinates": [ 2718299.564739927183837, 1116678.304531955625862 ] } },
{ "type": "Feature", "properties": { "x": 2717978.1164768278, "y": 1116619.2047083606, "tile": "bellinzona_full_nir_2024_c032_r039_nirchm.tif", "predicted_prob": 0.10377713292837143 }, "geometry": { "type": "Point", "coordinates": [ 2717978.116476827766746, 1116619.204708360601217 ] } },
{ "type": "Feature", "properties": { "x": 2716028.9619288095, "y": 1116456.6660991095, "tile": "bellinzona_full_nir_2024_c010_r041_nirchm.tif", "predicted_prob": 0.10138484835624695 }, "geometry": { "type": "Point", "coordinates": [ 2716028.961928809527308, 1116456.66609910945408 ] } },
{ "type": "Feature", "properties": { "x": 2716807.5900940862, "y": 1116455.7874052469, "tile": "bellinzona_full_nir_2024_c019_r041_nirchm.tif", "predicted_prob": 0.092116445302963257 }, "geometry": { "type": "Point", "coordinates": [ 2716807.590094086248428, 1116455.78740524686873 ] } },
{ "type": "Feature", "properties": { "x": 2715668.5677861557, "y": 1117500.0445622695, "tile": "bellinzona_full_nir_2024_c006_r029_nirchm.tif", "predicted_prob": 0.044815286993980408 }, "geometry": { "type": "Point", "coordinates": [ 2715668.567786155734211, 1117500.04456226946786 ] } },
{ "type": "Feature", "properties": { "x": 2720147.2337938221, "y": 1113993.6596112794, "tile": "bellinzona_full_nir_2024_c056_r069_nirchm.tif", "predicted_prob": 0.04443194717168808 }, "geometry": { "type": "Point", "coordinates": [ 2720147.23379382211715, 1113993.659611279377714 ] } },
{ "type": "Feature", "properties": { "x": 2716314.0590440272, "y": 1114259.1553755177, "tile": "bellinzona_full_nir_2024_c013_r066_nirchm.tif", "predicted_prob": 0.034573815762996674 }, "geometry": { "type": "Point", "coordinates": [ 2716314.059044027235359, 1114259.155375517671928 ] } },
{ "type": "Feature", "properties": { "x": 2718888.3792636376, "y": 1114329.4225247221, "tile": "bellinzona_full_nir_2024_c042_r065_nirchm.tif", "predicted_prob": 0.023984700441360474 }, "geometry": { "type": "Point", "coordinates": [ 2718888.379263637587428, 1114329.422524722060189 ] } },
{ "type": "Feature", "properties": { "x": 2718015.0015782863, "y": 1113986.4891416456, "tile": "bellinzona_full_nir_2024_c032_r069_nirchm.tif", "predicted_prob": 0.0081213200464844704 }, "geometry": { "type": "Point", "coordinates": [ 2718015.001578286290169, 1113986.48914164560847 ] } }
]
}
